{"type":"FeatureCollection","features":[{"type":"Feature","properties":{"ele":300},"geometry":{"type":"MultiLineString","coordinates":[[[5.95853,50.4068],[5.95726,50.40646],[5.95776,50.40617],[5.95881,50.40673],[5.95853,50.4068]],[[5.95519,50.40418],[5.95558,50.40425],[5.95581,50.40458],[5.95699,50.40531],[5.95713,50.40556],[5.95704,50.40564],[5.95677,50.40564],[5.95574,50.40539],[5.95519,50.4055]],[[5.95519,50.39297],[5.95609,50.39291],[5.95694,50.39266],[5.95852,50.39233],[5.95956,50.39123],[5.96001,50.39104],[5.96027,50.39102],[5.96145,50.39123],[5.96222,50.3911],[5.96251,50.39086],[5.96306,50.39079],[5.96339,50.39061],[5.96376,50.39055],[5.9661,50.39056],[5.96876,50.39108],[5.96977,50.39116],[5.9707,50.39158],[5.97108,50.39151],[5.97142,50.39116],[5.97184,50.39118],[5.9726,50.39155],[5.97307,50.39161],[5.97337,50.39144],[5.97384,50.39087],[5.97477,50.39034],[5.97538,50.38977],[5.97612,50.38943],[5.97772,50.38915],[5.97814,50.38899],[5.97805,50.38868],[5.97811,50.38847],[5.9785,50.38809],[5.97929,50.38782],[5.98053,50.38771],[5.98219,50.38728],[5.98335,50.38729],[5.98294,50.3875],[5.98218,50.38837],[5.98208,50.38894],[5.98189,50.38928],[5.98057,50.39028],[5.97936,50.39062],[5.97895,50.3909],[5.97813,50.39095],[5.97767,50.39109],[5.97686,50.39117],[5.97602,50.39154],[5.97506,50.39164],[5.97398,50.39205],[5.97307,50.39219],[5.97258,50.39252],[5.97189,50.39343],[5.97105,50.39346],[5.9702,50.39337],[5.96965,50.39324],[5.96603,50.39112],[5.96554,50.3909],[5.9647,50.39078],[5.96383,50.39087],[5.96344,50.39107],[5.96236,50.39123],[5.96156,50.39204],[5.96076,50.39248],[5.96027,50.39296],[5.95935,50.3934],[5.95873,50.39396],[5.95824,50.39427],[5.95746,50.39442],[5.95683,50.39438],[5.95562,50.39406],[5.95519,50.39375]],[[5.98936,50.38964],[5.98925,50.38922],[5.98892,50.38867],[5.98982,50.38787],[5.99028,50.38769],[5.99143,50.387],[5.99166,50.38672],[5.99158,50.38643],[5.991,50.38631],[5.99012,50.38648],[5.98938,50.38629],[5.98816,50.38613],[5.9869,50.38636],[5.98489,50.38705],[5.98462,50.38705],[5.98457,50.38692],[5.9852,50.38619],[5.9864,50.38532],[5.98857,50.3848],[5.98927,50.38475],[5.98991,50.38489],[5.9911,50.3849],[5.99165,50.38502],[5.99183,50.3851],[5.99192,50.38536],[5.99129,50.38565],[5.99186,50.38589],[5.99227,50.38619],[5.99491,50.38645],[5.995,50.38652],[5.99505,50.38675],[5.99518,50.38682],[5.9953,50.38675],[5.99545,50.38648],[5.99564,50.38645],[5.99651,50.38699],[5.99647,50.38712],[5.99613,50.38732],[5.99637,50.38763],[5.99725,50.38728],[5.99771,50.38757],[5.9971,50.38776],[5.99688,50.38813],[5.99592,50.38812],[5.99511,50.38791],[5.99435,50.38785],[5.99329,50.38741],[5.99235,50.38717],[5.99191,50.38719],[5.99175,50.38728],[5.99173,50.38765],[5.99147,50.38815],[5.99025,50.38912],[5.98981,50.38905],[5.98964,50.3891],[5.98954,50.38924],[5.9898,50.38946],[5.98981,50.38955],[5.98936,50.38964]],[[5.99019,50.38872],[5.99011,50.38868],[5.99025,50.38868],[5.99019,50.38872]],[[6.00061,50.38842],[6.00062,50.38831],[6.0007,50.38839],[6.00061,50.38842]],[[5.99811,50.38834],[5.99801,50.38815],[5.99807,50.38806],[5.99863,50.38813],[5.99851,50.38826],[5.99811,50.38834]],[[5.99561,50.38706],[5.99556,50.387],[5.99566,50.38701],[5.99561,50.38706]],[[5.99019,50.38623],[5.99016,50.38617],[5.99025,50.38617],[5.99019,50.38623]]]}},{"type":"Feature","properties":{"ele":350},"geometry":{"type":"MultiLineString","coordinates":[[[6.05686,50.37511],[6.05653,50.37541],[6.05611,50.37555],[6.05587,50.37548],[6.0551,50.37489],[6.05428,50.37494],[6.05345,50.3751],[6.05313,50.37506],[6.05268,50.37476],[6.05141,50.37508],[6.05103,50.37485],[6.05067,50.37449],[6.0501,50.3743],[6.04973,50.37397],[6.0481,50.37343],[6.0477,50.37308],[6.04715,50.37297],[6.04641,50.3727],[6.04561,50.37286],[6.0453,50.37277],[6.04483,50.37252],[6.04405,50.37194],[6.04311,50.37174],[6.04273,50.37142],[6.04049,50.37115],[6.039,50.37057],[6.03802,50.36993],[6.03626,50.36972],[6.03522,50.3697],[6.03444,50.36955],[6.03418,50.36957],[6.03264,50.37002],[6.03177,50.37086],[6.03144,50.37145],[6.0306,50.37167],[6.02982,50.37205],[6.02818,50.37231],[6.02772,50.37261],[6.02689,50.37285],[6.02584,50.3733],[6.02475,50.37358],[6.02394,50.37368],[6.0236,50.37397],[6.02366,50.37446],[6.02352,50.37479],[6.02231,50.37512],[6.02162,50.37496],[6.02061,50.37507],[6.01956,50.37558],[6.0194,50.37597],[6.01848,50.37613],[6.0173,50.37666],[6.01722,50.37674],[6.01729,50.37699],[6.01769,50.37732],[6.01885,50.3772],[6.01932,50.37692],[6.01958,50.37701],[6.01937,50.37723],[6.01895,50.37741],[6.01833,50.37805],[6.01771,50.37841],[6.01621,50.37876],[6.01511,50.37881],[6.01357,50.37935],[6.01292,50.37949],[6.01311,50.37963],[6.01385,50.37963],[6.01403,50.37971],[6.01438,50.38039],[6.01444,50.38088],[6.01437,50.38151],[6.01448,50.38199],[6.01477,50.38229],[6.01522,50.38236],[6.01573,50.38257],[6.0164,50.3835],[6.01652,50.38456],[6.01642,50.38505],[6.01646,50.38536],[6.01634,50.38585],[6.01647,50.38617],[6.01725,50.38675],[6.02052,50.38689],[6.02123,50.38727],[6.02143,50.38749],[6.02144,50.38782],[6.02131,50.38818],[6.02021,50.38953],[6.01997,50.39012],[6.02028,50.39086],[6.02102,50.39148],[6.02149,50.3922],[6.02148,50.39236],[6.02111,50.39271],[6.02084,50.39272],[6.02015,50.3924],[6.01933,50.39251],[6.01858,50.39236],[6.01793,50.39208],[6.01392,50.39107],[6.01239,50.39146],[6.01178,50.39152],[6.01104,50.39179],[6.00895,50.39229],[6.00811,50.39268],[6.00678,50.39276],[6.00464,50.39233],[6.00131,50.39136],[6.00059,50.39138],[5.99979,50.39174],[5.99938,50.39206],[5.99921,50.39205],[5.99896,50.392],[5.99815,50.39148],[5.99777,50.39133],[5.99609,50.39088],[5.99516,50.39049],[5.99435,50.39034],[5.99345,50.39047],[5.99187,50.39113],[5.99104,50.39206],[5.99019,50.39229],[5.99,50.3929],[5.99002,50.39314],[5.99016,50.3934],[5.99068,50.39389],[5.99176,50.39453],[5.9927,50.39479],[5.99334,50.39537],[5.99385,50.39565],[5.99418,50.39616],[5.99424,50.39647],[5.99399,50.39717],[5.99429,50.39828],[5.99432,50.39887],[5.99416,50.39932],[5.99429,50.39984],[5.99444,50.40005],[5.99476,50.40019],[5.99607,50.4003],[5.99659,50.40114],[5.99621,50.40121],[5.99472,50.4011],[5.99449,50.4014],[5.9945,50.40186],[5.99467,50.40225],[5.99497,50.40266],[5.99612,50.40394],[5.99645,50.40423],[5.99706,50.40452],[5.99726,50.40509],[5.99781,50.40584],[5.99811,50.40612],[5.99848,50.40625],[5.99866,50.40639],[5.99866,50.40651],[5.99805,50.40719],[5.99764,50.4087],[5.99842,50.409],[5.99948,50.41005],[6.00111,50.41144],[6.00133,50.41182],[6.00139,50.4121],[6.00133,50.41231],[6.00098,50.41284],[6.00109,50.4131],[6.00219,50.41329],[6.00271,50.41305],[6.00324,50.41296],[6.00501,50.41307],[6.00523,50.4131],[6.0056,50.41347],[6.00642,50.41359],[6.0073,50.41345],[6.00764,50.41312],[6.0081,50.41282],[6.00849,50.41287],[6.00894,50.41312],[6.00936,50.41395],[6.00953,50.41449],[6.00978,50.41484],[6.01068,50.41505],[6.01145,50.41534],[6.01187,50.41562],[6.01271,50.4159],[6.01312,50.41618],[6.01391,50.41654],[6.01433,50.41668],[6.01496,50.41674],[6.01684,50.41758],[6.0182,50.41809],[6.01976,50.41896],[6.02027,50.41911],[6.02059,50.41953],[6.02187,50.41978],[6.02231,50.42004],[6.0231,50.4203],[6.02436,50.42097],[6.02491,50.42113],[6.02519,50.42146],[6.02589,50.42157],[6.02632,50.42173],[6.0267,50.42198],[6.02668,50.42229],[6.02686,50.42243],[6.02782,50.42244],[6.0285,50.42269],[6.02896,50.42257],[6.02944,50.42308],[6.02968,50.42316],[6.03183,50.4232],[6.03241,50.42307],[6.03324,50.42321],[6.03355,50.42316],[6.03389,50.42294],[6.03412,50.42289],[6.03522,50.42301],[6.03595,50.42294],[6.03673,50.42307],[6.0373,50.42284],[6.03866,50.42297],[6.03956,50.42339],[6.03853,50.42396],[6.0381,50.42406],[6.03767,50.42433],[6.0366,50.42477],[6.0352,50.42515],[6.03392,50.42528],[6.0338,50.42536],[6.03366,50.42566],[6.0328,50.42591],[6.03138,50.42613],[6.0294,50.42686],[6.02896,50.42707],[6.02799,50.4278],[6.02789,50.4281],[6.02813,50.42839],[6.02947,50.42895],[6.03018,50.42951],[6.03098,50.43078],[6.03087,50.4312],[6.03035,50.43189],[6.03017,50.43286],[6.0297,50.43391],[6.02975,50.43452],[6.03027,50.43535],[6.03147,50.43588],[6.03344,50.43708],[6.03505,50.43786],[6.03553,50.43827],[6.03582,50.4384],[6.03557,50.43848],[6.03477,50.4384],[6.03476,50.43869],[6.03501,50.4388],[6.03532,50.43887],[6.03574,50.43883],[6.03662,50.43853],[6.03777,50.43863],[6.03928,50.43862],[6.0398,50.43868],[6.04022,50.43884],[6.04147,50.43909],[6.04282,50.43908],[6.04361,50.43937],[6.04481,50.4395],[6.0449,50.43976],[6.04505,50.43988],[6.04637,50.4401],[6.0469,50.44058],[6.04686,50.44077],[6.04648,50.44113],[6.04605,50.44136],[6.04518,50.44118],[6.04483,50.44085],[6.04424,50.44064],[6.04405,50.44025],[6.04354,50.44006],[6.04309,50.43972],[6.04227,50.43971],[6.04207,50.4398],[6.04334,50.44036],[6.04353,50.44063],[6.04298,50.44072],[6.04204,50.44118],[6.04139,50.44171],[6.04171,50.44201],[6.04131,50.44206],[6.04045,50.44199],[6.04018,50.44173],[6.0403,50.44146],[6.04017,50.44133],[6.03954,50.44137],[6.03894,50.44116],[6.03845,50.44124],[6.03828,50.44114],[6.03811,50.44089],[6.03729,50.44121],[6.036,50.44097],[6.03487,50.44094],[6.03238,50.44006],[6.03218,50.4398],[6.03197,50.43968],[6.03181,50.43967],[6.03143,50.43982],[6.03131,50.43943],[6.0311,50.43916],[6.03031,50.43894],[6.02894,50.43813],[6.02852,50.4378],[6.02811,50.43743],[6.02791,50.43704],[6.02764,50.43678],[6.02748,50.43645],[6.02719,50.43614],[6.02707,50.43585],[6.02706,50.43536],[6.02684,50.43478],[6.02685,50.4345],[6.02714,50.43428],[6.02724,50.43408],[6.02703,50.43349],[6.02707,50.43307],[6.02688,50.43283],[6.02632,50.43261],[6.02649,50.43228],[6.02497,50.43109],[6.02489,50.43081],[6.02498,50.43012],[6.02521,50.42978],[6.02513,50.42949],[6.02485,50.4292],[6.02418,50.42902],[6.02269,50.42902],[6.02262,50.42895],[6.02288,50.42875],[6.02291,50.42862],[6.02263,50.42815],[6.02225,50.42785],[6.02096,50.42761],[6.01938,50.42716],[6.01767,50.42679],[6.01665,50.42619],[6.01543,50.42572],[6.01394,50.4256],[6.01351,50.42536],[6.01232,50.42435],[6.01141,50.42375],[6.01119,50.42336],[6.01076,50.42285],[6.01028,50.42247],[6.00637,50.421],[6.00481,50.42061],[6.00353,50.42007],[6.00181,50.4195],[6.00048,50.41922],[5.99921,50.41873],[5.99861,50.4184],[5.99855,50.41811],[5.99774,50.41775],[5.9973,50.41746],[5.99675,50.41731],[5.99658,50.41706],[5.99652,50.41669],[5.99602,50.41646],[5.99568,50.41614],[5.99524,50.41588],[5.99499,50.41557],[5.9944,50.41523],[5.99353,50.41515],[5.99326,50.41503],[5.9931,50.41483],[5.99303,50.41451],[5.9935,50.41439],[5.99358,50.41422],[5.99268,50.41314],[5.99252,50.41259],[5.99225,50.4123],[5.99195,50.41154],[5.99198,50.41106],[5.9928,50.41001],[5.9931,50.4095],[5.99435,50.40899],[5.99546,50.40821],[5.99562,50.4076],[5.99604,50.4073],[5.9961,50.40717],[5.99615,50.40682],[5.99608,50.40641],[5.99601,50.4062],[5.99568,50.40588],[5.99498,50.40558],[5.99398,50.40488],[5.99222,50.40351],[5.99187,50.4031],[5.9911,50.40256],[5.99075,50.40199],[5.99066,50.40168],[5.99021,50.40107],[5.98971,50.40061],[5.98966,50.40033],[5.98979,50.39976],[5.98949,50.39949],[5.98878,50.39924],[5.98847,50.39872],[5.98814,50.39837],[5.98666,50.39734],[5.9868,50.39679],[5.98634,50.39563],[5.98688,50.39506],[5.98635,50.39363],[5.98671,50.39258],[5.98674,50.39172],[5.98692,50.39118],[5.98686,50.3909],[5.98537,50.39105],[5.98477,50.39119],[5.98393,50.39113],[5.98349,50.39135],[5.98303,50.39143],[5.98133,50.39141],[5.98114,50.39151],[5.98063,50.39208],[5.98061,50.39288],[5.98022,50.39305],[5.97982,50.39298],[5.97891,50.39257],[5.97787,50.39238],[5.97751,50.3924],[5.97712,50.39258],[5.97638,50.39338],[5.97439,50.39392],[5.97388,50.3942],[5.9727,50.39459],[5.9715,50.3945],[5.971,50.39434],[5.96954,50.3941],[5.96821,50.39367],[5.96769,50.39337],[5.96563,50.39298],[5.96518,50.39311],[5.96484,50.39353],[5.96447,50.3937],[5.96353,50.39372],[5.95986,50.39481],[5.95853,50.39507],[5.95729,50.39509],[5.95584,50.39498],[5.95519,50.3947]],[[6.03436,50.43974],[6.03413,50.43958],[6.03413,50.43946],[6.03433,50.43938],[6.03451,50.43946],[6.03451,50.43958],[6.03436,50.43974]],[[6.03311,50.43911],[6.03283,50.4389],[6.03283,50.43874],[6.03291,50.43866],[6.03314,50.43864],[6.03324,50.43877],[6.03327,50.43895],[6.03311,50.43911]],[[6.03061,50.43878],[6.0305,50.4387],[6.03054,50.43861],[6.03077,50.43865],[6.03061,50.43878]],[[6.03019,50.42311],[6.02995,50.42285],[6.03034,50.42285],[6.03019,50.42311]],[[5.95519,50.39566],[5.95647,50.39589],[5.95745,50.39643],[5.95851,50.39731],[5.95891,50.39789],[5.95959,50.39846],[5.95967,50.3987],[5.95955,50.39894],[5.95835,50.3995],[5.95795,50.39995],[5.95797,50.40019],[5.95835,50.40057],[5.95858,50.40068],[5.95912,50.40072],[5.961,50.40038],[5.96131,50.4004],[5.96149,50.40051],[5.96153,50.40067],[5.96143,50.40089],[5.96061,50.40115],[5.96004,50.40144],[5.95996,50.40172],[5.9602,50.402],[5.96131,50.40212],[5.96225,50.40201],[5.96263,50.40204],[5.96289,50.40228],[5.9635,50.40315],[5.96477,50.40424],[5.96603,50.40506],[5.9681,50.4059],[5.97141,50.40674],[5.9718,50.40703],[5.97284,50.40728],[5.97295,50.40759],[5.97321,50.40784],[5.97433,50.40814],[5.97444,50.40844],[5.97384,50.40899],[5.97426,50.41004],[5.97387,50.41027],[5.97386,50.41037],[5.97486,50.4107],[5.97772,50.41085],[5.97949,50.41155],[5.98206,50.41199],[5.98214,50.41207],[5.98215,50.41224],[5.98185,50.41257],[5.98197,50.41283],[5.98161,50.41305],[5.98161,50.41316],[5.98251,50.41349],[5.98354,50.41364],[5.98473,50.414],[5.98523,50.4137],[5.98561,50.41368],[5.98604,50.41414],[5.98646,50.41479],[5.98771,50.41558],[5.98808,50.41569],[5.98835,50.41591],[5.9889,50.4162],[5.98938,50.41637],[5.99241,50.41787],[5.99312,50.4184],[5.99307,50.41852],[5.99264,50.41857],[5.99257,50.41871],[5.99343,50.41886],[5.99359,50.41896],[5.99324,50.41922],[5.99311,50.41952],[5.99268,50.41938],[5.9923,50.41893],[5.99188,50.41868],[5.99113,50.41836],[5.98964,50.41804],[5.98871,50.41803],[5.98805,50.4182],[5.98782,50.41849],[5.98768,50.41907],[5.98728,50.41957],[5.98699,50.41958],[5.98628,50.41927],[5.98471,50.41822],[5.98395,50.41798],[5.98352,50.41774],[5.98273,50.41756],[5.98189,50.41722],[5.98027,50.41702],[5.97893,50.4172],[5.97798,50.41745],[5.97648,50.41697],[5.9748,50.41675],[5.97403,50.41684],[5.97324,50.41722],[5.97251,50.41726],[5.97249,50.41733],[5.97261,50.41742],[5.97312,50.41757],[5.97273,50.41828],[5.97237,50.41836],[5.9718,50.41787],[5.97144,50.41729],[5.97108,50.417],[5.97068,50.41646],[5.96977,50.41579],[5.96868,50.41534],[5.96816,50.41536],[5.96769,50.41562],[5.9675,50.41616],[5.96726,50.4164],[5.96687,50.41659],[5.9665,50.41653],[5.9664,50.41647],[5.96629,50.41613],[5.96604,50.41589],[5.96566,50.416],[5.96543,50.41598],[5.96438,50.41545],[5.96295,50.41452],[5.96245,50.41395],[5.96063,50.41297],[5.95949,50.41211],[5.95926,50.41211],[5.95896,50.41232],[5.95847,50.41228],[5.95774,50.41243],[5.95685,50.41312],[5.95656,50.41321],[5.95519,50.4133]],[[5.98519,50.41426],[5.98513,50.41421],[5.98525,50.41417],[5.98567,50.41425],[5.98555,50.41438],[5.98519,50.41426]],[[5.95519,50.39012],[5.95579,50.38979],[5.95686,50.3889],[5.9573,50.38869],[5.95821,50.38843],[5.95892,50.38836],[5.95941,50.38839],[5.96013,50.38901],[5.96053,50.38914],[5.96181,50.38893],[5.96198,50.38879],[5.96201,50.38865],[5.96182,50.38843],[5.96154,50.3878],[5.96124,50.38754],[5.96157,50.38739],[5.96282,50.38718],[5.96386,50.38716],[5.96501,50.38731],[5.96688,50.38831],[5.96778,50.38815],[5.9686,50.38758],[5.96888,50.38726],[5.97105,50.38563],[5.97112,50.38536],[5.97134,50.38508],[5.97132,50.38477],[5.97155,50.38448],[5.97245,50.38379],[5.97312,50.38313],[5.9736,50.38292],[5.97394,50.38298],[5.97399,50.38324],[5.97396,50.38341],[5.97358,50.3838],[5.9737,50.38443],[5.97354,50.38482],[5.97332,50.38509],[5.97329,50.38529],[5.97338,50.38542],[5.97411,50.38587],[5.97414,50.3864],[5.97423,50.38656],[5.9744,50.38667],[5.9747,50.38671],[5.97657,50.38653],[5.97803,50.3865],[5.97938,50.38681],[5.98151,50.38657],[5.98172,50.38646],[5.98137,50.38619],[5.98158,50.38604],[5.98298,50.38568],[5.98386,50.38583],[5.98412,50.38581],[5.98491,50.38537],[5.98512,50.38508],[5.98513,50.38478],[5.98643,50.38457],[5.98727,50.38423],[5.98816,50.38399],[5.98842,50.38359],[5.98833,50.38293],[5.98838,50.38279],[5.98857,50.38268],[5.98931,50.38249],[5.991,50.38254],[5.99329,50.38296],[5.99412,50.383],[5.99461,50.38313],[5.99504,50.38344],[5.9956,50.38348],[5.99583,50.38369],[5.99603,50.38376],[5.99686,50.38362],[5.99726,50.38366],[5.99703,50.38391],[5.99708,50.38405],[5.99765,50.38431],[5.99852,50.38453],[5.99976,50.38456],[6.00105,50.38425],[6.00177,50.3839],[6.00325,50.3837],[6.00367,50.38337],[6.00376,50.38311],[6.00374,50.38286],[6.00353,50.38257],[6.00316,50.38226],[6.00202,50.38202],[6.00282,50.38174],[6.00238,50.38147],[6.00235,50.38109],[6.00209,50.38109],[6.00136,50.3814],[6.00102,50.3814],[6.00061,50.38109],[6.00012,50.38095],[5.99933,50.38051],[5.99883,50.38004],[5.9981,50.37952],[5.99791,50.37922],[5.99812,50.37915],[5.99853,50.3793],[5.99923,50.37928],[5.99964,50.37936],[5.99994,50.37951],[5.99973,50.37981],[6.00006,50.37988],[6.00022,50.37987],[6.00102,50.37941],[6.00185,50.37954],[6.00239,50.37976],[6.00227,50.38007],[6.00283,50.38031],[6.00286,50.38063],[6.0031,50.3808],[6.0052,50.37995],[6.00652,50.37983],[6.00683,50.3795],[6.00785,50.37897],[6.00852,50.37851],[6.00889,50.37809],[6.01014,50.37722],[6.01133,50.37672],[6.01225,50.3765],[6.01259,50.37635],[6.01311,50.37646],[6.01354,50.37632],[6.01399,50.37588],[6.01546,50.37503],[6.01605,50.37426],[6.0167,50.37398],[6.0167,50.37387],[6.0164,50.37344],[6.01643,50.37337],[6.01765,50.37278],[6.01803,50.37271],[6.01917,50.37308],[6.01926,50.37318],[6.01927,50.37346],[6.01938,50.37356],[6.01989,50.37352],[6.02006,50.37337],[6.01993,50.3731],[6.02039,50.37277],[6.02102,50.37255],[6.02148,50.37273],[6.02181,50.37272],[6.02241,50.37231],[6.02252,50.37206],[6.02247,50.37179],[6.02203,50.37143],[6.02184,50.37116],[6.02241,50.37107],[6.02345,50.37125],[6.02393,50.37117],[6.0242,50.37084],[6.02487,50.37064],[6.02489,50.37033],[6.02516,50.37011],[6.02598,50.36974],[6.02673,50.36959],[6.02763,50.36986],[6.02794,50.36977],[6.02814,50.36961],[6.02817,50.36922],[6.02832,50.36896]],[[6.00269,50.38103],[6.00251,50.38092],[6.00258,50.38079],[6.00276,50.38076],[6.00294,50.38086],[6.00292,50.38094],[6.00269,50.38103]],[[6.05644,50.3751],[6.05644,50.37503],[6.05656,50.37506],[6.05644,50.3751]],[[6.05686,50.37498],[6.05656,50.37477],[6.05512,50.37466],[6.05484,50.37432],[6.05481,50.37394],[6.05396,50.3734],[6.05299,50.37345],[6.05222,50.37319],[6.0518,50.37286],[6.05103,50.37256],[6.05058,50.37244],[6.04966,50.37238],[6.04869,50.37197],[6.04781,50.37173],[6.0465,50.37105],[6.04554,50.3709],[6.04518,50.37039],[6.04526,50.36977],[6.04521,50.36946],[6.04489,50.36921],[6.04475,50.36896]],[[6.02436,50.37035],[6.02443,50.37034],[6.02436,50.37035]],[[6.04414,50.36896],[6.04394,50.36908],[6.04392,50.36932],[6.04439,50.36951],[6.04392,50.3697],[6.04377,50.37003],[6.04356,50.37015],[6.04318,50.36992],[6.04237,50.36978],[6.04207,50.36943],[6.04145,50.36896]]]}},{"type":"Feature","properties":{"ele":400},"geometry":{"type":"MultiLineString","coordinates":[[[6.04017,50.44923],[6.04041,50.4489],[6.04049,50.44843],[6.04061,50.44824],[6.04096,50.44805],[6.0415,50.44791],[6.04228,50.44711],[6.0434,50.44637],[6.04357,50.44593],[6.04357,50.44538],[6.04345,50.44509],[6.04317,50.44476],[6.04221,50.44451],[6.04014,50.44345],[6.03938,50.4432],[6.03881,50.44325],[6.03767,50.4439],[6.03683,50.44371],[6.03631,50.44371],[6.03614,50.44356],[6.03594,50.4431],[6.03562,50.44284],[6.0351,50.44269],[6.03449,50.44225],[6.03298,50.44178],[6.03251,50.4418],[6.03196,50.44207],[6.03142,50.44256],[6.03108,50.44323],[6.03084,50.44335],[6.03057,50.4433],[6.03037,50.44284],[6.03015,50.44267],[6.02855,50.44262],[6.02819,50.44255],[6.02807,50.44201],[6.02942,50.44153],[6.02995,50.44123],[6.03022,50.44092],[6.03041,50.44038],[6.02978,50.43991],[6.02894,50.43895],[6.02814,50.43837],[6.0275,50.43806],[6.02728,50.43783],[6.027,50.43725],[6.02674,50.43699],[6.02636,50.43684],[6.02561,50.43709],[6.02514,50.43703],[6.02503,50.43668],[6.02523,50.43625],[6.02584,50.43594],[6.02594,50.43581],[6.02557,50.4349],[6.02564,50.43419],[6.02287,50.43433],[6.02257,50.43443],[6.02185,50.43489],[6.02104,50.4351],[6.02105,50.4349],[6.02129,50.43446],[6.02118,50.4342],[6.02079,50.43406],[6.01945,50.43384],[6.01925,50.43371],[6.01941,50.43355],[6.02058,50.43322],[6.02147,50.43313],[6.02209,50.43294],[6.0235,50.43276],[6.02394,50.43257],[6.02435,50.43225],[6.0244,50.432],[6.02332,50.43171],[6.02303,50.43156],[6.0227,50.43073],[6.0226,50.43066],[6.02022,50.43109],[6.01944,50.43104],[6.01879,50.4309],[6.01895,50.43063],[6.01872,50.43036],[6.01884,50.43009],[6.0197,50.42975],[6.01996,50.42922],[6.02021,50.42896],[6.02145,50.42868],[6.02134,50.42843],[6.02006,50.42798],[6.01892,50.42773],[6.01808,50.42745],[6.01741,50.42745],[6.01646,50.42766],[6.016,50.4276],[6.01587,50.42738],[6.01582,50.42676],[6.01552,50.42658],[6.01423,50.42661],[6.01319,50.42692],[6.01227,50.42701],[6.01186,50.42674],[6.01175,50.42647],[6.01185,50.4259],[6.01214,50.42554],[6.01216,50.42534],[6.01183,50.42516],[6.01069,50.42495],[6.01031,50.42479],[6.01013,50.42424],[6.01019,50.42366],[6.0101,50.42342],[6.00985,50.42314],[6.00771,50.42246],[6.0069,50.42199],[6.00642,50.42199],[6.00556,50.42233],[6.00522,50.42223],[6.00482,50.42198],[6.00444,50.42189],[6.00303,50.42189],[6.00223,50.42148],[6.00157,50.42129],[6.00094,50.42148],[5.99973,50.4211],[5.99937,50.42118],[5.99918,50.42137],[5.99912,50.42161],[5.9993,50.42205],[6.00021,50.42277],[6.00109,50.4231],[6.00149,50.42339],[6.00194,50.42386],[6.00205,50.42425],[6.00221,50.42449],[6.00278,50.42469],[6.00309,50.42507],[6.00322,50.42537],[6.00319,50.42564],[6.00216,50.42559],[6.00185,50.42568],[6.00151,50.42592],[6.00146,50.42621],[6.00114,50.42682],[6.00101,50.42784],[6.00125,50.42814],[6.0014,50.42873],[6.00125,50.42898],[6.00099,50.42908],[6.00016,50.4287],[5.99938,50.42812],[5.9985,50.4279],[5.99785,50.42757],[5.99769,50.42725],[5.99647,50.42698],[5.99553,50.42707],[5.99537,50.42698],[5.9952,50.42672],[5.99474,50.42685],[5.99425,50.42677],[5.99408,50.42667],[5.99395,50.42645],[5.99352,50.42646],[5.99105,50.42562],[5.9898,50.42552],[5.98866,50.42559],[5.98764,50.4254],[5.98727,50.42521],[5.98649,50.42446],[5.98572,50.42395],[5.98351,50.42289],[5.98312,50.42278],[5.9826,50.42289],[5.98143,50.42286],[5.98146,50.42256],[5.98048,50.42246],[5.98019,50.42232],[5.97982,50.42197],[5.97954,50.42187],[5.97927,50.4219],[5.97908,50.42235],[5.97881,50.42248],[5.97812,50.42228],[5.97761,50.42234],[5.97685,50.4223],[5.97609,50.42198],[5.97506,50.4218],[5.97418,50.4218],[5.97261,50.42223],[5.97151,50.42199],[5.97088,50.4217],[5.97011,50.42093],[5.96859,50.42037],[5.9673,50.42027],[5.96607,50.41993],[5.96566,50.41974],[5.96479,50.41959],[5.96391,50.419],[5.96306,50.41876],[5.96156,50.41777],[5.95894,50.41662],[5.95768,50.41618],[5.95652,50.41603],[5.95592,50.41619],[5.95585,50.41651],[5.95623,50.41713],[5.95627,50.41741],[5.95602,50.41837],[5.95567,50.41871],[5.95519,50.41957]],[[6.04118,50.44923],[6.04166,50.44869],[6.04185,50.44837],[6.0422,50.44821],[6.04353,50.44813],[6.04428,50.44792],[6.04522,50.44817],[6.04604,50.44766],[6.04624,50.44738],[6.04634,50.44695],[6.04683,50.44644],[6.04692,50.44624],[6.04715,50.44547],[6.04724,50.44451],[6.04767,50.44442],[6.04886,50.44439],[6.05023,50.44446],[6.05042,50.44453],[6.05051,50.44488],[6.05035,50.4454],[6.04999,50.44606],[6.05,50.4464],[6.0503,50.44674],[6.05117,50.44725],[6.0515,50.44755],[6.05271,50.44784],[6.05324,50.44788],[6.05388,50.44783],[6.0547,50.4475],[6.05579,50.44731],[6.05616,50.44735],[6.05686,50.44762]],[[5.95519,50.42429],[5.95573,50.42452],[5.95685,50.42537],[5.95729,50.42579],[5.95852,50.42605],[5.95874,50.42649],[5.95978,50.42726],[5.96,50.42758],[5.96066,50.4276],[5.96137,50.427],[5.96168,50.42693],[5.96228,50.42701],[5.96282,50.42732],[5.96369,50.42794],[5.96416,50.42839],[5.96423,50.42866],[5.96412,50.42908],[5.9641,50.42963],[5.96421,50.42983],[5.9645,50.42999],[5.96473,50.43008],[5.96517,50.4301],[5.9661,50.42985],[5.96673,50.42984],[5.96755,50.43012],[5.9677,50.43026],[5.96787,50.43065],[5.96854,50.43089],[5.96876,50.4312],[5.96903,50.43134],[5.96938,50.43139],[5.97018,50.43113],[5.97072,50.43116],[5.97058,50.43143],[5.97013,50.43174],[5.97005,50.43197],[5.97066,50.43225],[5.97146,50.43281],[5.97121,50.43359],[5.97132,50.43392],[5.97145,50.43399],[5.97182,50.43393],[5.97264,50.43347],[5.97273,50.43353],[5.97278,50.4338],[5.97272,50.43433],[5.97209,50.43495],[5.97189,50.43537],[5.97142,50.43545],[5.97113,50.4356],[5.97073,50.43613],[5.97077,50.43626],[5.97103,50.43645],[5.97238,50.43674],[5.97183,50.43691],[5.97166,50.43704],[5.97151,50.43745],[5.97157,50.4379],[5.97151,50.43813],[5.97098,50.4386],[5.97025,50.43976],[5.97019,50.44032],[5.97037,50.44061],[5.97039,50.44092],[5.97062,50.44117],[5.97142,50.4416],[5.97186,50.44201],[5.97208,50.44241],[5.97256,50.44274],[5.97276,50.44271],[5.97291,50.44227],[5.97311,50.44208],[5.9735,50.44213],[5.97389,50.44232],[5.97391,50.44251],[5.97375,50.44266],[5.97291,50.44286],[5.97356,50.44338],[5.9748,50.44365],[5.97484,50.44389],[5.97482,50.44397],[5.97468,50.44397],[5.97386,50.44376],[5.97348,50.44381],[5.97338,50.44398],[5.97341,50.44421],[5.97379,50.44482],[5.97428,50.4449],[5.97537,50.44476],[5.97645,50.44479],[5.97511,50.44531],[5.97437,50.44583],[5.97357,50.44534],[5.97318,50.44538],[5.97285,50.44597],[5.97227,50.44647],[5.97102,50.44595],[5.97043,50.44512],[5.96977,50.44466],[5.96886,50.44436],[5.96824,50.44439],[5.96768,50.44452],[5.9673,50.44434],[5.96711,50.44404],[5.96705,50.44377],[5.96733,50.44319],[5.96724,50.44245],[5.9675,50.44192],[5.96753,50.44151],[5.96734,50.44088],[5.96686,50.44062],[5.96671,50.44029],[5.96668,50.43998],[5.96685,50.43894],[5.96752,50.43793],[5.96766,50.43731],[5.96722,50.43614],[5.96644,50.43507],[5.96605,50.43474],[5.96549,50.43452],[5.96399,50.4343],[5.96268,50.43389],[5.96169,50.43398],[5.96156,50.43389],[5.96147,50.43364],[5.96116,50.43355],[5.96017,50.43361],[5.95971,50.43348],[5.95933,50.43316],[5.95949,50.43238],[5.95931,50.43205],[5.95848,50.43147],[5.95731,50.43098],[5.95638,50.43076],[5.95519,50.43024]],[[6.05686,50.44536],[6.05569,50.44515],[6.05412,50.44547],[6.05388,50.44545],[6.05374,50.44529],[6.05353,50.44451],[6.05287,50.4437],[6.05278,50.44308],[6.05235,50.44294],[6.05053,50.44273],[6.04998,50.44256],[6.04987,50.44213],[6.05006,50.44168],[6.05014,50.44106],[6.04999,50.44084],[6.04951,50.44062],[6.04979,50.44038],[6.04979,50.4403],[6.04934,50.44006],[6.04957,50.44031],[6.04949,50.44047],[6.04927,50.44051],[6.04894,50.44035],[6.04862,50.4396],[6.04816,50.4388],[6.04821,50.43845],[6.04846,50.43801],[6.04937,50.43726],[6.0488,50.43724],[6.04683,50.43787],[6.04589,50.43828],[6.04517,50.43827],[6.04396,50.43811],[6.04302,50.43781],[6.04265,50.43784],[6.04182,50.4382],[6.04053,50.43832],[6.03756,50.43798],[6.03616,50.43771],[6.03519,50.43729],[6.03478,50.43699],[6.03425,50.43681],[6.03351,50.4363],[6.03222,50.43565],[6.0319,50.4353],[6.03142,50.43496],[6.03106,50.43449],[6.0311,50.43359],[6.03127,50.43318],[6.03151,50.43288],[6.03137,50.4323],[6.03146,50.43203],[6.03199,50.43194],[6.03303,50.43221],[6.03515,50.43248],[6.03555,50.4326],[6.03605,50.43255],[6.0359,50.4323],[6.03514,50.43149],[6.03352,50.43056],[6.03317,50.43002],[6.03268,50.42979],[6.03249,50.4296],[6.03225,50.42898],[6.03185,50.42847],[6.0314,50.42815],[6.03065,50.42783],[6.03057,50.42758],[6.03064,50.42731],[6.031,50.42711],[6.0323,50.42688],[6.03345,50.42653],[6.03433,50.42658],[6.03569,50.427],[6.03741,50.42685],[6.03819,50.42645],[6.03886,50.42561],[6.03914,50.42536],[6.03974,50.42505],[6.04051,50.42442],[6.04084,50.42438],[6.04108,50.42445],[6.04144,50.42478],[6.04188,50.4256],[6.04146,50.42646],[6.04142,50.42679],[6.04144,50.4273],[6.04178,50.42811],[6.04182,50.42843],[6.04194,50.42858],[6.04256,50.42894],[6.04316,50.42911],[6.04445,50.42968],[6.04543,50.42987],[6.0461,50.42983],[6.04614,50.42975],[6.04594,50.42953],[6.04479,50.4289],[6.04415,50.42837],[6.04395,50.42811],[6.04346,50.42696],[6.04404,50.42529],[6.04408,50.42484],[6.044,50.42422],[6.04417,50.42366],[6.04441,50.42322],[6.04474,50.42285],[6.04551,50.42221],[6.04585,50.42175],[6.04607,50.42166],[6.04646,50.42167],[6.0472,50.42194],[6.04851,50.42198],[6.05018,50.4223],[6.05147,50.42217],[6.05187,50.42248],[6.05301,50.42371],[6.05361,50.42418],[6.05486,50.42463],[6.05686,50.42512]],[[5.96894,50.44085],[5.96882,50.44067],[5.96884,50.4406],[5.96902,50.44062],[5.96894,50.44085]],[[5.96769,50.43962],[5.96756,50.43953],[5.96759,50.43945],[5.96811,50.43922],[5.96812,50.43962],[5.96769,50.43962]],[[6.02311,50.43055],[6.0228,50.43029],[6.02291,50.42999],[6.02319,50.42985],[6.02363,50.43],[6.02369,50.43016],[6.02361,50.43038],[6.02311,50.43055]],[[6.05686,50.42004],[6.05654,50.41973],[6.05619,50.41917],[6.05598,50.41904],[6.0556,50.41896],[6.05534,50.41866],[6.05513,50.41816],[6.05506,50.41731],[6.05521,50.41566],[6.05556,50.41526],[6.05644,50.41479],[6.05664,50.4146],[6.05668,50.41402],[6.0566,50.4139],[6.05636,50.41385],[6.05604,50.4139],[6.05475,50.41423],[6.05429,50.41446],[6.05417,50.4147],[6.05412,50.41507],[6.05388,50.41541],[6.0539,50.41566],[6.0541,50.41599],[6.05407,50.4164],[6.05359,50.41732],[6.05316,50.41787],[6.05214,50.4182],[6.05093,50.4181],[6.05055,50.418],[6.05003,50.41766],[6.04789,50.41594],[6.04687,50.41473],[6.04643,50.41454],[6.04652,50.41415],[6.04623,50.41342],[6.04603,50.41312],[6.04552,50.41319],[6.04515,50.41265],[6.04433,50.41231],[6.04406,50.41194],[6.04354,50.41172],[6.04316,50.41181],[6.04271,50.41206],[6.04163,50.41312],[6.04089,50.4134],[6.04075,50.4137],[6.04082,50.41401],[6.0414,50.41455],[6.04193,50.41476],[6.04231,50.41505],[6.04249,50.41536],[6.04395,50.41534],[6.04586,50.41591],[6.04639,50.41625],[6.04687,50.41669],[6.04702,50.41703],[6.04689,50.4171],[6.04636,50.41713],[6.04625,50.41733],[6.04655,50.41759],[6.04639,50.41767],[6.04607,50.41765],[6.04412,50.41714],[6.04273,50.41698],[6.04146,50.41645],[6.041,50.41619],[6.04065,50.41586],[6.04011,50.41586],[6.03939,50.4162],[6.03873,50.41661],[6.03858,50.41682],[6.03858,50.4172],[6.03909,50.41791],[6.03949,50.41807],[6.04078,50.41831],[6.04099,50.41842],[6.04112,50.41868],[6.04067,50.41903],[6.03978,50.41918],[6.03932,50.41942],[6.03787,50.41961],[6.03381,50.41919],[6.03214,50.41929],[6.03032,50.41889],[6.02928,50.41903],[6.02854,50.41867],[6.02642,50.41818],[6.02478,50.41757],[6.0226,50.41704],[6.01972,50.41614],[6.0185,50.41591],[6.01858,50.41565],[6.01895,50.41535],[6.01894,50.41507],[6.01843,50.41461],[6.01806,50.41442],[6.01768,50.41441],[6.01727,50.41452],[6.01631,50.4144],[6.01454,50.41469],[6.01311,50.41459],[6.01305,50.41446],[6.01349,50.41389],[6.01354,50.41364],[6.01272,50.41363],[6.01068,50.4134],[6.01051,50.41297],[6.01045,50.41245],[6.00973,50.41179],[6.00971,50.41137],[6.00986,50.41099],[6.01004,50.41085],[6.01071,50.41058],[6.01077,50.40981],[6.01065,50.40947],[6.0102,50.40949],[6.00964,50.40968],[6.00897,50.40974],[6.00778,50.40961],[6.00647,50.40932],[6.00543,50.4093],[6.00444,50.40941],[6.00304,50.40909],[6.0027,50.40895],[6.00237,50.40866],[6.00204,50.40807],[6.00219,50.40652],[6.00246,50.40588],[6.00259,50.40475],[6.00286,50.40425],[6.00319,50.40394],[6.00333,50.4037],[6.00332,50.40342],[6.00311,50.40312],[6.00346,50.40283],[6.00354,50.40229],[6.00318,50.40147],[6.00266,50.40065],[6.00156,50.4003],[6.00063,50.40005],[5.99986,50.39998],[5.99903,50.39968],[5.99813,50.39991],[5.99747,50.39977],[5.99716,50.39952],[5.9968,50.39899],[5.99645,50.39866],[5.99639,50.39838],[5.9965,50.39809],[5.99644,50.39784],[5.99656,50.39732],[5.99629,50.39704],[5.99624,50.39686],[5.99632,50.3967],[5.99727,50.39645],[5.99747,50.39626],[5.99754,50.39609],[5.99747,50.39557],[5.99764,50.39531],[5.9986,50.39516],[5.9998,50.39523],[6.00111,50.39472],[6.00215,50.39458],[6.00371,50.39455],[6.00469,50.39469],[6.00553,50.39498],[6.00657,50.3952],[6.00815,50.39539],[6.00857,50.39522],[6.00933,50.39519],[6.01015,50.39506],[6.01045,50.3948],[6.01059,50.39451],[6.01116,50.39433],[6.01194,50.39426],[6.01308,50.39453],[6.01361,50.39446],[6.01401,50.39433],[6.01465,50.39385],[6.01491,50.39378],[6.01566,50.39389],[6.01648,50.39421],[6.01687,50.3945],[6.0164,50.3947],[6.01645,50.39505],[6.01703,50.39564],[6.01771,50.39616],[6.01858,50.3963],[6.01937,50.39689],[6.02063,50.39709],[6.02145,50.39757],[6.02189,50.39757],[6.02226,50.39729],[6.02292,50.39704],[6.02389,50.39628],[6.02412,50.39629],[6.02469,50.3965],[6.02508,50.39645],[6.02578,50.39587],[6.02588,50.39568],[6.02592,50.39528],[6.02638,50.39506],[6.02687,50.39511],[6.02768,50.39476],[6.02854,50.3948],[6.02884,50.39448],[6.0293,50.3944],[6.02964,50.39474],[6.02951,50.39512],[6.02961,50.39536],[6.02982,50.39543],[6.0302,50.39536],[6.03105,50.39459],[6.03169,50.3938],[6.03173,50.39363],[6.03163,50.39315],[6.03154,50.39302],[6.02938,50.39185],[6.02902,50.39177],[6.02812,50.3918],[6.02592,50.39121],[6.02522,50.3911],[6.02478,50.39085],[6.02477,50.39061],[6.02506,50.39004],[6.02521,50.38992],[6.02567,50.38977],[6.02618,50.38883],[6.02669,50.38813],[6.02735,50.38757],[6.02799,50.38661],[6.02823,50.38609],[6.02825,50.38561],[6.02845,50.38526],[6.0287,50.38425],[6.02871,50.38368],[6.02745,50.38344],[6.02743,50.38337],[6.02782,50.38309],[6.02714,50.38281],[6.02256,50.38266],[6.021,50.38279],[6.01927,50.38251],[6.01851,50.38258],[6.01744,50.38198],[6.01656,50.38171],[6.01627,50.38137],[6.01638,50.38032],[6.01679,50.37973],[6.0172,50.37958],[6.01769,50.37951],[6.01851,50.37905],[6.01931,50.37885],[6.01964,50.37839],[6.02006,50.3782],[6.02117,50.37817],[6.02291,50.37754],[6.02384,50.37697],[6.02441,50.37676],[6.02455,50.37615],[6.02506,50.37581],[6.02585,50.37508],[6.02768,50.37421],[6.02796,50.37426],[6.02813,50.37448],[6.02831,50.37455],[6.02974,50.37468],[6.03017,50.37448],[6.03079,50.37437],[6.0318,50.37386],[6.03287,50.37388],[6.03385,50.37362],[6.03454,50.37359],[6.03605,50.37324],[6.03959,50.37279],[6.04019,50.37256],[6.04058,50.37228],[6.04095,50.37215],[6.04126,50.37215],[6.04321,50.37284],[6.04376,50.37346],[6.04404,50.3739],[6.04402,50.374],[6.04368,50.37423],[6.04376,50.37452],[6.04431,50.37511],[6.0448,50.37535],[6.04471,50.37566],[6.04295,50.37696],[6.0427,50.3773],[6.04224,50.37834],[6.04222,50.37864],[6.04294,50.37906],[6.04402,50.37943],[6.0453,50.37945],[6.04602,50.3798],[6.04688,50.37999],[6.04756,50.38004],[6.04866,50.37999],[6.0497,50.37976],[6.05048,50.37972],[6.05267,50.37936],[6.05347,50.37952],[6.05521,50.3796],[6.05559,50.3795],[6.05637,50.37947],[6.05686,50.37909]],[[6.04686,50.41794],[6.04666,50.41781],[6.04691,50.41774],[6.04699,50.41784],[6.04686,50.41794]],[[5.98936,50.41268],[5.98923,50.41256],[5.98937,50.41254],[5.98936,50.41268]],[[5.98686,50.41202],[5.98603,50.41163],[5.98562,50.41166],[5.98515,50.41184],[5.98464,50.41173],[5.98442,50.41151],[5.98437,50.41117],[5.98417,50.4109],[5.98291,50.41034],[5.9828,50.40946],[5.98266,50.40919],[5.98192,50.40895],[5.98145,50.40894],[5.98061,50.40967],[5.98006,50.40966],[5.97963,50.40948],[5.97927,50.40893],[5.97917,50.40841],[5.98009,50.40777],[5.98067,50.40757],[5.98152,50.40645],[5.981,50.4059],[5.98048,50.40516],[5.97934,50.40452],[5.97894,50.40366],[5.97805,50.40327],[5.97733,50.40281],[5.97595,50.40241],[5.97558,50.4024],[5.97515,50.40275],[5.97479,50.40271],[5.97467,50.40259],[5.97463,50.40224],[5.97437,50.40199],[5.97393,50.40199],[5.97368,50.40241],[5.97339,50.40253],[5.97254,50.4023],[5.97229,50.40197],[5.97186,50.40229],[5.97006,50.40215],[5.96867,50.40176],[5.96813,50.40137],[5.96699,50.40135],[5.96524,50.40088],[5.96404,50.39999],[5.96389,50.39963],[5.96391,50.39908],[5.96381,50.39893],[5.9631,50.39868],[5.96143,50.39758],[5.96116,50.3971],[5.9612,50.39668],[5.96097,50.39589],[5.96139,50.39562],[5.96204,50.39534],[5.96356,50.39485],[5.96433,50.39466],[5.96532,50.39461],[5.96563,50.39453],[5.96601,50.39428],[5.96626,50.39426],[5.96731,50.3945],[5.96726,50.39481],[5.96787,50.39474],[5.96847,50.39482],[5.96898,50.39507],[5.96928,50.39535],[5.9698,50.39552],[5.97032,50.3956],[5.97162,50.39553],[5.97313,50.39614],[5.97431,50.39638],[5.97486,50.39658],[5.97563,50.39659],[5.97653,50.39633],[5.9773,50.39625],[5.97853,50.39701],[5.97965,50.39707],[5.97996,50.39716],[5.98016,50.39734],[5.98019,50.39786],[5.9818,50.39858],[5.98229,50.39895],[5.98352,50.39952],[5.98434,50.39944],[5.98472,50.39966],[5.98511,50.39969],[5.98644,50.39916],[5.98686,50.39923],[5.98727,50.39948],[5.98809,50.40048],[5.98812,50.40063],[5.98802,50.40092],[5.9881,50.40118],[5.98859,50.40142],[5.98865,50.40161],[5.9886,50.40177],[5.9877,50.40229],[5.98756,50.4026],[5.9885,50.40271],[5.98893,50.40285],[5.98969,50.40342],[5.99067,50.40391],[5.99196,50.40476],[5.9923,50.40506],[5.99272,50.40587],[5.99332,50.40668],[5.99404,50.40712],[5.99422,50.40741],[5.99403,50.40787],[5.99346,50.40836],[5.99274,50.40881],[5.99174,50.40916],[5.9911,50.40956],[5.99037,50.40976],[5.99013,50.40994],[5.98978,50.41],[5.98964,50.41053],[5.98998,50.41106],[5.99023,50.41169],[5.99018,50.41182],[5.98886,50.41221],[5.98845,50.41205],[5.98818,50.41161],[5.98797,50.41155],[5.98757,50.41167],[5.98686,50.41202]],[[5.97144,50.40346],[5.97134,50.40318],[5.97143,50.40284],[5.97191,50.4028],[5.97194,50.40291],[5.97182,50.40336],[5.97144,50.40346]],[[6.02436,50.396],[6.02415,50.39587],[6.02427,50.39563],[6.02487,50.39563],[6.02482,50.39591],[6.02436,50.396]],[[6.02936,50.39401],[6.0293,50.39395],[6.02935,50.39386],[6.02936,50.39401]],[[6.02978,50.39376],[6.02951,50.39367],[6.02974,50.39362],[6.02997,50.39367],[6.02978,50.39376]],[[6.02478,50.39121],[6.02469,50.39115],[6.02479,50.39101],[6.02488,50.39116],[6.02478,50.39121]],[[5.95519,50.38655],[5.9557,50.38596],[5.95728,50.38533],[5.95769,50.38537],[5.95819,50.38525],[5.95892,50.38528],[5.96006,50.38547],[5.9611,50.38586],[5.96185,50.3859],[5.96215,50.38584],[5.96248,50.38565],[5.96267,50.38533],[5.96351,50.3845],[5.96403,50.38431],[5.96434,50.38391],[5.96519,50.3834],[5.96709,50.38327],[5.96817,50.38343],[5.96852,50.38327],[5.96894,50.38284],[5.97101,50.38134],[5.97234,50.3813],[5.97243,50.38117],[5.97218,50.38094],[5.97219,50.38081],[5.97237,50.3807],[5.97279,50.38065],[5.97285,50.38056],[5.97255,50.37946],[5.9726,50.37921],[5.97277,50.37897],[5.97278,50.37877],[5.97241,50.37809],[5.97197,50.37759],[5.97118,50.37729],[5.97096,50.37707],[5.97101,50.37689],[5.97143,50.37668],[5.97184,50.3768],[5.97237,50.37668],[5.97275,50.37668],[5.97312,50.377],[5.97317,50.37734],[5.97349,50.37814],[5.97453,50.37833],[5.97491,50.3786],[5.97563,50.3789],[5.97586,50.37922],[5.97622,50.37951],[5.97629,50.37991],[5.97623,50.38061],[5.97603,50.3809],[5.97559,50.38119],[5.97528,50.3821],[5.97535,50.38245],[5.97576,50.38335],[5.97591,50.38356],[5.97607,50.38362],[5.97824,50.38322],[5.98001,50.38329],[5.98074,50.38323],[5.98225,50.3827],[5.9835,50.38241],[5.98485,50.38216],[5.986,50.38209],[5.98654,50.38176],[5.98685,50.38145],[5.9885,50.3809],[5.98902,50.38111],[5.99062,50.38118],[5.9911,50.3809],[5.99055,50.38067],[5.99051,50.38062],[5.99057,50.38057],[5.99187,50.38043],[5.99379,50.38007],[5.99399,50.37978],[5.99397,50.37923],[5.99295,50.3782],[5.99274,50.37783],[5.99271,50.37752],[5.99285,50.37672],[5.99325,50.37606],[5.99379,50.37564],[5.99416,50.3751],[5.99434,50.37501],[5.99485,50.37495],[5.99518,50.37478],[5.99644,50.37336],[5.99687,50.37354],[5.99717,50.3739],[5.99724,50.37411],[5.99723,50.37478],[5.99757,50.37557],[5.99802,50.37619],[5.99842,50.37654],[6.0011,50.37782],[6.00194,50.37795],[6.00303,50.37799],[6.00358,50.37813],[6.0044,50.37788],[6.00527,50.37733],[6.00554,50.37671],[6.00644,50.37642],[6.00652,50.37648],[6.0064,50.37674],[6.00686,50.37674],[6.00752,50.37641],[6.00773,50.3762],[6.00769,50.37586],[6.00894,50.37445],[6.011,50.37339],[6.01144,50.373],[6.01312,50.37196],[6.01366,50.37151],[6.01431,50.37061],[6.01469,50.37027],[6.01516,50.36916],[6.01541,50.36896]],[[5.97603,50.38422],[5.97577,50.38397],[5.97598,50.38375],[5.97611,50.38394],[5.97603,50.38422]],[[5.98853,50.38121],[5.98832,50.38114],[5.98855,50.38098],[5.98875,50.38116],[5.98853,50.38121]],[[6.04436,50.37882],[6.04429,50.37866],[6.0448,50.37868],[6.04436,50.37882]],[[5.97019,50.37628],[5.97003,50.37618],[5.97026,50.37615],[5.97019,50.37628]],[[6.05686,50.37088],[6.05577,50.37063],[6.05464,50.37016],[6.05383,50.37007],[6.05275,50.36972],[6.05131,50.36896]],[[6.01561,50.36929],[6.01539,50.36921],[6.0156,50.36909],[6.01592,50.36921],[6.01561,50.36929]],[[6.01645,50.36896],[6.01606,50.36917],[6.01572,50.36896]]]}},{"type":"Feature","properties":{"ele":450},"geometry":{"type":"MultiLineString","coordinates":[[[5.9583,50.44923],[5.95845,50.44886],[5.95892,50.44811],[5.95921,50.44782],[5.95932,50.44755],[5.95997,50.44713],[5.96022,50.44674],[5.9615,50.4458],[5.96224,50.44507],[5.96244,50.44453],[5.96274,50.44404],[5.96282,50.44366],[5.96345,50.44252],[5.96341,50.44228],[5.96308,50.442],[5.96391,50.44172],[5.96446,50.44125],[5.96455,50.44085],[5.96508,50.44019],[5.96521,50.43977],[5.96504,50.43946],[5.96501,50.43887],[5.96437,50.43782],[5.96395,50.43793],[5.96353,50.43784],[5.96279,50.43727],[5.96218,50.43703],[5.95843,50.43599],[5.9577,50.43563],[5.95697,50.43506],[5.95519,50.43404]],[[5.96158,50.44923],[5.96441,50.44842],[5.96467,50.4478],[5.96589,50.44655],[5.96678,50.4461],[5.96746,50.44594],[5.96797,50.44601],[5.9682,50.44614],[5.96836,50.44673],[5.96861,50.44697],[5.96879,50.44731],[5.96885,50.44776],[5.96863,50.44818],[5.96816,50.44869],[5.96756,50.44859],[5.96678,50.44869],[5.96727,50.449],[5.96807,50.44911],[5.96837,50.44923]],[[5.97728,50.44923],[5.97708,50.44877],[5.97729,50.44826],[5.97792,50.44777],[5.97867,50.44755],[5.97892,50.44728],[5.97908,50.44682],[5.97935,50.4466],[5.98022,50.44629],[5.9811,50.4463],[5.98229,50.44586],[5.98381,50.44572],[5.98438,50.4459],[5.98404,50.44633],[5.98399,50.44654],[5.98436,50.44741],[5.98484,50.44923]],[[5.99084,50.44923],[5.99087,50.44894],[5.99071,50.44843],[5.9911,50.44817],[5.99132,50.44779],[5.99149,50.44769],[5.99192,50.44783],[5.99206,50.44821],[5.99244,50.44867],[5.99274,50.44923]],[[5.99458,50.44923],[5.99482,50.44909],[5.99553,50.44913],[5.99603,50.44904],[5.99684,50.44825],[5.99732,50.44887],[5.99751,50.44923]],[[5.9985,50.44923],[5.99881,50.4491],[5.99978,50.44896],[6.00068,50.44871],[6.00084,50.44842],[6.00058,50.44813],[6.00055,50.44788],[6.00079,50.44758],[6.00084,50.44723],[6.00224,50.44628],[6.00271,50.44619],[6.00317,50.44592],[6.00311,50.44562],[6.00351,50.44533],[6.00414,50.44507],[6.00518,50.44478],[6.00594,50.44471],[6.0063,50.44483],[6.00642,50.44538],[6.00683,50.44552],[6.0073,50.44548],[6.00811,50.4449],[6.00848,50.44519],[6.00918,50.44541],[6.01011,50.44549],[6.01089,50.44567],[6.01116,50.44561],[6.01063,50.44506],[6.0098,50.44479],[6.00819,50.44475],[6.00789,50.44463],[6.00774,50.44439],[6.00792,50.44349],[6.00769,50.44312],[6.00704,50.4439],[6.00686,50.44424],[6.00666,50.44392],[6.00605,50.44367],[6.00561,50.44359],[6.00522,50.44334],[6.00481,50.44343],[6.00436,50.44368],[6.00376,50.44375],[6.00346,50.44372],[6.00281,50.44339],[6.00182,50.4434],[6.00159,50.44373],[6.00147,50.44433],[6.00059,50.44434],[5.99845,50.44526],[5.9973,50.44504],[5.9968,50.44513],[5.99646,50.44498],[5.99601,50.44461],[5.99556,50.44441],[5.9948,50.44435],[5.99402,50.44439],[5.99351,50.44423],[5.99337,50.44442],[5.99337,50.44455],[5.99434,50.4448],[5.99446,50.44503],[5.99404,50.44509],[5.99256,50.44462],[5.99168,50.44469],[5.9901,50.44457],[5.98969,50.4443],[5.9892,50.44342],[5.98862,50.44281],[5.98754,50.44232],[5.98563,50.44198],[5.98433,50.44176],[5.98312,50.44171],[5.98226,50.44201],[5.98174,50.44205],[5.98146,50.442],[5.98018,50.44146],[5.97954,50.44138],[5.97652,50.44181],[5.97603,50.44201],[5.97558,50.44202],[5.97478,50.44173],[5.97455,50.4414],[5.9746,50.44109],[5.97516,50.4403],[5.97577,50.43982],[5.97611,50.43896],[5.97613,50.43838],[5.97602,50.43784],[5.9761,50.4373],[5.97583,50.43702],[5.9758,50.43675],[5.97628,50.43463],[5.97621,50.43445],[5.97603,50.43436],[5.97532,50.43457],[5.97475,50.43451],[5.97481,50.43425],[5.97552,50.43314],[5.97589,50.43283],[5.97606,50.43258],[5.97478,50.43171],[5.97468,50.43068],[5.97492,50.4296],[5.97489,50.42944],[5.97475,50.42924],[5.97432,50.42898],[5.97269,50.4284],[5.97238,50.42814],[5.97231,50.4278],[5.97191,50.42779],[5.97145,50.42795],[5.97105,50.42797],[5.97028,50.4278],[5.96949,50.42775],[5.96885,50.42746],[5.96805,50.42731],[5.96784,50.42703],[5.96782,50.42648],[5.96768,50.42623],[5.96566,50.42532],[5.96505,50.42481],[5.965,50.42463],[5.96506,50.42446],[5.96537,50.42431],[5.96584,50.42432],[5.96692,50.42466],[5.96769,50.42507],[5.96829,50.42526],[5.97277,50.42632],[5.97388,50.42648],[5.9744,50.42638],[5.97527,50.42671],[5.97725,50.42708],[5.97856,50.42694],[5.97934,50.42732],[5.98017,50.42741],[5.984,50.42837],[5.98436,50.42841],[5.9852,50.42812],[5.98568,50.42865],[5.98578,50.42897],[5.98604,50.42931],[5.9864,50.42955],[5.98686,50.42951],[5.98701,50.42981],[5.98725,50.43007],[5.98775,50.43031],[5.98845,50.43056],[5.98896,50.43057],[5.9894,50.43086],[5.98996,50.43107],[5.99199,50.43143],[5.993,50.43181],[5.99438,50.43219],[5.99562,50.4323],[5.99657,50.43213],[5.99699,50.43222],[5.99733,50.43244],[5.99764,50.43245],[5.99781,50.43234],[5.99783,50.43217],[5.99747,50.43145],[5.99771,50.43126],[5.99813,50.43117],[5.99958,50.43194],[5.9996,50.43206],[5.99933,50.43229],[5.99919,50.43251],[5.99921,50.43263],[5.99936,50.43275],[5.99964,50.4328],[5.99985,50.43274],[5.99998,50.43258],[5.99997,50.4323],[6.00015,50.43221],[6.00063,50.43217],[6.00152,50.43224],[6.00229,50.43273],[6.00277,50.43319],[6.00311,50.43368],[6.00386,50.43379],[6.00464,50.43356],[6.00483,50.43345],[6.00485,50.43334],[6.00478,50.43312],[6.00409,50.43283],[6.00325,50.4323],[6.00267,50.43187],[6.0025,50.43161],[6.00249,50.43137],[6.00276,50.43092],[6.0028,50.43064],[6.00276,50.43035],[6.00249,50.42974],[6.00265,50.42916],[6.00293,50.42863],[6.00269,50.42755],[6.00313,50.42737],[6.0036,50.42751],[6.00396,50.42774],[6.00428,50.42811],[6.00426,50.42824],[6.00392,50.4287],[6.00436,50.42901],[6.00482,50.42921],[6.00519,50.42928],[6.00562,50.42925],[6.00596,50.42863],[6.00602,50.42812],[6.00645,50.42817],[6.00664,50.42731],[6.00629,50.42613],[6.00599,50.42564],[6.00591,50.4248],[6.00608,50.4247],[6.00693,50.42455],[6.00715,50.42436],[6.00718,50.42418],[6.00683,50.42367],[6.00761,50.42373],[6.0081,50.42398],[6.00863,50.42442],[6.00868,50.42457],[6.00861,50.42519],[6.00873,50.42543],[6.00895,50.42562],[6.00974,50.42597],[6.00983,50.4263],[6.00969,50.42673],[6.00976,50.42699],[6.01033,50.42793],[6.01088,50.42843],[6.01094,50.42899],[6.01187,50.42903],[6.01223,50.42865],[6.01316,50.42846],[6.01352,50.42811],[6.01381,50.42808],[6.01438,50.42827],[6.0148,50.42892],[6.01508,50.42901],[6.0172,50.42856],[6.0178,50.4286],[6.01795,50.42866],[6.01794,50.42877],[6.0177,50.42896],[6.01714,50.42923],[6.01687,50.42968],[6.01692,50.43057],[6.01686,50.43091],[6.01669,50.4313],[6.01673,50.43149],[6.01798,50.43195],[6.01972,50.43173],[6.02032,50.43197],[6.0209,50.43193],[6.02136,50.43179],[6.02155,50.43186],[6.02161,50.43206],[6.02135,50.4323],[6.02063,50.43247],[6.0197,50.43252],[6.01885,50.4328],[6.01768,50.43366],[6.01722,50.43422],[6.01719,50.43449],[6.0181,50.43507],[6.0189,50.435],[6.0192,50.43509],[6.01939,50.43536],[6.01938,50.43563],[6.01923,50.43596],[6.01932,50.43625],[6.02013,50.43683],[6.02058,50.43696],[6.021,50.43692],[6.02144,50.43673],[6.02194,50.43623],[6.02272,50.43576],[6.0231,50.43534],[6.02351,50.43506],[6.02397,50.43506],[6.02448,50.4353],[6.02464,50.43554],[6.0246,50.43571],[6.02404,50.43626],[6.0237,50.43698],[6.02301,50.43728],[6.02295,50.43758],[6.02346,50.43786],[6.02402,50.43797],[6.02491,50.43798],[6.02562,50.43782],[6.02593,50.43788],[6.02624,50.43849],[6.02676,50.43906],[6.02764,50.43931],[6.02827,50.43974],[6.02839,50.4401],[6.02865,50.4405],[6.02861,50.44069],[6.02824,50.44102],[6.02769,50.44117],[6.02623,50.4412],[6.02604,50.44115],[6.02561,50.44085],[6.02511,50.44071],[6.02373,50.44091],[6.02297,50.44116],[6.02418,50.44191],[6.02523,50.44197],[6.02544,50.44241],[6.02607,50.44308],[6.026,50.44341],[6.02615,50.44352],[6.02746,50.44413],[6.02802,50.44405],[6.02866,50.44377],[6.02936,50.44383],[6.02943,50.44397],[6.02924,50.44427],[6.0292,50.44498],[6.02942,50.44535],[6.03052,50.44552],[6.03147,50.44577],[6.03298,50.44567],[6.03438,50.44588],[6.03478,50.44618],[6.0356,50.44646],[6.03606,50.44626],[6.03645,50.44587],[6.03682,50.44623],[6.03686,50.44646],[6.03677,50.44671],[6.03688,50.44676],[6.03731,50.44676],[6.03763,50.44664],[6.03837,50.44602],[6.03901,50.44481],[6.03887,50.44448],[6.03954,50.44442],[6.04017,50.44461],[6.04029,50.44479],[6.04038,50.44533],[6.0407,50.44593],[6.04073,50.44617],[6.04041,50.44651],[6.04022,50.44705],[6.04009,50.4472],[6.03941,50.44759],[6.03911,50.4479],[6.03894,50.44838],[6.03896,50.44871],[6.03883,50.44923]],[[6.04732,50.44923],[6.04758,50.44833],[6.04772,50.44816],[6.04814,50.44795],[6.04934,50.44841],[6.04975,50.44874],[6.05015,50.44923]],[[6.05329,50.44923],[6.05383,50.44896],[6.05438,50.44896],[6.05462,50.44889],[6.05516,50.44858],[6.05595,50.4483],[6.05642,50.44827],[6.05686,50.4484]],[[6.01436,50.44759],[6.01405,50.44724],[6.01342,50.44702],[6.01305,50.44675],[6.01305,50.44647],[6.01287,50.44616],[6.01306,50.44583],[6.01325,50.44583],[6.01401,50.44617],[6.01389,50.4463],[6.01326,50.44645],[6.01332,50.44653],[6.01433,50.44668],[6.01515,50.44716],[6.01567,50.44729],[6.01477,50.44757],[6.01436,50.44759]],[[6.04144,50.44567],[6.04138,50.44562],[6.04162,50.44562],[6.04144,50.44567]],[[6.00561,50.44405],[6.00544,50.44393],[6.00565,50.44375],[6.00597,50.44377],[6.00612,50.44391],[6.00604,50.44401],[6.00561,50.44405]],[[6.05686,50.4442],[6.05597,50.44399],[6.05516,50.44348],[6.05506,50.44331],[6.05505,50.44269],[6.05541,50.44229],[6.0555,50.44169],[6.05563,50.44147],[6.05599,50.44116],[6.05603,50.44089],[6.0556,50.44067],[6.05524,50.44026],[6.05475,50.44007],[6.05411,50.44006],[6.054,50.44013],[6.05395,50.44035],[6.05358,50.44033],[6.05311,50.43951],[6.05272,50.43932],[6.05183,50.43919],[6.05061,50.43935],[6.05039,50.4392],[6.05017,50.43887],[6.05012,50.43866],[6.05017,50.4384],[6.05049,50.43808],[6.05209,50.43732],[6.05256,50.43699],[6.05354,50.43589],[6.05311,50.43592],[6.05233,50.43559],[6.05105,50.43553],[6.04976,50.43534],[6.04879,50.4356],[6.0487,50.43594],[6.04848,50.4361],[6.04725,50.43617],[6.04592,50.4367],[6.04586,50.43682],[6.04604,50.43729],[6.04563,50.43743],[6.04533,50.43744],[6.04508,50.43735],[6.04507,50.43722],[6.0453,50.43701],[6.0451,50.43693],[6.04412,50.4369],[6.04241,50.43707],[6.04158,50.43686],[6.04128,50.43699],[6.04125,50.43748],[6.04102,50.43766],[6.04012,50.43759],[6.03936,50.43728],[6.03813,50.43742],[6.03638,50.43707],[6.03594,50.43678],[6.03511,50.43646],[6.0348,50.43616],[6.0343,50.43601],[6.03387,50.43564],[6.03294,50.43515],[6.03253,50.43481],[6.03237,50.43456],[6.03239,50.43425],[6.03225,50.43409],[6.03221,50.4339],[6.0323,50.4335],[6.03264,50.43309],[6.03329,50.43309],[6.03355,50.43312],[6.03437,50.43349],[6.03515,50.43354],[6.03534,50.43365],[6.03525,50.43372],[6.0347,50.43375],[6.0343,50.43386],[6.03421,50.434],[6.03445,50.43416],[6.03499,50.43424],[6.03556,50.43443],[6.03591,50.43412],[6.03621,50.43405],[6.03737,50.43422],[6.03813,50.43445],[6.03853,50.43425],[6.03852,50.43395],[6.039,50.43367],[6.03922,50.43343],[6.0386,50.43322],[6.03748,50.43311],[6.03745,50.4329],[6.03758,50.43278],[6.03811,50.43287],[6.03861,50.43259],[6.03861,50.43235],[6.03849,50.43205],[6.03819,50.43173],[6.03705,50.43116],[6.03486,50.43028],[6.03457,50.42951],[6.03397,50.42914],[6.03347,50.42869],[6.03331,50.42845],[6.03287,50.42762],[6.03295,50.42746],[6.03318,50.42728],[6.03396,50.4272],[6.03519,50.42757],[6.03621,50.42812],[6.03646,50.42854],[6.03793,50.4288],[6.03819,50.42877],[6.03845,50.42863],[6.03867,50.42843],[6.03893,50.42795],[6.03938,50.42774],[6.03981,50.42829],[6.04013,50.4289],[6.04021,50.42924],[6.04006,50.42943],[6.04006,50.42957],[6.04028,50.42969],[6.04104,50.42978],[6.04116,50.43008],[6.04141,50.43036],[6.04224,50.4305],[6.04258,50.43064],[6.04314,50.43105],[6.04355,50.43152],[6.04391,50.4316],[6.04439,50.43145],[6.04451,50.43175],[6.04479,50.43201],[6.04689,50.43269],[6.0484,50.43281],[6.05192,50.43232],[6.05293,50.43192],[6.05385,50.43196],[6.05408,50.43181],[6.05412,50.43155],[6.05404,50.4314],[6.0536,50.43109],[6.05269,50.4309],[6.05014,50.42983],[6.04938,50.42921],[6.04907,50.42904],[6.04886,50.42903],[6.04809,50.42924],[6.04631,50.42867],[6.04584,50.42843],[6.04507,50.42757],[6.04529,50.42703],[6.04512,50.42644],[6.04518,50.42565],[6.04527,50.4254],[6.04542,50.42525],[6.04575,50.4251],[6.04642,50.42507],[6.04852,50.42567],[6.05027,50.42581],[6.05162,50.42576],[6.05342,50.42621],[6.05398,50.42624],[6.05402,50.42617],[6.0535,50.42605],[6.05334,50.42584],[6.05333,50.42561],[6.05343,50.42538],[6.05351,50.42529],[6.05366,50.42528],[6.05396,50.42533],[6.05483,50.42568],[6.0561,50.42588],[6.05644,50.42633],[6.05686,50.4263]],[[6.05186,50.44173],[6.05171,50.44146],[6.05205,50.44144],[6.05205,50.44155],[6.05186,50.44173]],[[6.04436,50.43764],[6.0442,50.43754],[6.0444,50.43747],[6.04481,50.43756],[6.04436,50.43764]],[[5.96436,50.43687],[5.96391,50.43648],[5.96393,50.43618],[5.96443,50.43628],[5.96475,50.43648],[5.96491,50.43669],[5.9649,50.43679],[5.96477,50.43688],[5.96436,50.43687]],[[5.97394,50.42597],[5.97386,50.4259],[5.97393,50.42581],[5.97401,50.42589],[5.97394,50.42597]],[[5.96728,50.42474],[5.96714,50.4245],[5.96733,50.4245],[5.96728,50.42474]],[[5.95936,50.42317],[5.95853,50.42256],[5.95847,50.42227],[5.95854,50.42173],[5.95807,50.4215],[5.95793,50.4212],[5.95815,50.42093],[5.95898,50.42064],[5.95919,50.42033],[5.9594,50.42024],[5.95991,50.42024],[5.96106,50.42063],[5.96147,50.42087],[5.96195,50.42148],[5.96307,50.42203],[5.96338,50.42234],[5.96327,50.42287],[5.9627,50.42314],[5.96214,50.42303],[5.96131,50.42271],[5.96079,50.42263],[5.9605,50.4227],[5.95978,50.42312],[5.95936,50.42317]],[[6.05686,50.40832],[6.05636,50.40857],[6.05267,50.40875],[6.05215,50.40849],[6.04979,50.40768],[6.049,50.40717],[6.04851,50.40722],[6.04771,50.40758],[6.04736,50.40751],[6.04709,50.40729],[6.04686,50.40668],[6.0464,50.40705],[6.04616,50.40748],[6.04606,50.4079],[6.0455,50.40807],[6.04521,50.40842],[6.04476,50.40841],[6.04366,50.40791],[6.04311,50.40785],[6.04263,50.40853],[6.04194,50.40902],[6.041,50.40947],[6.04073,50.41032],[6.04087,50.41045],[6.04111,50.4105],[6.04189,50.41025],[6.042,50.41047],[6.04199,50.41066],[6.04163,50.41096],[6.03983,50.41146],[6.03936,50.41173],[6.03816,50.41145],[6.03719,50.41102],[6.03643,50.41084],[6.036,50.41114],[6.03573,50.41144],[6.03561,50.41179],[6.03533,50.412],[6.0338,50.41229],[6.03334,50.41309],[6.0337,50.41335],[6.03372,50.41344],[6.03353,50.41358],[6.03313,50.4137],[6.03307,50.414],[6.03354,50.41475],[6.03436,50.4155],[6.03491,50.41624],[6.03512,50.41668],[6.03477,50.41699],[6.03344,50.41736],[6.03307,50.41731],[6.03233,50.41699],[6.03142,50.41679],[6.03079,50.41693],[6.02991,50.417],[6.02938,50.41716],[6.02787,50.41684],[6.02739,50.41703],[6.0268,50.41705],[6.02606,50.41673],[6.02561,50.41668],[6.02515,50.41675],[6.02393,50.41647],[6.02251,50.4159],[6.02145,50.41505],[6.02137,50.4148],[6.02142,50.41452],[6.02191,50.41427],[6.02191,50.41395],[6.02166,50.41359],[6.02059,50.41264],[6.0202,50.41252],[6.01804,50.41227],[6.01788,50.41203],[6.01787,50.41179],[6.01834,50.41145],[6.0186,50.41091],[6.01796,50.41069],[6.01713,50.40982],[6.01645,50.40942],[6.01593,50.40924],[6.0165,50.40906],[6.01665,50.40887],[6.01708,50.40748],[6.01707,50.40689],[6.01699,50.40652],[6.01689,50.40638],[6.01644,50.40618],[6.0159,50.40612],[6.01477,50.40619],[6.01399,50.40634],[6.01339,50.40657],[6.01272,50.40657],[6.01227,50.40646],[6.01167,50.40564],[6.01069,50.40555],[6.01015,50.40537],[6.01001,50.40509],[6.01015,50.40491],[6.011,50.40473],[6.01181,50.40441],[6.01234,50.404],[6.01323,50.40226],[6.01271,50.40145],[6.01233,50.40142],[6.01219,50.40145],[6.0121,50.40161],[6.01207,50.40193],[6.01217,50.40223],[6.01207,50.40238],[6.01173,50.40245],[6.01086,50.4023],[6.01126,50.40202],[6.01123,50.40186],[6.01104,50.40166],[6.01058,50.40151],[6.0095,50.40146],[6.00847,50.40115],[6.00813,50.40086],[6.00789,50.40047],[6.00755,50.3996],[6.0076,50.39944],[6.00774,50.39936],[6.00944,50.3991],[6.00982,50.39913],[6.01033,50.39938],[6.01074,50.39939],[6.01148,50.3991],[6.01189,50.39868],[6.01233,50.39859],[6.01252,50.39869],[6.01256,50.3989],[6.01198,50.39932],[6.01192,50.39953],[6.01208,50.40004],[6.01171,50.40033],[6.01226,50.40063],[6.01311,50.40031],[6.01361,50.40048],[6.01485,50.40052],[6.01847,50.40093],[6.01935,50.40127],[6.02018,50.40174],[6.02041,50.40203],[6.0206,50.40259],[6.0211,50.4023],[6.02242,50.40229],[6.0236,50.40172],[6.02363,50.40145],[6.02226,50.4009],[6.02335,50.40035],[6.02465,50.39994],[6.02603,50.40007],[6.02647,50.3999],[6.02724,50.39988],[6.02803,50.39964],[6.0286,50.39961],[6.02874,50.39945],[6.02872,50.39877],[6.02894,50.3984],[6.03188,50.39829],[6.0323,50.3982],[6.03238,50.3979],[6.03225,50.39621],[6.03234,50.39598],[6.03311,50.39562],[6.03352,50.39519],[6.03397,50.39492],[6.0348,50.39454],[6.03514,50.39394],[6.03638,50.39361],[6.03687,50.3934],[6.03772,50.3933],[6.03841,50.39342],[6.03841,50.39396],[6.03848,50.39409],[6.03862,50.39412],[6.03898,50.39399],[6.03975,50.39337],[6.03989,50.39316],[6.03985,50.39283],[6.0401,50.39245],[6.03997,50.39182],[6.03986,50.39165],[6.03773,50.39088],[6.03728,50.39062],[6.03603,50.39034],[6.0351,50.38967],[6.03412,50.38938],[6.03304,50.38895],[6.03313,50.38876],[6.03356,50.38869],[6.03394,50.38828],[6.03528,50.38763],[6.0361,50.38705],[6.03638,50.38671],[6.0366,50.38616],[6.03696,50.38565],[6.03806,50.38507],[6.03855,50.38465],[6.03918,50.38427],[6.03975,50.38406],[6.04032,50.384],[6.04182,50.38416],[6.04272,50.38436],[6.04334,50.38437],[6.04475,50.38406],[6.04688,50.38393],[6.04782,50.384],[6.05026,50.38373],[6.05298,50.38316],[6.05475,50.3832],[6.05686,50.38342]],[[6.04228,50.41009],[6.0422,50.41006],[6.04228,50.41009]],[[6.04519,50.40737],[6.04479,50.40727],[6.04476,50.407],[6.04515,50.40689],[6.04538,50.40696],[6.0454,50.4072],[6.04519,50.40737]],[[6.02186,50.40132],[6.02167,50.40117],[6.02196,50.40116],[6.02186,50.40132]],[[6.01019,50.40092],[6.00974,50.4006],[6.0102,50.40061],[6.01019,50.40092]],[[5.97769,50.4008],[5.97735,50.40053],[5.97645,50.40024],[5.97627,50.40012],[5.97625,50.40002],[5.97653,50.39985],[5.97699,50.39991],[5.97884,50.4006],[5.97769,50.4008]],[[6.01061,50.40008],[6.01069,50.40006],[6.01061,50.40008]],[[5.97436,50.39958],[5.97352,50.39924],[5.97323,50.39889],[5.9727,50.39861],[5.97121,50.39861],[5.97014,50.39834],[5.96918,50.39831],[5.96772,50.39793],[5.96699,50.39727],[5.96559,50.39674],[5.96546,50.39654],[5.96546,50.39637],[5.96559,50.39618],[5.96599,50.39618],[5.96688,50.39639],[5.96772,50.39602],[5.96802,50.39617],[5.96809,50.39646],[5.96854,50.39672],[5.96977,50.39701],[5.97028,50.39703],[5.97101,50.3967],[5.97141,50.39679],[5.97249,50.39729],[5.97323,50.39781],[5.97439,50.39839],[5.97449,50.39869],[5.9743,50.39898],[5.97511,50.39904],[5.97546,50.39926],[5.97521,50.39959],[5.97436,50.39958]],[[6.03186,50.39972],[6.03131,50.39903],[6.03133,50.39891],[6.03191,50.39891],[6.03237,50.3994],[6.0324,50.39956],[6.0323,50.39972],[6.03186,50.39972]],[[5.9969,50.36896],[5.99677,50.36923],[5.99647,50.36952],[5.99557,50.36951],[5.99519,50.36978],[5.99578,50.37006],[5.99592,50.37029],[5.99586,50.37047],[5.99549,50.3709],[5.99522,50.37148],[5.99455,50.37224],[5.99363,50.3737],[5.99321,50.37421],[5.99209,50.37448],[5.9919,50.37509],[5.991,50.37552],[5.99077,50.37571],[5.99061,50.3759],[5.99052,50.37619],[5.98996,50.37668],[5.99002,50.37717],[5.98988,50.37742],[5.98949,50.37752],[5.98852,50.37728],[5.98838,50.37803],[5.98829,50.37816],[5.98687,50.37841],[5.98682,50.37868],[5.98729,50.37883],[5.98746,50.37905],[5.98748,50.37946],[5.98724,50.37978],[5.98616,50.37989],[5.98566,50.37985],[5.98506,50.37955],[5.98472,50.3791],[5.98435,50.37908],[5.98392,50.37932],[5.98356,50.3794],[5.98269,50.37895],[5.98239,50.37926],[5.9819,50.37955],[5.98106,50.37975],[5.98035,50.38022],[5.98029,50.38033],[5.98035,50.38047],[5.98086,50.38086],[5.98084,50.38098],[5.98067,50.38109],[5.98022,50.38112],[5.97978,50.3809],[5.979,50.38068],[5.97892,50.38063],[5.9789,50.3804],[5.97902,50.38005],[5.97889,50.37977],[5.97934,50.37921],[5.97944,50.37893],[5.9794,50.37864],[5.97916,50.37811],[5.9795,50.37783],[5.97896,50.37741],[5.97889,50.37707],[5.97879,50.37694],[5.9773,50.37635],[5.97573,50.37549],[5.97516,50.37537],[5.97403,50.3749],[5.96878,50.37313],[5.96777,50.37252],[5.9673,50.37239],[5.96686,50.37257],[5.96649,50.37314],[5.96673,50.3737],[5.9666,50.37415],[5.96664,50.37439],[5.96675,50.37453],[5.96731,50.3748],[5.96732,50.37511],[5.96713,50.37534],[5.96811,50.37562],[5.96817,50.37588],[5.96852,50.37619],[5.96856,50.37635],[5.96856,50.37649],[5.9684,50.3767],[5.96843,50.3768],[5.96881,50.37705],[5.9698,50.37728],[5.97022,50.37765],[5.97096,50.37866],[5.97082,50.37897],[5.96969,50.3795],[5.96934,50.37978],[5.96939,50.38003],[5.96959,50.38033],[5.9694,50.38063],[5.96808,50.38096],[5.96631,50.3808],[5.96485,50.38104],[5.96441,50.38101],[5.9637,50.38147],[5.96303,50.38161],[5.96142,50.38164],[5.96032,50.38156],[5.95976,50.38143],[5.95937,50.38151],[5.95871,50.38146],[5.95869,50.38158],[5.95879,50.38172],[5.95931,50.3818],[5.95948,50.38197],[5.95954,50.38241],[5.95946,50.38262],[5.95934,50.38269],[5.95892,50.38258],[5.95841,50.3823],[5.95831,50.38206],[5.95845,50.38165],[5.95837,50.38146],[5.95787,50.38143],[5.95683,50.38153],[5.95565,50.38187],[5.95542,50.38197],[5.95538,50.3821],[5.95561,50.38234],[5.95662,50.38211],[5.95727,50.38211],[5.95744,50.38222],[5.95751,50.38241],[5.9573,50.38279],[5.95691,50.3829],[5.95643,50.38317],[5.95603,50.38312],[5.95558,50.38293],[5.95519,50.38286]],[[5.97853,50.38204],[5.97837,50.382],[5.97832,50.38186],[5.97836,50.38171],[5.9785,50.38163],[5.97863,50.38182],[5.97861,50.38199],[5.97853,50.38204]],[[5.96478,50.38186],[5.96456,50.38167],[5.96476,50.38133],[5.96511,50.38133],[5.96563,50.38146],[5.96561,50.38174],[5.96537,50.38186],[5.96511,50.38192],[5.96478,50.38186]],[[6.02186,50.38079],[6.02178,50.38064],[6.02185,50.38059],[6.02193,50.38063],[6.02186,50.38079]],[[6.01089,50.36896],[6.01122,50.36977],[6.01179,50.37033],[6.01178,50.37047],[6.0116,50.37067],[6.01049,50.37147],[6.00996,50.37163],[6.00937,50.37165],[6.00814,50.37234],[6.00784,50.37272],[6.00772,50.37314],[6.00727,50.37343],[6.00645,50.37424],[6.00599,50.3745],[6.00607,50.37482],[6.00519,50.37544],[6.0048,50.37555],[6.00407,50.37553],[6.0035,50.37562],[6.00208,50.3762],[6.00147,50.37629],[6.00055,50.37614],[6.00003,50.37592],[5.99961,50.37562],[5.99914,50.37505],[5.99914,50.37484],[5.99928,50.37449],[5.99916,50.37418],[5.99898,50.37393],[5.99851,50.37369],[5.99839,50.37349],[5.99839,50.37334],[5.99863,50.37297],[5.99857,50.37248],[5.99864,50.3722],[5.99894,50.37173],[5.99944,50.37123],[5.99966,50.37035],[6.00023,50.3698],[6.00018,50.36953],[5.99975,50.36945],[5.9993,50.36926],[5.99926,50.36896]],[[6.01228,50.3715],[6.01215,50.37142],[6.01228,50.37117],[6.01234,50.37137],[6.01228,50.3715]]]}},{"type":"Feature","properties":{"ele":500},"geometry":{"type":"MultiLineString","coordinates":[[[5.95571,50.44923],[5.95633,50.44845],[5.95642,50.44818],[5.95643,50.44746],[5.95662,50.44738],[5.95694,50.44749],[5.95718,50.44824],[5.95677,50.44923]],[[6.0074,50.44923],[6.00768,50.44895],[6.00819,50.44883],[6.00893,50.44903],[6.00937,50.44888],[6.00946,50.44899],[6.00943,50.44923]],[[6.02589,50.44923],[6.02679,50.44888],[6.02724,50.44888],[6.02748,50.44878],[6.02762,50.44856],[6.02747,50.44818],[6.0269,50.44767],[6.02639,50.44759],[6.02591,50.44735],[6.02591,50.44699],[6.02519,50.44674],[6.02476,50.44593],[6.02422,50.44566],[6.02313,50.44543],[6.02193,50.44492],[6.02105,50.44501],[6.02053,50.44485],[6.02019,50.44451],[6.0196,50.44417],[6.01902,50.44322],[6.01849,50.44314],[6.01852,50.44296],[6.01867,50.44284],[6.01838,50.44263],[6.01812,50.44228],[6.01727,50.4423],[6.01705,50.44198],[6.0168,50.44181],[6.01554,50.44155],[6.01545,50.44143],[6.01562,50.44114],[6.01522,50.44097],[6.01398,50.44078],[6.01351,50.44092],[6.01303,50.44076],[6.01189,50.44061],[6.01138,50.44038],[6.01074,50.44025],[6.00985,50.44019],[6.00851,50.43996],[6.00836,50.4397],[6.00829,50.43939],[6.00848,50.43719],[6.00862,50.43715],[6.00928,50.43735],[6.00952,50.43734],[6.01014,50.43714],[6.01061,50.43686],[6.01186,50.43645],[6.01246,50.43491],[6.01244,50.4346],[6.01226,50.43423],[6.01256,50.43414],[6.01272,50.43415],[6.0128,50.43427],[6.01295,50.43481],[6.01398,50.43523],[6.01478,50.43567],[6.01516,50.43573],[6.01547,50.43563],[6.01511,50.4354],[6.0149,50.43512],[6.01504,50.43493],[6.01527,50.43488],[6.01676,50.43565],[6.01785,50.43589],[6.01801,50.43609],[6.01833,50.43699],[6.01936,50.43784],[6.01954,50.43817],[6.02017,50.43832],[6.02147,50.4382],[6.02253,50.43837],[6.02268,50.43841],[6.02304,50.43897],[6.02293,50.4392],[6.02269,50.4393],[6.02188,50.43941],[6.02032,50.43934],[6.0198,50.43952],[6.01938,50.4398],[6.01893,50.43979],[6.01852,50.44007],[6.01825,50.44054],[6.01824,50.44081],[6.0184,50.44117],[6.01929,50.44174],[6.01999,50.44203],[6.02061,50.44256],[6.02085,50.44265],[6.02117,50.44263],[6.02123,50.44254],[6.02119,50.4423],[6.02147,50.44225],[6.02399,50.44393],[6.02418,50.44426],[6.02498,50.44452],[6.02714,50.44571],[6.02768,50.44594],[6.02793,50.44617],[6.02811,50.44652],[6.03001,50.44715],[6.03095,50.44707],[6.03139,50.44711],[6.03161,50.44729],[6.03174,50.44779],[6.03188,50.44795],[6.03263,50.44821],[6.03315,50.4481],[6.03397,50.44867],[6.03478,50.44879],[6.0352,50.44912],[6.03559,50.44923]],[[6.03561,50.44923],[6.03564,50.44894],[6.03517,50.44887],[6.03482,50.44865],[6.03469,50.44843],[6.0346,50.44797],[6.03447,50.44783],[6.03394,50.44756],[6.0339,50.44722],[6.03412,50.44719],[6.03454,50.44728],[6.03568,50.44776],[6.03629,50.44817],[6.03715,50.44841],[6.03732,50.44867],[6.03719,50.44896],[6.03722,50.44923]],[[6.00894,50.44875],[6.00895,50.44866],[6.00894,50.44875]],[[5.95519,50.44532],[5.95589,50.44507],[5.95668,50.44498],[5.95855,50.44498],[5.95939,50.44509],[5.95968,50.44463],[5.95953,50.44387],[5.95978,50.44339],[5.95973,50.44315],[5.95939,50.44257],[5.95891,50.44233],[5.95875,50.44199],[5.95852,50.44122],[5.95852,50.44087],[5.95863,50.44054],[5.95839,50.4395],[5.95808,50.43925],[5.95718,50.43904],[5.95665,50.43865],[5.95637,50.43824],[5.95628,50.4379],[5.95637,50.43738],[5.95633,50.43686],[5.95651,50.43645],[5.95648,50.43614],[5.95519,50.43538]],[[5.99561,50.44158],[5.99549,50.44143],[5.99562,50.44129],[5.99574,50.44146],[5.99561,50.44158]],[[5.99728,50.44149],[5.9964,50.44109],[5.99579,50.44112],[5.99491,50.44136],[5.99282,50.44102],[5.9918,50.44068],[5.9914,50.44041],[5.99101,50.44028],[5.99013,50.44001],[5.98936,50.43994],[5.98919,50.43982],[5.98901,50.43948],[5.98752,50.43873],[5.9871,50.43842],[5.98673,50.4379],[5.98621,50.43772],[5.98584,50.43769],[5.98436,50.43786],[5.98356,50.43772],[5.98282,50.43748],[5.98225,50.43744],[5.98185,50.43733],[5.98188,50.4364],[5.98143,50.4365],[5.9811,50.4364],[5.98091,50.43618],[5.98079,50.43568],[5.98083,50.43537],[5.98104,50.43508],[5.98097,50.43478],[5.98108,50.43451],[5.98078,50.43404],[5.98075,50.43387],[5.98113,50.43315],[5.98129,50.43263],[5.98154,50.43233],[5.98183,50.43223],[5.98272,50.43255],[5.98266,50.43268],[5.98219,50.43285],[5.98334,50.43293],[5.98392,50.43313],[5.98523,50.43394],[5.98559,50.43425],[5.98893,50.43619],[5.98944,50.43642],[5.99017,50.43659],[5.99209,50.43634],[5.99347,50.43629],[5.99459,50.43564],[5.99479,50.43545],[5.99519,50.43534],[5.99568,50.43551],[5.99588,50.43571],[5.99582,50.43594],[5.99518,50.43616],[5.99522,50.43626],[5.99558,50.43647],[5.99694,50.43651],[5.99769,50.43663],[5.99809,50.43679],[5.99855,50.43678],[5.99907,50.43695],[5.99975,50.43685],[6.00027,50.43688],[6.00117,50.43648],[6.0006,50.43617],[6.00146,50.43591],[6.00226,50.4353],[6.00269,50.43486],[6.00302,50.43472],[6.00319,50.43474],[6.00335,50.43519],[6.00306,50.43616],[6.00311,50.43674],[6.00186,50.43716],[6.00118,50.43727],[6.00078,50.43757],[6.00063,50.43795],[6.0002,50.43803],[5.99984,50.43831],[5.99886,50.43832],[5.99845,50.43868],[5.99666,50.43922],[5.99767,50.43936],[5.99933,50.43936],[5.99972,50.43954],[5.9999,50.43991],[5.99981,50.44067],[5.99965,50.44087],[5.99886,50.44106],[5.99851,50.44145],[5.99813,50.44159],[5.99772,50.44162],[5.99728,50.44149]],[[5.98894,50.44091],[5.98765,50.44046],[5.98747,50.44032],[5.98739,50.4401],[5.98768,50.43998],[5.98808,50.44004],[5.98897,50.4403],[5.98942,50.4406],[5.98942,50.44093],[5.98894,50.44091]],[[6.00686,50.44067],[6.00642,50.44059],[6.00506,50.44011],[6.00502,50.44004],[6.00512,50.43991],[6.00563,50.43985],[6.00564,50.43969],[6.00522,50.43966],[6.00501,50.43948],[6.00433,50.4393],[6.00429,50.43862],[6.00476,50.43829],[6.0052,50.43812],[6.00474,50.43787],[6.00382,50.43759],[6.00403,50.4373],[6.00444,50.43713],[6.00501,50.4372],[6.00563,50.43713],[6.00605,50.4372],[6.00677,50.4371],[6.00701,50.43722],[6.00733,50.43836],[6.00735,50.43877],[6.00728,50.43898],[6.00677,50.43894],[6.00673,50.43925],[6.00649,50.43954],[6.00641,50.43977],[6.00693,50.44008],[6.007,50.44036],[6.00686,50.44067]],[[5.98519,50.44008],[5.98478,50.44007],[5.98431,50.43978],[5.98476,50.43946],[5.98556,50.43944],[5.98581,50.43955],[5.9859,50.43973],[5.98583,50.43984],[5.98519,50.44008]],[[6.05686,50.43955],[6.05583,50.43921],[6.05558,50.43897],[6.05632,50.43866],[6.0565,50.43844],[6.05647,50.43833],[6.05591,50.4379],[6.05579,50.43752],[6.05599,50.43695],[6.05636,50.43631],[6.05646,50.43619],[6.05686,50.4361]],[[5.99978,50.4387],[5.99973,50.43866],[5.99978,50.43857],[5.99984,50.43867],[5.99978,50.4387]],[[5.99644,50.43601],[5.99622,50.43586],[5.99649,50.43564],[5.99674,50.43555],[5.99729,50.43555],[5.99749,50.43578],[5.99744,50.43596],[5.99719,50.43609],[5.99644,50.43601]],[[6.03811,50.43604],[6.03773,50.43587],[6.03755,50.43566],[6.03756,50.43557],[6.03798,50.43544],[6.03855,50.43559],[6.03865,50.43584],[6.03859,50.43601],[6.03844,50.43607],[6.03811,50.43604]],[[5.98186,50.43454],[5.98167,50.43445],[5.98126,50.434],[5.98126,50.43387],[5.9814,50.43366],[5.98186,50.4337],[5.98233,50.43394],[5.98243,50.43408],[5.98248,50.43432],[5.98237,50.43452],[5.98186,50.43454]],[[6.01144,50.43247],[6.01133,50.43226],[6.01145,50.43201],[6.01173,50.43226],[6.01144,50.43247]],[[6.01186,50.43187],[6.01165,50.43145],[6.01102,50.43134],[6.01067,50.43113],[6.01049,50.43087],[6.01057,50.43051],[6.01093,50.43072],[6.01136,50.43081],[6.01339,50.43041],[6.01368,50.43054],[6.01366,50.43067],[6.01273,50.43117],[6.012,50.43168],[6.01186,50.43187]],[[6.05686,50.431],[6.05637,50.43075],[6.0556,50.43007],[6.05437,50.42938],[6.05369,50.42873],[6.05319,50.42791],[6.0535,50.42778],[6.05422,50.42778],[6.05447,50.42783],[6.05467,50.42812],[6.05479,50.42818],[6.056,50.42834],[6.05686,50.42832]],[[6.01019,50.43048],[6.00949,50.4302],[6.00848,50.43007],[6.00897,50.42997],[6.00936,50.42979],[6.00975,50.42984],[6.01023,50.43003],[6.01043,50.43022],[6.01044,50.43036],[6.01019,50.43048]],[[6.02686,50.41091],[6.02669,50.41062],[6.0272,50.41046],[6.02834,50.41044],[6.02854,50.41049],[6.02865,50.4106],[6.02851,50.41071],[6.02798,50.41083],[6.02686,50.41091]],[[6.02853,50.40996],[6.02769,50.40951],[6.02682,50.40925],[6.02662,50.40894],[6.02619,50.40869],[6.02735,50.40859],[6.02806,50.40838],[6.03069,50.40807],[6.03109,50.40808],[6.03128,50.40828],[6.03132,50.40852],[6.03105,50.40924],[6.03031,50.40926],[6.02932,50.40948],[6.02898,50.40988],[6.02853,50.40996]],[[6.02686,50.40785],[6.02693,50.40784],[6.02686,50.40785]],[[6.03394,50.40789],[6.03382,50.40785],[6.03387,50.40776],[6.03433,50.40745],[6.03441,50.40748],[6.03443,50.40786],[6.03394,50.40789]],[[6.02728,50.40773],[6.02712,50.40757],[6.02813,50.40753],[6.0289,50.40725],[6.02909,50.4073],[6.02943,50.40756],[6.02892,50.40767],[6.02787,50.40759],[6.02728,50.40773]],[[6.03561,50.40706],[6.03549,50.407],[6.03562,50.40695],[6.03561,50.40706]],[[6.02728,50.40622],[6.02709,50.40616],[6.02724,50.40601],[6.02793,50.40608],[6.02812,50.40603],[6.02821,50.40591],[6.0272,50.40581],[6.02664,50.40562],[6.02724,50.40534],[6.02834,50.4052],[6.02978,50.40552],[6.03019,50.4059],[6.03026,50.40614],[6.03013,50.40622],[6.02728,50.40622]],[[6.05686,50.40217],[6.05527,50.40189],[6.05366,50.4015],[6.05279,50.40151],[6.05214,50.40137],[6.04866,50.40165],[6.04633,50.40155],[6.04559,50.40118],[6.04539,50.40092],[6.04535,50.40061],[6.04525,50.40046],[6.04476,50.40039],[6.04463,50.39974],[6.04396,50.399],[6.04349,50.39882],[6.0431,50.39849],[6.04261,50.39825],[6.04225,50.39784],[6.04248,50.39733],[6.0432,50.39687],[6.04399,50.39668],[6.04518,50.39617],[6.04562,50.39618],[6.04735,50.3957],[6.04909,50.39536],[6.04981,50.39512],[6.05002,50.39488],[6.04999,50.39476],[6.04835,50.39376],[6.04825,50.39359],[6.04844,50.39335],[6.04945,50.39316],[6.04972,50.39279],[6.05038,50.39248],[6.05049,50.39234],[6.05047,50.3922],[6.05015,50.39189],[6.04885,50.39118],[6.04858,50.39085],[6.04827,50.39011],[6.04778,50.38978],[6.04725,50.38977],[6.0469,50.39011],[6.04637,50.39003],[6.04582,50.38946],[6.04602,50.3884],[6.04658,50.38837],[6.04852,50.38897],[6.04933,50.389],[6.04939,50.38894],[6.04891,50.38839],[6.04915,50.38813],[6.04977,50.38782],[6.05023,50.38778],[6.05098,50.38826],[6.05139,50.3883],[6.05163,50.3881],[6.05186,50.38757],[6.05225,50.38724],[6.05307,50.38721],[6.05353,50.38731],[6.05437,50.38714],[6.05463,50.38704],[6.05476,50.38673],[6.05519,50.38646],[6.05626,50.38624],[6.05652,50.38626],[6.05686,50.38644]],[[6.03853,50.39675],[6.03836,50.39647],[6.0385,50.39618],[6.03901,50.39643],[6.03892,50.39659],[6.03853,50.39675]],[[5.96479,50.36896],[5.96433,50.36922],[5.96417,50.36955],[5.96347,50.36978],[5.96333,50.37019],[5.963,50.37063],[5.96287,50.37127],[5.96262,50.37171],[5.96312,50.37209],[5.96447,50.37228],[5.96459,50.37258],[5.96445,50.37294],[5.96425,50.37315],[5.96366,50.37345],[5.96144,50.37368],[5.96123,50.37392],[5.96132,50.37402],[5.96256,50.37445],[5.96303,50.37448],[5.96381,50.37434],[5.96398,50.37441],[5.96399,50.37453],[5.96366,50.37463],[5.96277,50.37457],[5.96201,50.37479],[5.96316,50.37507],[5.96336,50.37529],[5.96326,50.37557],[5.9633,50.37567],[5.96406,50.3759],[5.96389,50.37606],[5.96299,50.3762],[5.9632,50.37644],[5.96434,50.37732],[5.96442,50.37755],[5.96436,50.37812],[5.96419,50.3784],[5.96313,50.37872],[5.96183,50.37884],[5.96122,50.3787],[5.96071,50.37832],[5.96043,50.37824],[5.95996,50.37824],[5.95928,50.37835],[5.95782,50.37821],[5.95657,50.37825],[5.95519,50.37802]],[[5.96478,50.37681],[5.96429,50.37651],[5.9643,50.37636],[5.96449,50.37631],[5.96485,50.37634],[5.96531,50.37644],[5.96542,50.37655],[5.96538,50.37675],[5.96478,50.37681]],[[5.96394,50.37508],[5.9638,50.37507],[5.96394,50.37508]],[[5.99082,50.36896],[5.99101,50.36925],[5.99126,50.36943],[5.99129,50.36957],[5.99039,50.37032],[5.99034,50.37064],[5.98809,50.37089],[5.98767,50.37116],[5.98735,50.37147],[5.98731,50.37203],[5.98758,50.37306],[5.98852,50.37429],[5.98853,50.37451],[5.98761,50.37474],[5.98638,50.37463],[5.98547,50.3741],[5.98444,50.3738],[5.9836,50.37377],[5.98187,50.37401],[5.98069,50.37375],[5.97971,50.37371],[5.97889,50.37304],[5.97782,50.373],[5.97718,50.37281],[5.97637,50.37286],[5.97602,50.37257],[5.97525,50.37227],[5.97497,50.372],[5.97393,50.37203],[5.97326,50.37154],[5.97309,50.37115],[5.97171,50.37064],[5.97028,50.37029],[5.96924,50.36956],[5.9692,50.36896]],[[6.00103,50.37343],[6.00088,50.37304],[6.00098,50.37282],[6.00116,50.37274],[6.00157,50.37266],[6.00228,50.37274],[6.0026,50.37254],[6.00303,50.37243],[6.00334,50.37249],[6.00349,50.37262],[6.00345,50.37281],[6.00327,50.37292],[6.00277,50.37303],[6.00231,50.37301],[6.00147,50.37349],[6.00103,50.37343]],[[5.96478,50.3701],[5.96444,50.37001],[5.9643,50.36983],[5.96434,50.36968],[5.96506,50.36962],[5.96533,50.36974],[5.96533,50.36988],[5.96518,50.37006],[5.96478,50.3701]],[[6.00353,50.36991],[6.00323,50.36972],[6.00311,50.36946],[6.00339,50.36938],[6.00357,50.36942],[6.00362,50.3697],[6.00353,50.36991]],[[6.00606,50.36896],[6.00626,50.36915],[6.00628,50.36927],[6.00584,50.36942],[6.00529,50.36932],[6.00475,50.36904],[6.00411,50.36896]]]}},{"type":"Feature","properties":{"ele":550},"geometry":{"type":"MultiLineString","coordinates":[[[6.05686,50.39183],[6.05663,50.39176],[6.05654,50.39164],[6.05663,50.39123],[6.05686,50.39098]],[[5.98098,50.36896],[5.98089,50.36921],[5.98048,50.36926],[5.97989,50.36922],[5.97965,50.36896]],[[5.98353,50.36927],[5.98342,50.36922],[5.98354,50.36913],[5.98365,50.36923],[5.98353,50.36927]]]}}]}