<?xml version="1.0" encoding="UTF-8" standalone="no"?>
<gpx xmlns="http://www.topografix.com/GPX/1/1" xmlns:xsi="http://www.w3.org/2001/XMLSchema-instance" creator="Geolives" version="1.1" xsi:schemaLocation="http://www.topografix.com/GPX/1/1 http://www.topografix.com/GPX/1/1/gpx.xsd">
<metadata>
<name><![CDATA[SityTrail - Malmedy_bleu]]></name>
<desc/>
</metadata>
<trk>
<name><![CDATA[SityTrail - Malmedy_bleu]]></name>
<desc/>
<trkseg>
<trkpt lat="50.426714" lon="6.027409">
<ele>341.0</ele>
</trkpt>
<trkpt lat="50.426507" lon="6.028224">
<ele>341.0</ele>
</trkpt>
<trkpt lat="50.426739" lon="6.028342">
<ele>345.0</ele>
</trkpt>
<trkpt lat="50.427259" lon="6.028363">
<ele>354.0</ele>
</trkpt>
<trkpt lat="50.427474" lon="6.028199">
<ele>357.0</ele>
</trkpt>
<trkpt lat="50.427641" lon="6.02769">
<ele>345.0</ele>
</trkpt>
<trkpt lat="50.427926" lon="6.027569">
<ele>339.0</ele>
</trkpt>
<trkpt lat="50.428058" lon="6.027453">
<ele>339.0</ele>
</trkpt>
<trkpt lat="50.4283" lon="6.026922">
<ele>335.0</ele>
</trkpt>
<trkpt lat="50.428439" lon="6.02661">
<ele>334.0</ele>
</trkpt>
<trkpt lat="50.428158" lon="6.026056">
<ele>334.0</ele>
</trkpt>
<trkpt lat="50.428185" lon="6.025676">
<ele>334.0</ele>
</trkpt>
<trkpt lat="50.428056" lon="6.025442">
<ele>334.0</ele>
</trkpt>
<trkpt lat="50.428232" lon="6.025067">
<ele>334.0</ele>
</trkpt>
<trkpt lat="50.428464" lon="6.024603">
<ele>334.0</ele>
</trkpt>
<trkpt lat="50.428469" lon="6.024591">
<ele>334.0</ele>
</trkpt>
<trkpt lat="50.428469" lon="6.024591">
<ele>334.0</ele>
</trkpt>
<trkpt lat="50.42848" lon="6.024571">
<ele>335.0</ele>
</trkpt>
<trkpt lat="50.428628" lon="6.024177">
<ele>338.0</ele>
</trkpt>
<trkpt lat="50.42869" lon="6.024008">
<ele>333.0</ele>
</trkpt>
<trkpt lat="50.428702" lon="6.023979">
<ele>333.0</ele>
</trkpt>
<trkpt lat="50.428778" lon="6.023636">
<ele>346.0</ele>
</trkpt>
<trkpt lat="50.428833" lon="6.023356">
<ele>344.0</ele>
</trkpt>
<trkpt lat="50.428942" lon="6.022983">
<ele>351.0</ele>
</trkpt>
<trkpt lat="50.42905" lon="6.022609">
<ele>360.0</ele>
</trkpt>
<trkpt lat="50.429076" lon="6.022521">
<ele>360.0</ele>
</trkpt>
<trkpt lat="50.429316" lon="6.022173">
<ele>366.0</ele>
</trkpt>
<trkpt lat="50.429433" lon="6.022062">
<ele>365.0</ele>
</trkpt>
<trkpt lat="50.42976" lon="6.021749">
<ele>367.0</ele>
</trkpt>
<trkpt lat="50.42996" lon="6.021559">
<ele>376.0</ele>
</trkpt>
<trkpt lat="50.43016" lon="6.021369">
<ele>385.0</ele>
</trkpt>
<trkpt lat="50.430255" lon="6.021196">
<ele>381.0</ele>
</trkpt>
<trkpt lat="50.430278" lon="6.021155">
<ele>381.0</ele>
</trkpt>
<trkpt lat="50.430278" lon="6.021155">
<ele>381.0</ele>
</trkpt>
<trkpt lat="50.430314" lon="6.020885">
<ele>383.0</ele>
</trkpt>
<trkpt lat="50.430251" lon="6.02048">
<ele>379.0</ele>
</trkpt>
<trkpt lat="50.430324" lon="6.020107">
<ele>388.0</ele>
</trkpt>
<trkpt lat="50.430475" lon="6.019894">
<ele>390.0</ele>
</trkpt>
<trkpt lat="50.430576" lon="6.019584">
<ele>396.0</ele>
</trkpt>
<trkpt lat="50.430682" lon="6.019099">
<ele>401.0</ele>
</trkpt>
<trkpt lat="50.430788" lon="6.018618">
<ele>408.0</ele>
</trkpt>
<trkpt lat="50.430893" lon="6.018135">
<ele>415.0</ele>
</trkpt>
<trkpt lat="50.430991" lon="6.017688">
<ele>420.0</ele>
</trkpt>
<trkpt lat="50.430768" lon="6.017561">
<ele>429.0</ele>
</trkpt>
<trkpt lat="50.430458" lon="6.017585">
<ele>428.0</ele>
</trkpt>
<trkpt lat="50.430205" lon="6.017706">
<ele>423.0</ele>
</trkpt>
<trkpt lat="50.429907" lon="6.017645">
<ele>426.0</ele>
</trkpt>
<trkpt lat="50.429803" lon="6.017645">
<ele>429.0</ele>
</trkpt>
<trkpt lat="50.429495" lon="6.017837">
<ele>434.0</ele>
</trkpt>
<trkpt lat="50.429321" lon="6.018016">
<ele>432.0</ele>
</trkpt>
<trkpt lat="50.429073" lon="6.018041">
<ele>437.0</ele>
</trkpt>
<trkpt lat="50.428858" lon="6.01771">
<ele>445.0</ele>
</trkpt>
<trkpt lat="50.428862" lon="6.017673">
<ele>445.0</ele>
</trkpt>
<trkpt lat="50.428866" lon="6.017624">
<ele>445.0</ele>
</trkpt>
<trkpt lat="50.428899" lon="6.017538">
<ele>445.0</ele>
</trkpt>
<trkpt lat="50.428899" lon="6.017538">
<ele>445.0</ele>
</trkpt>
<trkpt lat="50.429051" lon="6.017137">
<ele>453.0</ele>
</trkpt>
<trkpt lat="50.429202" lon="6.016736">
<ele>461.0</ele>
</trkpt>
<trkpt lat="50.429303" lon="6.016393">
<ele>457.0</ele>
</trkpt>
<trkpt lat="50.42945" lon="6.016049">
<ele>463.0</ele>
</trkpt>
<trkpt lat="50.429644" lon="6.01588">
<ele>468.0</ele>
</trkpt>
<trkpt lat="50.429718" lon="6.015858">
<ele>468.0</ele>
</trkpt>
<trkpt lat="50.429867" lon="6.015622">
<ele>475.0</ele>
</trkpt>
<trkpt lat="50.430016" lon="6.015462">
<ele>475.0</ele>
</trkpt>
<trkpt lat="50.430291" lon="6.015274">
<ele>480.0</ele>
</trkpt>
<trkpt lat="50.430453" lon="6.015166">
<ele>480.0</ele>
</trkpt>
<trkpt lat="50.430571" lon="6.014975">
<ele>484.0</ele>
</trkpt>
<trkpt lat="50.430569" lon="6.014765">
<ele>485.0</ele>
</trkpt>
<trkpt lat="50.43064" lon="6.014398">
<ele>491.0</ele>
</trkpt>
<trkpt lat="50.43071" lon="6.014032">
<ele>489.0</ele>
</trkpt>
<trkpt lat="50.430731" lon="6.013835">
<ele>490.0</ele>
</trkpt>
<trkpt lat="50.430784" lon="6.013431">
<ele>496.0</ele>
</trkpt>
<trkpt lat="50.430848" lon="6.013245">
<ele>496.0</ele>
</trkpt>
<trkpt lat="50.430932" lon="6.012933">
<ele>496.0</ele>
</trkpt>
<trkpt lat="50.430978" lon="6.012764">
<ele>500.0</ele>
</trkpt>
<trkpt lat="50.430978" lon="6.012764">
<ele>500.0</ele>
</trkpt>
<trkpt lat="50.430878" lon="6.012712">
<ele>500.0</ele>
</trkpt>
<trkpt lat="50.430875" lon="6.012475">
<ele>497.0</ele>
</trkpt>
<trkpt lat="50.430944" lon="6.012217">
<ele>499.0</ele>
</trkpt>
<trkpt lat="50.431075" lon="6.012007">
<ele>499.0</ele>
</trkpt>
<trkpt lat="50.431181" lon="6.011781">
<ele>500.0</ele>
</trkpt>
<trkpt lat="50.431248" lon="6.011608">
<ele>500.0</ele>
</trkpt>
<trkpt lat="50.431268" lon="6.011294">
<ele>498.0</ele>
</trkpt>
<trkpt lat="50.431193" lon="6.01104">
<ele>497.0</ele>
</trkpt>
<trkpt lat="50.430971" lon="6.010675">
<ele>496.0</ele>
</trkpt>
<trkpt lat="50.430747" lon="6.010437">
<ele>496.0</ele>
</trkpt>
<trkpt lat="50.430523" lon="6.010197">
<ele>493.0</ele>
</trkpt>
<trkpt lat="50.430274" lon="6.009743">
<ele>493.0</ele>
</trkpt>
<trkpt lat="50.429946" lon="6.009285">
<ele>491.0</ele>
</trkpt>
<trkpt lat="50.429655" lon="6.009083">
<ele>489.0</ele>
</trkpt>
<trkpt lat="50.429365" lon="6.008878">
<ele>485.0</ele>
</trkpt>
<trkpt lat="50.428967" lon="6.008778">
<ele>481.0</ele>
</trkpt>
<trkpt lat="50.428568" lon="6.008676">
<ele>477.0</ele>
</trkpt>
<trkpt lat="50.428232" lon="6.008587">
<ele>475.0</ele>
</trkpt>
<trkpt lat="50.427895" lon="6.008499">
<ele>472.0</ele>
</trkpt>
<trkpt lat="50.427574" lon="6.008336">
<ele>471.0</ele>
</trkpt>
<trkpt lat="50.427253" lon="6.008176">
<ele>469.0</ele>
</trkpt>
<trkpt lat="50.426996" lon="6.008037">
<ele>470.0</ele>
</trkpt>
<trkpt lat="50.42674" lon="6.007898">
<ele>467.0</ele>
</trkpt>
<trkpt lat="50.426645" lon="6.00787">
<ele>467.0</ele>
</trkpt>
<trkpt lat="50.426475" lon="6.00782">
<ele>468.0</ele>
</trkpt>
<trkpt lat="50.42621" lon="6.007742">
<ele>465.0</ele>
</trkpt>
<trkpt lat="50.425838" lon="6.007726">
<ele>463.0</ele>
</trkpt>
<trkpt lat="50.425476" lon="6.007673">
<ele>462.0</ele>
</trkpt>
<trkpt lat="50.42523" lon="6.007501">
<ele>460.0</ele>
</trkpt>
<trkpt lat="50.424984" lon="6.007329">
<ele>458.0</ele>
</trkpt>
<trkpt lat="50.424816" lon="6.007378">
<ele>457.0</ele>
</trkpt>
<trkpt lat="50.424589" lon="6.007351">
<ele>453.0</ele>
</trkpt>
<trkpt lat="50.424362" lon="6.007329">
<ele>450.0</ele>
</trkpt>
<trkpt lat="50.42415" lon="6.007198">
<ele>449.0</ele>
</trkpt>
<trkpt lat="50.424095" lon="6.007162">
<ele>449.0</ele>
</trkpt>
<trkpt lat="50.423938" lon="6.007066">
<ele>445.0</ele>
</trkpt>
<trkpt lat="50.423753" lon="6.006747">
<ele>446.0</ele>
</trkpt>
<trkpt lat="50.423569" lon="6.006428">
<ele>441.0</ele>
</trkpt>
<trkpt lat="50.423471" lon="6.005924">
<ele>433.0</ele>
</trkpt>
<trkpt lat="50.423374" lon="6.005418">
<ele>432.0</ele>
</trkpt>
<trkpt lat="50.423266" lon="6.004973">
<ele>426.0</ele>
</trkpt>
<trkpt lat="50.423158" lon="6.004529">
<ele>423.0</ele>
</trkpt>
<trkpt lat="50.423005" lon="6.00412">
<ele>421.0</ele>
</trkpt>
<trkpt lat="50.422704" lon="6.003696">
<ele>420.0</ele>
</trkpt>
<trkpt lat="50.422403" lon="6.003274">
<ele>418.0</ele>
</trkpt>
<trkpt lat="50.422154" lon="6.002837">
<ele>413.0</ele>
</trkpt>
<trkpt lat="50.421904" lon="6.002404">
<ele>406.0</ele>
</trkpt>
<trkpt lat="50.421697" lon="6.002022">
<ele>401.0</ele>
</trkpt>
<trkpt lat="50.421489" lon="6.001639">
<ele>395.0</ele>
</trkpt>
<trkpt lat="50.421282" lon="6.001257">
<ele>396.0</ele>
</trkpt>
<trkpt lat="50.421002" lon="6.00086">
<ele>394.0</ele>
</trkpt>
<trkpt lat="50.420722" lon="6.000467">
<ele>389.0</ele>
</trkpt>
<trkpt lat="50.420355" lon="6.000096">
<ele>382.0</ele>
</trkpt>
<trkpt lat="50.419988" lon="5.999728">
<ele>381.0</ele>
</trkpt>
<trkpt lat="50.419988" lon="5.999728">
<ele>381.0</ele>
</trkpt>
<trkpt lat="50.419942" lon="5.999688">
<ele>381.0</ele>
</trkpt>
<trkpt lat="50.419695" lon="5.999395">
<ele>378.0</ele>
</trkpt>
<trkpt lat="50.419674" lon="5.999369">
<ele>378.0</ele>
</trkpt>
<trkpt lat="50.419695" lon="5.999395">
<ele>378.0</ele>
</trkpt>
<trkpt lat="50.419695" lon="5.999395">
<ele>378.0</ele>
</trkpt>
<trkpt lat="50.419706" lon="5.999152">
<ele>377.0</ele>
</trkpt>
<trkpt lat="50.419829" lon="5.998695">
<ele>379.0</ele>
</trkpt>
<trkpt lat="50.419952" lon="5.99824">
<ele>379.0</ele>
</trkpt>
<trkpt lat="50.420214" lon="5.998313">
<ele>380.0</ele>
</trkpt>
<trkpt lat="50.420233" lon="5.998318">
<ele>380.0</ele>
</trkpt>
<trkpt lat="50.420297" lon="5.997902">
<ele>372.0</ele>
</trkpt>
<trkpt lat="50.420113" lon="5.997621">
<ele>370.0</ele>
</trkpt>
<trkpt lat="50.419887" lon="5.997194">
<ele>368.0</ele>
</trkpt>
<trkpt lat="50.418971" lon="5.995531">
<ele>368.0</ele>
</trkpt>
<trkpt lat="50.418452" lon="5.994405">
<ele>366.0</ele>
</trkpt>
<trkpt lat="50.417884" lon="5.993321">
<ele>357.0</ele>
</trkpt>
<trkpt lat="50.416872" lon="5.990843">
<ele>350.0</ele>
</trkpt>
<trkpt lat="50.415601" lon="5.987742">
<ele>346.0</ele>
</trkpt>
<trkpt lat="50.414821" lon="5.985153">
<ele>341.0</ele>
</trkpt>
<trkpt lat="50.41481" lon="5.985146">
<ele>341.0</ele>
</trkpt>
<trkpt lat="50.414773" lon="5.985114">
<ele>340.0</ele>
</trkpt>
<trkpt lat="50.414732" lon="5.985026">
<ele>340.0</ele>
</trkpt>
<trkpt lat="50.414634" lon="5.984641">
<ele>339.0</ele>
</trkpt>
<trkpt lat="50.41461" lon="5.984587">
<ele>339.0</ele>
</trkpt>
<trkpt lat="50.414567" lon="5.984531">
<ele>339.0</ele>
</trkpt>
<trkpt lat="50.414528" lon="5.98451">
<ele>339.0</ele>
</trkpt>
<trkpt lat="50.414476" lon="5.984509">
<ele>339.0</ele>
</trkpt>
<trkpt lat="50.41442" lon="5.984539">
<ele>339.0</ele>
</trkpt>
<trkpt lat="50.414288" lon="5.98464">
<ele>345.0</ele>
</trkpt>
<trkpt lat="50.414288" lon="5.98464">
<ele>345.0</ele>
</trkpt>
<trkpt lat="50.41429" lon="5.984645">
<ele>345.0</ele>
</trkpt>
<trkpt lat="50.414247" lon="5.984736">
<ele>345.0</ele>
</trkpt>
<trkpt lat="50.414477" lon="5.985476">
<ele>346.0</ele>
</trkpt>
<trkpt lat="50.414457" lon="5.9855">
<ele>346.0</ele>
</trkpt>
<trkpt lat="50.414247" lon="5.98583">
<ele>348.0</ele>
</trkpt>
<trkpt lat="50.414247" lon="5.98583">
<ele>348.0</ele>
</trkpt>
<trkpt lat="50.414073" lon="5.986031">
<ele>347.0</ele>
</trkpt>
<trkpt lat="50.413806" lon="5.986151">
<ele>350.0</ele>
</trkpt>
<trkpt lat="50.413463" lon="5.986286">
<ele>358.0</ele>
</trkpt>
<trkpt lat="50.413138" lon="5.986411">
<ele>363.0</ele>
</trkpt>
<trkpt lat="50.413119" lon="5.986419">
<ele>363.0</ele>
</trkpt>
<trkpt lat="50.412959" lon="5.98616">
<ele>364.0</ele>
</trkpt>
<trkpt lat="50.412733" lon="5.98603">
<ele>371.0</ele>
</trkpt>
<trkpt lat="50.412451" lon="5.986052">
<ele>377.0</ele>
</trkpt>
<trkpt lat="50.412093" lon="5.986104">
<ele>382.0</ele>
</trkpt>
<trkpt lat="50.411736" lon="5.986153">
<ele>392.0</ele>
</trkpt>
<trkpt lat="50.411447" lon="5.986355">
<ele>400.0</ele>
</trkpt>
<trkpt lat="50.411319" lon="5.986691">
<ele>402.0</ele>
</trkpt>
<trkpt lat="50.411191" lon="5.987028">
<ele>407.0</ele>
</trkpt>
<trkpt lat="50.41104" lon="5.987436">
<ele>407.0</ele>
</trkpt>
<trkpt lat="50.410888" lon="5.987843">
<ele>409.0</ele>
</trkpt>
<trkpt lat="50.41063" lon="5.987939">
<ele>410.0</ele>
</trkpt>
<trkpt lat="50.410372" lon="5.988036">
<ele>412.0</ele>
</trkpt>
<trkpt lat="50.410372" lon="5.988036">
<ele>412.0</ele>
</trkpt>
<trkpt lat="50.410435" lon="5.988049">
<ele>410.0</ele>
</trkpt>
<trkpt lat="50.410372" lon="5.988036">
<ele>412.0</ele>
</trkpt>
<trkpt lat="50.410372" lon="5.988036">
<ele>412.0</ele>
</trkpt>
<trkpt lat="50.409955" lon="5.987962">
<ele>413.0</ele>
</trkpt>
<trkpt lat="50.409698" lon="5.987914">
<ele>417.0</ele>
</trkpt>
<trkpt lat="50.40944" lon="5.987867">
<ele>418.0</ele>
</trkpt>
<trkpt lat="50.409324" lon="5.987804">
<ele>418.0</ele>
</trkpt>
<trkpt lat="50.409318" lon="5.987797">
<ele>418.0</ele>
</trkpt>
<trkpt lat="50.409218" lon="5.987674">
<ele>416.0</ele>
</trkpt>
<trkpt lat="50.409218" lon="5.987674">
<ele>416.0</ele>
</trkpt>
<trkpt lat="50.409172" lon="5.987749">
<ele>416.0</ele>
</trkpt>
<trkpt lat="50.409079" lon="5.987836">
<ele>416.0</ele>
</trkpt>
<trkpt lat="50.408938" lon="5.987849">
<ele>417.0</ele>
</trkpt>
<trkpt lat="50.408761" lon="5.987781">
<ele>417.0</ele>
</trkpt>
<trkpt lat="50.408377" lon="5.987437">
<ele>423.0</ele>
</trkpt>
<trkpt lat="50.407992" lon="5.987094">
<ele>425.0</ele>
</trkpt>
<trkpt lat="50.407946" lon="5.987053">
<ele>426.0</ele>
</trkpt>
<trkpt lat="50.407608" lon="5.986751">
<ele>432.0</ele>
</trkpt>
<trkpt lat="50.407224" lon="5.986406">
<ele>431.0</ele>
</trkpt>
<trkpt lat="50.40684" lon="5.986065">
<ele>433.0</ele>
</trkpt>
<trkpt lat="50.406455" lon="5.985722">
<ele>432.0</ele>
</trkpt>
<trkpt lat="50.406071" lon="5.985377">
<ele>432.0</ele>
</trkpt>
<trkpt lat="50.405687" lon="5.985036">
<ele>430.0</ele>
</trkpt>
<trkpt lat="50.405303" lon="5.984691">
<ele>427.0</ele>
</trkpt>
<trkpt lat="50.404918" lon="5.984349">
<ele>426.0</ele>
</trkpt>
<trkpt lat="50.404534" lon="5.984007">
<ele>425.0</ele>
</trkpt>
<trkpt lat="50.40428" lon="5.983881">
<ele>426.0</ele>
</trkpt>
<trkpt lat="50.404236" lon="5.98386">
<ele>426.0</ele>
</trkpt>
<trkpt lat="50.404236" lon="5.98386">
<ele>426.0</ele>
</trkpt>
<trkpt lat="50.404276" lon="5.98424">
<ele>427.0</ele>
</trkpt>
<trkpt lat="50.404377" lon="5.984825">
<ele>427.0</ele>
</trkpt>
<trkpt lat="50.404587" lon="5.985377">
<ele>427.0</ele>
</trkpt>
<trkpt lat="50.404718" lon="5.985746">
<ele>426.0</ele>
</trkpt>
<trkpt lat="50.404808" lon="5.986108">
<ele>424.0</ele>
</trkpt>
<trkpt lat="50.404839" lon="5.986367">
<ele>423.0</ele>
</trkpt>
<trkpt lat="50.40489" lon="5.986789">
<ele>422.0</ele>
</trkpt>
<trkpt lat="50.404942" lon="5.987209">
<ele>423.0</ele>
</trkpt>
<trkpt lat="50.404955" lon="5.987335">
<ele>423.0</ele>
</trkpt>
<trkpt lat="50.404922" lon="5.987333">
<ele>423.0</ele>
</trkpt>
<trkpt lat="50.404863" lon="5.987329">
<ele>423.0</ele>
</trkpt>
<trkpt lat="50.404749" lon="5.987226">
<ele>424.0</ele>
</trkpt>
<trkpt lat="50.404623" lon="5.98711">
<ele>424.0</ele>
</trkpt>
<trkpt lat="50.404343" lon="5.986952">
<ele>423.0</ele>
</trkpt>
<trkpt lat="50.404343" lon="5.986952">
<ele>423.0</ele>
</trkpt>
<trkpt lat="50.40413" lon="5.986799">
<ele>422.0</ele>
</trkpt>
<trkpt lat="50.403758" lon="5.986617">
<ele>421.0</ele>
</trkpt>
<trkpt lat="50.403361" lon="5.986429">
<ele>420.0</ele>
</trkpt>
<trkpt lat="50.403098" lon="5.986368">
<ele>420.0</ele>
</trkpt>
<trkpt lat="50.402834" lon="5.986311">
<ele>420.0</ele>
</trkpt>
<trkpt lat="50.402597" lon="5.986231">
<ele>420.0</ele>
</trkpt>
<trkpt lat="50.402359" lon="5.986155">
<ele>422.0</ele>
</trkpt>
<trkpt lat="50.402082" lon="5.986126">
<ele>424.0</ele>
</trkpt>
<trkpt lat="50.401805" lon="5.986094">
<ele>424.0</ele>
</trkpt>
<trkpt lat="50.401498" lon="5.985907">
<ele>420.0</ele>
</trkpt>
<trkpt lat="50.401207" lon="5.985903">
<ele>419.0</ele>
</trkpt>
<trkpt lat="50.400886" lon="5.985816">
<ele>418.0</ele>
</trkpt>
<trkpt lat="50.400644" lon="5.985811">
<ele>416.0</ele>
</trkpt>
<trkpt lat="50.400349" lon="5.985907">
<ele>414.0</ele>
</trkpt>
<trkpt lat="50.400164" lon="5.985924">
<ele>414.0</ele>
</trkpt>
<trkpt lat="50.400065" lon="5.986075">
<ele>415.0</ele>
</trkpt>
<trkpt lat="50.400017" lon="5.98632">
<ele>416.0</ele>
</trkpt>
<trkpt lat="50.400017" lon="5.98632">
<ele>416.0</ele>
</trkpt>
<trkpt lat="50.399983" lon="5.986622">
<ele>417.0</ele>
</trkpt>
<trkpt lat="50.400027" lon="5.986947">
<ele>414.0</ele>
</trkpt>
<trkpt lat="50.400126" lon="5.987384">
<ele>403.0</ele>
</trkpt>
<trkpt lat="50.400205" lon="5.987618">
<ele>407.0</ele>
</trkpt>
<trkpt lat="50.400294" lon="5.987706">
<ele>402.0</ele>
</trkpt>
<trkpt lat="50.400376" lon="5.987926">
<ele>394.0</ele>
</trkpt>
<trkpt lat="50.400366" lon="5.98816">
<ele>394.0</ele>
</trkpt>
<trkpt lat="50.4004" lon="5.988347">
<ele>388.0</ele>
</trkpt>
<trkpt lat="50.4004" lon="5.988347">
<ele>388.0</ele>
</trkpt>
<trkpt lat="50.400294" lon="5.988546">
<ele>381.0</ele>
</trkpt>
<trkpt lat="50.400223" lon="5.988527">
<ele>381.0</ele>
</trkpt>
<trkpt lat="50.400692" lon="5.990401">
<ele>343.0</ele>
</trkpt>
<trkpt lat="50.400209" lon="5.990267">
<ele>339.0</ele>
</trkpt>
<trkpt lat="50.399463" lon="5.989933">
<ele>339.0</ele>
</trkpt>
<trkpt lat="50.399463" lon="5.989933">
<ele>339.0</ele>
</trkpt>
<trkpt lat="50.399162" lon="5.989706">
<ele>341.0</ele>
</trkpt>
<trkpt lat="50.398861" lon="5.989477">
<ele>341.0</ele>
</trkpt>
<trkpt lat="50.39851" lon="5.989187">
<ele>343.0</ele>
</trkpt>
<trkpt lat="50.398206" lon="5.988926">
<ele>345.0</ele>
</trkpt>
<trkpt lat="50.398095" lon="5.988748">
<ele>344.0</ele>
</trkpt>
<trkpt lat="50.398046" lon="5.988587">
<ele>344.0</ele>
</trkpt>
<trkpt lat="50.39795" lon="5.988178">
<ele>349.0</ele>
</trkpt>
<trkpt lat="50.397908" lon="5.988041">
<ele>345.0</ele>
</trkpt>
<trkpt lat="50.39777" lon="5.987734">
<ele>346.0</ele>
</trkpt>
<trkpt lat="50.397579" lon="5.987396">
<ele>347.0</ele>
</trkpt>
<trkpt lat="50.397536" lon="5.987293">
<ele>350.0</ele>
</trkpt>
<trkpt lat="50.397454" lon="5.986991">
<ele>353.0</ele>
</trkpt>
<trkpt lat="50.397435" lon="5.986781">
<ele>357.0</ele>
</trkpt>
<trkpt lat="50.397512" lon="5.98668">
<ele>357.0</ele>
</trkpt>
<trkpt lat="50.397465" lon="5.98659">
<ele>357.0</ele>
</trkpt>
<trkpt lat="50.397447" lon="5.986556">
<ele>357.0</ele>
</trkpt>
<trkpt lat="50.397399" lon="5.986491">
<ele>360.0</ele>
</trkpt>
<trkpt lat="50.397399" lon="5.986491">
<ele>360.0</ele>
</trkpt>
<trkpt lat="50.397328" lon="5.986149">
<ele>363.0</ele>
</trkpt>
<trkpt lat="50.397296" lon="5.986122">
<ele>363.0</ele>
</trkpt>
<trkpt lat="50.397017" lon="5.985885">
<ele>364.0</ele>
</trkpt>
<trkpt lat="50.396754" lon="5.985623">
<ele>367.0</ele>
</trkpt>
<trkpt lat="50.396742" lon="5.985572">
<ele>367.0</ele>
</trkpt>
<trkpt lat="50.396569" lon="5.984146">
<ele>379.0</ele>
</trkpt>
<trkpt lat="50.396572" lon="5.98398">
<ele>382.0</ele>
</trkpt>
<trkpt lat="50.3966" lon="5.983754">
<ele>382.0</ele>
</trkpt>
<trkpt lat="50.3966" lon="5.983754">
<ele>382.0</ele>
</trkpt>
<trkpt lat="50.396463" lon="5.983669">
<ele>381.0</ele>
</trkpt>
<trkpt lat="50.396227" lon="5.983559">
<ele>379.0</ele>
</trkpt>
<trkpt lat="50.396097" lon="5.98353">
<ele>379.0</ele>
</trkpt>
<trkpt lat="50.39591" lon="5.983492">
<ele>377.0</ele>
</trkpt>
<trkpt lat="50.395594" lon="5.983427">
<ele>377.0</ele>
</trkpt>
<trkpt lat="50.395263" lon="5.983408">
<ele>375.0</ele>
</trkpt>
<trkpt lat="50.394932" lon="5.983389">
<ele>374.0</ele>
</trkpt>
<trkpt lat="50.394628" lon="5.983385">
<ele>374.0</ele>
</trkpt>
<trkpt lat="50.394324" lon="5.983384">
<ele>372.0</ele>
</trkpt>
<trkpt lat="50.394324" lon="5.983384">
<ele>372.0</ele>
</trkpt>
<trkpt lat="50.393199" lon="5.983644">
<ele>368.0</ele>
</trkpt>
<trkpt lat="50.39231" lon="5.984008">
<ele>361.0</ele>
</trkpt>
<trkpt lat="50.391694" lon="5.984715">
<ele>359.0</ele>
</trkpt>
<trkpt lat="50.391161" lon="5.985551">
<ele>354.0</ele>
</trkpt>
<trkpt lat="50.391071" lon="5.986658">
<ele>352.0</ele>
</trkpt>
<trkpt lat="50.39102" lon="5.986685">
<ele>352.0</ele>
</trkpt>
<trkpt lat="50.390625" lon="5.986908">
<ele>344.0</ele>
</trkpt>
<trkpt lat="50.390508" lon="5.986976">
<ele>344.0</ele>
</trkpt>
<trkpt lat="50.39015" lon="5.987143">
<ele>336.0</ele>
</trkpt>
<trkpt lat="50.389789" lon="5.98718">
<ele>332.0</ele>
</trkpt>
<trkpt lat="50.389351" lon="5.987161">
<ele>331.0</ele>
</trkpt>
<trkpt lat="50.388913" lon="5.987139">
<ele>330.0</ele>
</trkpt>
<trkpt lat="50.388634" lon="5.987209">
<ele>331.0</ele>
</trkpt>
<trkpt lat="50.388394" lon="5.987448">
<ele>329.0</ele>
</trkpt>
<trkpt lat="50.388178" lon="5.987833">
<ele>329.0</ele>
</trkpt>
<trkpt lat="50.387962" lon="5.988213">
<ele>325.0</ele>
</trkpt>
<trkpt lat="50.387746" lon="5.988598">
<ele>325.0</ele>
</trkpt>
<trkpt lat="50.387493" lon="5.989005">
<ele>325.0</ele>
</trkpt>
<trkpt lat="50.387291" lon="5.989469">
<ele>326.0</ele>
</trkpt>
<trkpt lat="50.387157" lon="5.989622">
<ele>319.0</ele>
</trkpt>
<trkpt lat="50.387056" lon="5.989645">
<ele>319.0</ele>
</trkpt>
<trkpt lat="50.386945" lon="5.989472">
<ele>323.0</ele>
</trkpt>
<trkpt lat="50.386897" lon="5.989291">
<ele>320.0</ele>
</trkpt>
<trkpt lat="50.386859" lon="5.988767">
<ele>324.0</ele>
</trkpt>
<trkpt lat="50.386766" lon="5.988653">
<ele>316.0</ele>
</trkpt>
<trkpt lat="50.386766" lon="5.988653">
<ele>316.0</ele>
</trkpt>
<trkpt lat="50.386744" lon="5.98902">
<ele>315.0</ele>
</trkpt>
<trkpt lat="50.386697" lon="5.989356">
<ele>317.0</ele>
</trkpt>
<trkpt lat="50.38671" lon="5.989653">
<ele>317.0</ele>
</trkpt>
<trkpt lat="50.386794" lon="5.990309">
<ele>316.0</ele>
</trkpt>
<trkpt lat="50.386878" lon="5.990961">
<ele>311.0</ele>
</trkpt>
<trkpt lat="50.387063" lon="5.990837">
<ele>311.0</ele>
</trkpt>
<trkpt lat="50.387321" lon="5.990287">
<ele>314.0</ele>
</trkpt>
<trkpt lat="50.387559" lon="5.989946">
<ele>313.0</ele>
</trkpt>
<trkpt lat="50.387798" lon="5.989602">
<ele>312.0</ele>
</trkpt>
<trkpt lat="50.388029" lon="5.989334">
<ele>308.0</ele>
</trkpt>
<trkpt lat="50.388298" lon="5.98902">
<ele>309.0</ele>
</trkpt>
<trkpt lat="50.388505" lon="5.988999">
<ele>309.0</ele>
</trkpt>
<trkpt lat="50.388853" lon="5.989114">
<ele>306.0</ele>
</trkpt>
<trkpt lat="50.389182" lon="5.989064">
<ele>307.0</ele>
</trkpt>
<trkpt lat="50.38951" lon="5.989016">
<ele>311.0</ele>
</trkpt>
<trkpt lat="50.389829" lon="5.988925">
<ele>311.0</ele>
</trkpt>
<trkpt lat="50.390148" lon="5.988834">
<ele>309.0</ele>
</trkpt>
<trkpt lat="50.390213" lon="5.988912">
<ele>309.0</ele>
</trkpt>
<trkpt lat="50.390272" lon="5.989142">
<ele>309.0</ele>
</trkpt>
<trkpt lat="50.390369" lon="5.989338">
<ele>305.0</ele>
</trkpt>
<trkpt lat="50.390422" lon="5.989436">
<ele>307.0</ele>
</trkpt>
<trkpt lat="50.392938" lon="5.988569">
<ele>314.0</ele>
</trkpt>
<trkpt lat="50.39297" lon="5.98856">
<ele>314.0</ele>
</trkpt>
<trkpt lat="50.393173" lon="5.988518">
<ele>314.0</ele>
</trkpt>
<trkpt lat="50.393434" lon="5.988616">
<ele>315.0</ele>
</trkpt>
<trkpt lat="50.393434" lon="5.988616">
<ele>315.0</ele>
</trkpt>
<trkpt lat="50.393691" lon="5.988834">
<ele>323.0</ele>
</trkpt>
<trkpt lat="50.393948" lon="5.989055">
<ele>323.0</ele>
</trkpt>
<trkpt lat="50.394288" lon="5.989502">
<ele>322.0</ele>
</trkpt>
<trkpt lat="50.394628" lon="5.98995">
<ele>316.0</ele>
</trkpt>
<trkpt lat="50.394776" lon="5.990308">
<ele>320.0</ele>
</trkpt>
<trkpt lat="50.394923" lon="5.990666">
<ele>314.0</ele>
</trkpt>
<trkpt lat="50.395041" lon="5.990994">
<ele>328.0</ele>
</trkpt>
<trkpt lat="50.395159" lon="5.991323">
<ele>321.0</ele>
</trkpt>
<trkpt lat="50.395199" lon="5.991406">
<ele>321.0</ele>
</trkpt>
<trkpt lat="50.395302" lon="5.991623">
<ele>321.0</ele>
</trkpt>
<trkpt lat="50.395445" lon="5.991921">
<ele>320.0</ele>
</trkpt>
<trkpt lat="50.395445" lon="5.991921">
<ele>320.0</ele>
</trkpt>
<trkpt lat="50.395646" lon="5.992153">
<ele>322.0</ele>
</trkpt>
<trkpt lat="50.39603" lon="5.992463">
<ele>317.0</ele>
</trkpt>
<trkpt lat="50.396294" lon="5.992668">
<ele>319.0</ele>
</trkpt>
<trkpt lat="50.396558" lon="5.992877">
<ele>316.0</ele>
</trkpt>
<trkpt lat="50.396844" lon="5.992984">
<ele>316.0</ele>
</trkpt>
<trkpt lat="50.397131" lon="5.993094">
<ele>314.0</ele>
</trkpt>
<trkpt lat="50.397394" lon="5.993213">
<ele>317.0</ele>
</trkpt>
<trkpt lat="50.397657" lon="5.993335">
<ele>314.0</ele>
</trkpt>
<trkpt lat="50.397959" lon="5.993406">
<ele>313.0</ele>
</trkpt>
<trkpt lat="50.398299" lon="5.993549">
<ele>317.0</ele>
</trkpt>
<trkpt lat="50.398568" lon="5.993565">
<ele>318.0</ele>
</trkpt>
<trkpt lat="50.398821" lon="5.993516">
<ele>319.0</ele>
</trkpt>
<trkpt lat="50.399185" lon="5.993524">
<ele>321.0</ele>
</trkpt>
<trkpt lat="50.39935" lon="5.993575">
<ele>322.0</ele>
</trkpt>
<trkpt lat="50.39935" lon="5.993575">
<ele>322.0</ele>
</trkpt>
<trkpt lat="50.399732" lon="5.993794">
<ele>328.0</ele>
</trkpt>
<trkpt lat="50.400103" lon="5.994154">
<ele>334.0</ele>
</trkpt>
<trkpt lat="50.400473" lon="5.994514">
<ele>339.0</ele>
</trkpt>
<trkpt lat="50.400608" lon="5.99474">
<ele>343.0</ele>
</trkpt>
<trkpt lat="50.400608" lon="5.99474">
<ele>343.0</ele>
</trkpt>
<trkpt lat="50.400697" lon="5.994643">
<ele>342.0</ele>
</trkpt>
<trkpt lat="50.400926" lon="5.994452">
<ele>337.0</ele>
</trkpt>
<trkpt lat="50.401219" lon="5.994203">
<ele>332.0</ele>
</trkpt>
<trkpt lat="50.401537" lon="5.993989">
<ele>332.0</ele>
</trkpt>
<trkpt lat="50.401762" lon="5.993926">
<ele>332.0</ele>
</trkpt>
<trkpt lat="50.401937" lon="5.993944">
<ele>333.0</ele>
</trkpt>
<trkpt lat="50.402029" lon="5.993895">
<ele>333.0</ele>
</trkpt>
<trkpt lat="50.402193" lon="5.993907">
<ele>331.0</ele>
</trkpt>
<trkpt lat="50.402334" lon="5.99395">
<ele>331.0</ele>
</trkpt>
<trkpt lat="50.402465" lon="5.994097">
<ele>329.0</ele>
</trkpt>
<trkpt lat="50.402645" lon="5.994355">
<ele>326.0</ele>
</trkpt>
<trkpt lat="50.402775" lon="5.994639">
<ele>331.0</ele>
</trkpt>
<trkpt lat="50.402913" lon="5.994893">
<ele>337.0</ele>
</trkpt>
<trkpt lat="50.403058" lon="5.995071">
<ele>329.0</ele>
</trkpt>
<trkpt lat="50.403192" lon="5.995168">
<ele>334.0</ele>
</trkpt>
<trkpt lat="50.403452" lon="5.995327">
<ele>329.0</ele>
</trkpt>
<trkpt lat="50.403684" lon="5.995607">
<ele>327.0</ele>
</trkpt>
<trkpt lat="50.403995" lon="5.995823">
<ele>331.0</ele>
</trkpt>
<trkpt lat="50.40407" lon="5.995883">
<ele>327.0</ele>
</trkpt>
<trkpt lat="50.404194" lon="5.99598">
<ele>333.0</ele>
</trkpt>
<trkpt lat="50.404519" lon="5.996397">
<ele>332.0</ele>
</trkpt>
<trkpt lat="50.404743" lon="5.996582">
<ele>327.0</ele>
</trkpt>
<trkpt lat="50.40483" lon="5.996658">
<ele>327.0</ele>
</trkpt>
<trkpt lat="50.404888" lon="5.996763">
<ele>322.0</ele>
</trkpt>
<trkpt lat="50.404924" lon="5.996873">
<ele>330.0</ele>
</trkpt>
<trkpt lat="50.405224" lon="5.997309">
<ele>329.0</ele>
</trkpt>
<trkpt lat="50.405377" lon="5.997501">
<ele>337.0</ele>
</trkpt>
<trkpt lat="50.405623" lon="5.997595">
<ele>332.0</ele>
</trkpt>
<trkpt lat="50.405838" lon="5.99766">
<ele>333.0</ele>
</trkpt>
<trkpt lat="50.406168" lon="5.997724">
<ele>331.0</ele>
</trkpt>
<trkpt lat="50.406397" lon="5.997694">
<ele>332.0</ele>
</trkpt>
<trkpt lat="50.406533" lon="5.997679">
<ele>332.0</ele>
</trkpt>
<trkpt lat="50.406838" lon="5.997572">
<ele>328.0</ele>
</trkpt>
<trkpt lat="50.407024" lon="5.997613">
<ele>328.0</ele>
</trkpt>
<trkpt lat="50.40723" lon="5.997591">
<ele>328.0</ele>
</trkpt>
<trkpt lat="50.40751" lon="5.997446">
<ele>328.0</ele>
</trkpt>
<trkpt lat="50.407626" lon="5.997338">
<ele>321.0</ele>
</trkpt>
<trkpt lat="50.40784" lon="5.997203">
<ele>322.0</ele>
</trkpt>
<trkpt lat="50.408069" lon="5.997069">
<ele>322.0</ele>
</trkpt>
<trkpt lat="50.408271" lon="5.997004">
<ele>322.0</ele>
</trkpt>
<trkpt lat="50.408584" lon="5.996965">
<ele>325.0</ele>
</trkpt>
<trkpt lat="50.408848" lon="5.997002">
<ele>328.0</ele>
</trkpt>
<trkpt lat="50.40904" lon="5.997045">
<ele>330.0</ele>
</trkpt>
<trkpt lat="50.40913" lon="5.997107">
<ele>337.0</ele>
</trkpt>
<trkpt lat="50.409172" lon="5.997135">
<ele>337.0</ele>
</trkpt>
<trkpt lat="50.409172" lon="5.997135">
<ele>337.0</ele>
</trkpt>
<trkpt lat="50.409024" lon="5.997253">
<ele>332.0</ele>
</trkpt>
<trkpt lat="50.40895" lon="5.997478">
<ele>338.0</ele>
</trkpt>
<trkpt lat="50.408754" lon="5.997878">
<ele>341.0</ele>
</trkpt>
<trkpt lat="50.408646" lon="5.998166">
<ele>349.0</ele>
</trkpt>
<trkpt lat="50.408531" lon="5.99836">
<ele>355.0</ele>
</trkpt>
<trkpt lat="50.408467" lon="5.998468">
<ele>362.0</ele>
</trkpt>
<trkpt lat="50.408467" lon="5.998468">
<ele>362.0</ele>
</trkpt>
<trkpt lat="50.408297" lon="5.998472">
<ele>362.0</ele>
</trkpt>
<trkpt lat="50.40801" lon="5.998585">
<ele>369.0</ele>
</trkpt>
<trkpt lat="50.407934" lon="5.998579">
<ele>369.0</ele>
</trkpt>
<trkpt lat="50.407898" lon="5.998643">
<ele>369.0</ele>
</trkpt>
<trkpt lat="50.407612" lon="5.999164">
<ele>381.0</ele>
</trkpt>
<trkpt lat="50.40753" lon="5.999322">
<ele>388.0</ele>
</trkpt>
<trkpt lat="50.407475" lon="5.999537">
<ele>388.0</ele>
</trkpt>
<trkpt lat="50.40749" lon="5.999706">
<ele>386.0</ele>
</trkpt>
<trkpt lat="50.40749" lon="5.999867">
<ele>389.0</ele>
</trkpt>
<trkpt lat="50.407558" lon="6.000101">
<ele>389.0</ele>
</trkpt>
<trkpt lat="50.407628" lon="6.000214">
<ele>388.0</ele>
</trkpt>
<trkpt lat="50.407666" lon="6.000272">
<ele>388.0</ele>
</trkpt>
<trkpt lat="50.407666" lon="6.000272">
<ele>388.0</ele>
</trkpt>
<trkpt lat="50.407544" lon="6.000336">
<ele>388.0</ele>
</trkpt>
<trkpt lat="50.407245" lon="6.000539">
<ele>386.0</ele>
</trkpt>
<trkpt lat="50.406953" lon="6.000718">
<ele>385.0</ele>
</trkpt>
<trkpt lat="50.406831" lon="6.0008">
<ele>385.0</ele>
</trkpt>
<trkpt lat="50.40662" lon="6.000864">
<ele>382.0</ele>
</trkpt>
<trkpt lat="50.406277" lon="6.000907">
<ele>380.0</ele>
</trkpt>
<trkpt lat="50.405934" lon="6.000907">
<ele>379.0</ele>
</trkpt>
<trkpt lat="50.405506" lon="6.000848">
<ele>381.0</ele>
</trkpt>
<trkpt lat="50.405144" lon="6.000682">
<ele>380.0</ele>
</trkpt>
<trkpt lat="50.405063" lon="6.000642">
<ele>384.0</ele>
</trkpt>
<trkpt lat="50.404891" lon="6.000556">
<ele>384.0</ele>
</trkpt>
<trkpt lat="50.404512" lon="6.000461">
<ele>385.0</ele>
</trkpt>
<trkpt lat="50.404074" lon="6.000535">
<ele>384.0</ele>
</trkpt>
<trkpt lat="50.404042" lon="6.000561">
<ele>384.0</ele>
</trkpt>
<trkpt lat="50.403873" lon="6.000698">
<ele>386.0</ele>
</trkpt>
<trkpt lat="50.403495" lon="6.00072">
<ele>385.0</ele>
</trkpt>
<trkpt lat="50.403386" lon="6.000844">
<ele>384.0</ele>
</trkpt>
<trkpt lat="50.403325" lon="6.001086">
<ele>388.0</ele>
</trkpt>
<trkpt lat="50.403313" lon="6.001439">
<ele>388.0</ele>
</trkpt>
<trkpt lat="50.403359" lon="6.001874">
<ele>392.0</ele>
</trkpt>
<trkpt lat="50.4034" lon="6.002228">
<ele>393.0</ele>
</trkpt>
<trkpt lat="50.403422" lon="6.002453">
<ele>395.0</ele>
</trkpt>
<trkpt lat="50.403395" lon="6.002687">
<ele>398.0</ele>
</trkpt>
<trkpt lat="50.403327" lon="6.003017">
<ele>398.0</ele>
</trkpt>
<trkpt lat="50.403126" lon="6.003467">
<ele>398.0</ele>
</trkpt>
<trkpt lat="50.403126" lon="6.003467">
<ele>398.0</ele>
</trkpt>
<trkpt lat="50.403034" lon="6.003981">
<ele>400.0</ele>
</trkpt>
<trkpt lat="50.4029" lon="6.004306">
<ele>404.0</ele>
</trkpt>
<trkpt lat="50.402795" lon="6.004664">
<ele>406.0</ele>
</trkpt>
<trkpt lat="50.40269" lon="6.005024">
<ele>409.0</ele>
</trkpt>
<trkpt lat="50.402683" lon="6.005468">
<ele>412.0</ele>
</trkpt>
<trkpt lat="50.402733" lon="6.005868">
<ele>413.0</ele>
</trkpt>
<trkpt lat="50.402741" lon="6.005937">
<ele>413.0</ele>
</trkpt>
<trkpt lat="50.402741" lon="6.005937">
<ele>413.0</ele>
</trkpt>
<trkpt lat="50.402336" lon="6.00594">
<ele>413.0</ele>
</trkpt>
<trkpt lat="50.402035" lon="6.005842">
<ele>414.0</ele>
</trkpt>
<trkpt lat="50.401849" lon="6.005767">
<ele>414.0</ele>
</trkpt>
<trkpt lat="50.401822" lon="6.005755">
<ele>414.0</ele>
</trkpt>
<trkpt lat="50.40146" lon="6.00556">
<ele>415.0</ele>
</trkpt>
<trkpt lat="50.401098" lon="6.005365">
<ele>413.0</ele>
</trkpt>
<trkpt lat="50.400736" lon="6.005173">
<ele>414.0</ele>
</trkpt>
<trkpt lat="50.400488" lon="6.005074">
<ele>416.0</ele>
</trkpt>
<trkpt lat="50.40024" lon="6.004975">
<ele>418.0</ele>
</trkpt>
<trkpt lat="50.399924" lon="6.004795">
<ele>417.0</ele>
</trkpt>
<trkpt lat="50.399607" lon="6.004615">
<ele>420.0</ele>
</trkpt>
<trkpt lat="50.399312" lon="6.004574">
<ele>422.0</ele>
</trkpt>
<trkpt lat="50.399016" lon="6.004532">
<ele>427.0</ele>
</trkpt>
<trkpt lat="50.39865" lon="6.00456">
<ele>427.0</ele>
</trkpt>
<trkpt lat="50.398267" lon="6.004556">
<ele>427.0</ele>
</trkpt>
<trkpt lat="50.397884" lon="6.004551">
<ele>426.0</ele>
</trkpt>
<trkpt lat="50.3975" lon="6.004548">
<ele>427.0</ele>
</trkpt>
<trkpt lat="50.397513" lon="6.004582">
<ele>427.0</ele>
</trkpt>
<trkpt lat="50.397627" lon="6.004878">
<ele>426.0</ele>
</trkpt>
<trkpt lat="50.397697" lon="6.005231">
<ele>427.0</ele>
</trkpt>
<trkpt lat="50.397712" lon="6.005657">
<ele>427.0</ele>
</trkpt>
<trkpt lat="50.397732" lon="6.005987">
<ele>428.0</ele>
</trkpt>
<trkpt lat="50.397897" lon="6.006638">
<ele>429.0</ele>
</trkpt>
<trkpt lat="50.398094" lon="6.007102">
<ele>433.0</ele>
</trkpt>
<trkpt lat="50.398291" lon="6.007565">
<ele>435.0</ele>
</trkpt>
<trkpt lat="50.398488" lon="6.008027">
<ele>438.0</ele>
</trkpt>
<trkpt lat="50.39867" lon="6.008453">
<ele>439.0</ele>
</trkpt>
<trkpt lat="50.398852" lon="6.008875">
<ele>441.0</ele>
</trkpt>
<trkpt lat="50.399034" lon="6.009301">
<ele>448.0</ele>
</trkpt>
<trkpt lat="50.399144" lon="6.009551">
<ele>450.0</ele>
</trkpt>
<trkpt lat="50.399322" lon="6.009804">
<ele>451.0</ele>
</trkpt>
<trkpt lat="50.399499" lon="6.010053">
<ele>453.0</ele>
</trkpt>
<trkpt lat="50.399825" lon="6.010377">
<ele>451.0</ele>
</trkpt>
<trkpt lat="50.399915" lon="6.01036">
<ele>451.0</ele>
</trkpt>
<trkpt lat="50.400055" lon="6.010424">
<ele>451.0</ele>
</trkpt>
<trkpt lat="50.400205" lon="6.01069">
<ele>450.0</ele>
</trkpt>
<trkpt lat="50.40031" lon="6.011047">
<ele>450.0</ele>
</trkpt>
<trkpt lat="50.400415" lon="6.011404">
<ele>451.0</ele>
</trkpt>
<trkpt lat="50.400515" lon="6.011838">
<ele>451.0</ele>
</trkpt>
<trkpt lat="50.400616" lon="6.012269">
<ele>451.0</ele>
</trkpt>
<trkpt lat="50.400736" lon="6.012506">
<ele>452.0</ele>
</trkpt>
<trkpt lat="50.400843" lon="6.01282">
<ele>453.0</ele>
</trkpt>
<trkpt lat="50.400951" lon="6.013134">
<ele>453.0</ele>
</trkpt>
<trkpt lat="50.401017" lon="6.013248">
<ele>453.0</ele>
</trkpt>
<trkpt lat="50.401041" lon="6.013289">
<ele>453.0</ele>
</trkpt>
<trkpt lat="50.401041" lon="6.013289">
<ele>453.0</ele>
</trkpt>
<trkpt lat="50.401455" lon="6.013392">
<ele>451.0</ele>
</trkpt>
<trkpt lat="50.401869" lon="6.013495">
<ele>452.0</ele>
</trkpt>
<trkpt lat="50.402282" lon="6.013597">
<ele>451.0</ele>
</trkpt>
<trkpt lat="50.402488" lon="6.013564">
<ele>451.0</ele>
</trkpt>
<trkpt lat="50.402593" lon="6.013509">
<ele>451.0</ele>
</trkpt>
<trkpt lat="50.402891" lon="6.013486">
<ele>452.0</ele>
</trkpt>
<trkpt lat="50.403189" lon="6.013463">
<ele>453.0</ele>
</trkpt>
<trkpt lat="50.403512" lon="6.013472">
<ele>453.0</ele>
</trkpt>
<trkpt lat="50.403836" lon="6.013484">
<ele>455.0</ele>
</trkpt>
<trkpt lat="50.40416" lon="6.013495">
<ele>456.0</ele>
</trkpt>
<trkpt lat="50.404483" lon="6.013533">
<ele>456.0</ele>
</trkpt>
<trkpt lat="50.404807" lon="6.013574">
<ele>456.0</ele>
</trkpt>
<trkpt lat="50.405131" lon="6.013611">
<ele>456.0</ele>
</trkpt>
<trkpt lat="50.405474" lon="6.013597">
<ele>455.0</ele>
</trkpt>
<trkpt lat="50.405816" lon="6.013582">
<ele>454.0</ele>
</trkpt>
<trkpt lat="50.405977" lon="6.01369">
<ele>452.0</ele>
</trkpt>
<trkpt lat="50.406148" lon="6.01383">
<ele>454.0</ele>
</trkpt>
<trkpt lat="50.406171" lon="6.013852">
<ele>454.0</ele>
</trkpt>
<trkpt lat="50.40623" lon="6.0139">
<ele>454.0</ele>
</trkpt>
<trkpt lat="50.40623" lon="6.0139">
<ele>454.0</ele>
</trkpt>
<trkpt lat="50.40637" lon="6.014238">
<ele>450.0</ele>
</trkpt>
<trkpt lat="50.40662" lon="6.01462">
<ele>446.0</ele>
</trkpt>
<trkpt lat="50.406809" lon="6.0148">
<ele>443.0</ele>
</trkpt>
<trkpt lat="50.406998" lon="6.014907">
<ele>443.0</ele>
</trkpt>
<trkpt lat="50.407289" lon="6.014958">
<ele>440.0</ele>
</trkpt>
<trkpt lat="50.40758" lon="6.015012">
<ele>438.0</ele>
</trkpt>
<trkpt lat="50.407896" lon="6.015042">
<ele>437.0</ele>
</trkpt>
<trkpt lat="50.408318" lon="6.015237">
<ele>440.0</ele>
</trkpt>
<trkpt lat="50.408613" lon="6.015372">
<ele>440.0</ele>
</trkpt>
<trkpt lat="50.408709" lon="6.015429">
<ele>442.0</ele>
</trkpt>
<trkpt lat="50.408784" lon="6.015188">
<ele>441.0</ele>
</trkpt>
<trkpt lat="50.409065" lon="6.0152">
<ele>440.0</ele>
</trkpt>
<trkpt lat="50.409346" lon="6.01521">
<ele>439.0</ele>
</trkpt>
<trkpt lat="50.40969" lon="6.015275">
<ele>437.0</ele>
</trkpt>
<trkpt lat="50.410035" lon="6.015345">
<ele>435.0</ele>
</trkpt>
<trkpt lat="50.410428" lon="6.015474">
<ele>432.0</ele>
</trkpt>
<trkpt lat="50.410637" lon="6.015536">
<ele>432.0</ele>
</trkpt>
<trkpt lat="50.410871" lon="6.01565">
<ele>433.0</ele>
</trkpt>
<trkpt lat="50.411105" lon="6.015761">
<ele>433.0</ele>
</trkpt>
<trkpt lat="50.411408" lon="6.015806">
<ele>432.0</ele>
</trkpt>
<trkpt lat="50.411576" lon="6.015847">
<ele>431.0</ele>
</trkpt>
<trkpt lat="50.411962" lon="6.015985">
<ele>431.0</ele>
</trkpt>
<trkpt lat="50.412278" lon="6.015961">
<ele>428.0</ele>
</trkpt>
<trkpt lat="50.41229" lon="6.015959">
<ele>428.0</ele>
</trkpt>
<trkpt lat="50.412619" lon="6.015936">
<ele>427.0</ele>
</trkpt>
<trkpt lat="50.412985" lon="6.015873">
<ele>426.0</ele>
</trkpt>
<trkpt lat="50.412985" lon="6.015873">
<ele>426.0</ele>
</trkpt>
<trkpt lat="50.413238" lon="6.015687">
<ele>423.0</ele>
</trkpt>
<trkpt lat="50.41347" lon="6.015794">
<ele>424.0</ele>
</trkpt>
<trkpt lat="50.413607" lon="6.016415">
<ele>420.0</ele>
</trkpt>
<trkpt lat="50.413704" lon="6.016736">
<ele>421.0</ele>
</trkpt>
<trkpt lat="50.4138" lon="6.017056">
<ele>413.0</ele>
</trkpt>
<trkpt lat="50.413929" lon="6.017376">
<ele>412.0</ele>
</trkpt>
<trkpt lat="50.414058" lon="6.017696">
<ele>404.0</ele>
</trkpt>
<trkpt lat="50.414339" lon="6.017688">
<ele>396.0</ele>
</trkpt>
<trkpt lat="50.414551" lon="6.01782">
<ele>396.0</ele>
</trkpt>
<trkpt lat="50.414763" lon="6.017952">
<ele>392.0</ele>
</trkpt>
<trkpt lat="50.414951" lon="6.018191">
<ele>387.0</ele>
</trkpt>
<trkpt lat="50.415138" lon="6.018431">
<ele>389.0</ele>
</trkpt>
<trkpt lat="50.415426" lon="6.018498">
<ele>392.0</ele>
</trkpt>
<trkpt lat="50.415819" lon="6.018338">
<ele>386.0</ele>
</trkpt>
<trkpt lat="50.415971" lon="6.018696">
<ele>388.0</ele>
</trkpt>
<trkpt lat="50.416123" lon="6.019054">
<ele>391.0</ele>
</trkpt>
<trkpt lat="50.416292" lon="6.019501">
<ele>382.0</ele>
</trkpt>
<trkpt lat="50.416462" lon="6.019947">
<ele>387.0</ele>
</trkpt>
<trkpt lat="50.416619" lon="6.020346">
<ele>381.0</ele>
</trkpt>
<trkpt lat="50.416776" lon="6.020743">
<ele>387.0</ele>
</trkpt>
<trkpt lat="50.416997" lon="6.02117">
<ele>381.0</ele>
</trkpt>
<trkpt lat="50.417193" lon="6.021553">
<ele>379.0</ele>
</trkpt>
<trkpt lat="50.417217" lon="6.0216">
<ele>379.0</ele>
</trkpt>
<trkpt lat="50.417217" lon="6.0216">
<ele>379.0</ele>
</trkpt>
<trkpt lat="50.417461" lon="6.021892">
<ele>375.0</ele>
</trkpt>
<trkpt lat="50.417568" lon="6.022113">
<ele>376.0</ele>
</trkpt>
<trkpt lat="50.417776" lon="6.022517">
<ele>374.0</ele>
</trkpt>
<trkpt lat="50.417983" lon="6.02292">
<ele>373.0</ele>
</trkpt>
<trkpt lat="50.41819" lon="6.023325">
<ele>375.0</ele>
</trkpt>
<trkpt lat="50.418408" lon="6.023695">
<ele>371.0</ele>
</trkpt>
<trkpt lat="50.41854" lon="6.024013">
<ele>368.0</ele>
</trkpt>
<trkpt lat="50.418672" lon="6.02433">
<ele>373.0</ele>
</trkpt>
<trkpt lat="50.418929" lon="6.024729">
<ele>372.0</ele>
</trkpt>
<trkpt lat="50.418906" lon="6.024599">
<ele>372.0</ele>
</trkpt>
<trkpt lat="50.418887" lon="6.024249">
<ele>369.0</ele>
</trkpt>
<trkpt lat="50.41889" lon="6.023981">
<ele>367.0</ele>
</trkpt>
<trkpt lat="50.419001" lon="6.02385">
<ele>367.0</ele>
</trkpt>
<trkpt lat="50.419365" lon="6.023604">
<ele>359.0</ele>
</trkpt>
<trkpt lat="50.419411" lon="6.023631">
<ele>359.0</ele>
</trkpt>
<trkpt lat="50.419399" lon="6.02359">
<ele>359.0</ele>
</trkpt>
<trkpt lat="50.419411" lon="6.023631">
<ele>359.0</ele>
</trkpt>
<trkpt lat="50.419411" lon="6.023631">
<ele>359.0</ele>
</trkpt>
<trkpt lat="50.419487" lon="6.023671">
<ele>359.0</ele>
</trkpt>
<trkpt lat="50.419665" lon="6.023934">
<ele>359.0</ele>
</trkpt>
<trkpt lat="50.419844" lon="6.024194">
<ele>360.0</ele>
</trkpt>
<trkpt lat="50.419915" lon="6.024304">
<ele>356.0</ele>
</trkpt>
<trkpt lat="50.42" lon="6.024272">
<ele>356.0</ele>
</trkpt>
<trkpt lat="50.420266" lon="6.024003">
<ele>351.0</ele>
</trkpt>
<trkpt lat="50.420457" lon="6.023813">
<ele>349.0</ele>
</trkpt>
<trkpt lat="50.420648" lon="6.023619">
<ele>349.0</ele>
</trkpt>
<trkpt lat="50.420925" lon="6.02336">
<ele>347.0</ele>
</trkpt>
<trkpt lat="50.420913" lon="6.023325">
<ele>347.0</ele>
</trkpt>
<trkpt lat="50.421268" lon="6.024057">
<ele>345.0</ele>
</trkpt>
<trkpt lat="50.422225" lon="6.026495">
<ele>346.0</ele>
</trkpt>
<trkpt lat="50.42233" lon="6.027176">
<ele>349.0</ele>
</trkpt>
<trkpt lat="50.422336" lon="6.027198">
<ele>349.0</ele>
</trkpt>
<trkpt lat="50.422336" lon="6.027198">
<ele>349.0</ele>
</trkpt>
<trkpt lat="50.422605" lon="6.027107">
<ele>348.0</ele>
</trkpt>
<trkpt lat="50.422723" lon="6.027144">
<ele>346.0</ele>
</trkpt>
<trkpt lat="50.422828" lon="6.027262">
<ele>346.0</ele>
</trkpt>
<trkpt lat="50.422868" lon="6.027436">
<ele>346.0</ele>
</trkpt>
<trkpt lat="50.422846" lon="6.027671">
<ele>345.0</ele>
</trkpt>
<trkpt lat="50.422855" lon="6.027853">
<ele>345.0</ele>
</trkpt>
<trkpt lat="50.422922" lon="6.028029">
<ele>344.0</ele>
</trkpt>
<trkpt lat="50.423063" lon="6.028127">
<ele>344.0</ele>
</trkpt>
<trkpt lat="50.42328" lon="6.028276">
<ele>343.0</ele>
</trkpt>
<trkpt lat="50.423496" lon="6.028424">
<ele>342.0</ele>
</trkpt>
<trkpt lat="50.423538" lon="6.028451">
<ele>342.0</ele>
</trkpt>
<trkpt lat="50.42356" lon="6.02852">
<ele>343.0</ele>
</trkpt>
<trkpt lat="50.423608" lon="6.028501">
<ele>343.0</ele>
</trkpt>
<trkpt lat="50.423723" lon="6.028465">
<ele>342.0</ele>
</trkpt>
<trkpt lat="50.423812" lon="6.028458">
<ele>342.0</ele>
</trkpt>
<trkpt lat="50.424103" lon="6.028432">
<ele>342.0</ele>
</trkpt>
<trkpt lat="50.424116" lon="6.028427">
<ele>342.0</ele>
</trkpt>
<trkpt lat="50.424304" lon="6.028427">
<ele>342.0</ele>
</trkpt>
<trkpt lat="50.424483" lon="6.028421">
<ele>342.0</ele>
</trkpt>
<trkpt lat="50.424679" lon="6.02833">
<ele>341.0</ele>
</trkpt>
<trkpt lat="50.424854" lon="6.028215">
<ele>341.0</ele>
</trkpt>
<trkpt lat="50.424851" lon="6.028287">
<ele>341.0</ele>
</trkpt>
<trkpt lat="50.424861" lon="6.02838">
<ele>341.0</ele>
</trkpt>
<trkpt lat="50.424867" lon="6.028535">
<ele>341.0</ele>
</trkpt>
<trkpt lat="50.424872" lon="6.028592">
<ele>341.0</ele>
</trkpt>
<trkpt lat="50.425104" lon="6.028573">
<ele>341.0</ele>
</trkpt>
<trkpt lat="50.425133" lon="6.028586">
<ele>341.0</ele>
</trkpt>
<trkpt lat="50.425172" lon="6.028602">
<ele>340.0</ele>
</trkpt>
<trkpt lat="50.425387" lon="6.028588">
<ele>340.0</ele>
</trkpt>
<trkpt lat="50.425459" lon="6.028582">
<ele>340.0</ele>
</trkpt>
<trkpt lat="50.425459" lon="6.028582">
<ele>340.0</ele>
</trkpt>
<trkpt lat="50.425469" lon="6.028669">
<ele>340.0</ele>
</trkpt>
<trkpt lat="50.425486" lon="6.028859">
<ele>340.0</ele>
</trkpt>
<trkpt lat="50.425488" lon="6.028998">
<ele>340.0</ele>
</trkpt>
<trkpt lat="50.425486" lon="6.029147">
<ele>341.0</ele>
</trkpt>
<trkpt lat="50.425613" lon="6.029124">
<ele>341.0</ele>
</trkpt>
<trkpt lat="50.425675" lon="6.029062">
<ele>341.0</ele>
</trkpt>
<trkpt lat="50.425737" lon="6.028876">
<ele>341.0</ele>
</trkpt>
<trkpt lat="50.425812" lon="6.028678">
<ele>340.0</ele>
</trkpt>
<trkpt lat="50.425884" lon="6.028498">
<ele>340.0</ele>
</trkpt>
<trkpt lat="50.425975" lon="6.028379">
<ele>340.0</ele>
</trkpt>
<trkpt lat="50.426017" lon="6.028348">
<ele>340.0</ele>
</trkpt>
<trkpt lat="50.426055" lon="6.028324">
<ele>340.0</ele>
</trkpt>
<trkpt lat="50.42605" lon="6.028334">
<ele>340.0</ele>
</trkpt>
<trkpt lat="50.426138" lon="6.028275">
<ele>340.0</ele>
</trkpt>
<trkpt lat="50.426171" lon="6.028242">
<ele>340.0</ele>
</trkpt>
<trkpt lat="50.426225" lon="6.028155">
<ele>340.0</ele>
</trkpt>
<trkpt lat="50.426249" lon="6.028115">
<ele>340.0</ele>
</trkpt>
<trkpt lat="50.426344" lon="6.027951">
<ele>342.0</ele>
</trkpt>
<trkpt lat="50.426406" lon="6.027707">
<ele>340.0</ele>
</trkpt>
<trkpt lat="50.426489" lon="6.02754">
<ele>340.0</ele>
</trkpt>
<trkpt lat="50.426616" lon="6.027312">
<ele>340.0</ele>
</trkpt>
<trkpt lat="50.426713" lon="6.027411">
<ele>341.0</ele>
</trkpt>
</trkseg>
</trk>
</gpx>
