<?xml version="1.0" encoding="UTF-8"?>
<gpx xmlns="http://www.topografix.com/GPX/1/1" creator="Geolives" version="1.1" xmlns:xsi="http://www.w3.org/2001/XMLSchema-instance" xsi:schemaLocation="http://www.topografix.com/GPX/1/1 http://www.topografix.com/GPX/1/1/gpx.xsd">
  <metadata />
  <trk>
    <trkseg>
      <trkpt lat="50.408086" lon="5.808042">
      </trkpt>
      <trkpt lat="50.408408" lon="5.807948">
      </trkpt>
      <trkpt lat="50.408784" lon="5.808216">
      </trkpt>
      <trkpt lat="50.409214" lon="5.808559">
      </trkpt>
      <trkpt lat="50.40931" lon="5.809117">
      </trkpt>
      <trkpt lat="50.409659" lon="5.809191">
      </trkpt>
      <trkpt lat="50.409789" lon="5.809581">
      </trkpt>
      <trkpt lat="50.409919" lon="5.809825">
      </trkpt>
      <trkpt lat="50.410131" lon="5.80975">
      </trkpt>
      <trkpt lat="50.410425" lon="5.809611">
      </trkpt>
      <trkpt lat="50.410514" lon="5.809356">
      </trkpt>
      <trkpt lat="50.410746" lon="5.809485">
      </trkpt>
      <trkpt lat="50.411293" lon="5.809843">
      </trkpt>
      <trkpt lat="50.411375" lon="5.810093">
      </trkpt>
      <trkpt lat="50.411471" lon="5.810611">
      </trkpt>
      <trkpt lat="50.411665" lon="5.810913">
      </trkpt>
      <trkpt lat="50.411955" lon="5.81127">
      </trkpt>
      <trkpt lat="50.412172" lon="5.811647">
      </trkpt>
      <trkpt lat="50.412284" lon="5.811844">
      </trkpt>
      <trkpt lat="50.412347" lon="5.811425">
      </trkpt>
      <trkpt lat="50.41238" lon="5.811014">
      </trkpt>
      <trkpt lat="50.413043" lon="5.810543">
      </trkpt>
      <trkpt lat="50.41333" lon="5.810415">
      </trkpt>
      <trkpt lat="50.413645" lon="5.810032">
      </trkpt>
      <trkpt lat="50.414055" lon="5.809892">
      </trkpt>
      <trkpt lat="50.414069" lon="5.809303">
      </trkpt>
      <trkpt lat="50.414329" lon="5.807626">
      </trkpt>
      <trkpt lat="50.414438" lon="5.806671">
      </trkpt>
      <trkpt lat="50.414554" lon="5.805652">
      </trkpt>
      <trkpt lat="50.414718" lon="5.80543">
      </trkpt>
      <trkpt lat="50.414657" lon="5.804764">
      </trkpt>
      <trkpt lat="50.414794" lon="5.805137">
      </trkpt>
      <trkpt lat="50.414876" lon="5.805641">
      </trkpt>
      <trkpt lat="50.415108" lon="5.806287">
      </trkpt>
      <trkpt lat="50.415525" lon="5.806826">
      </trkpt>
      <trkpt lat="50.415764" lon="5.807346">
      </trkpt>
      <trkpt lat="50.416188" lon="5.807736">
      </trkpt>
      <trkpt lat="50.41668" lon="5.808248">
      </trkpt>
      <trkpt lat="50.416769" lon="5.807991">
      </trkpt>
      <trkpt lat="50.416858" lon="5.807497">
      </trkpt>
      <trkpt lat="50.417009" lon="5.807272">
      </trkpt>
      <trkpt lat="50.417111" lon="5.806596">
      </trkpt>
      <trkpt lat="50.417371" lon="5.8057">
      </trkpt>
      <trkpt lat="50.417542" lon="5.805512">
      </trkpt>
      <trkpt lat="50.417467" lon="5.805933">
      </trkpt>
      <trkpt lat="50.417473" lon="5.806499">
      </trkpt>
      <trkpt lat="50.417699" lon="5.806963">
      </trkpt>
      <trkpt lat="50.417918" lon="5.807894">
      </trkpt>
      <trkpt lat="50.417986" lon="5.808133">
      </trkpt>
      <trkpt lat="50.41843" lon="5.808119">
      </trkpt>
      <trkpt lat="50.419265" lon="5.807905">
      </trkpt>
      <trkpt lat="50.419476" lon="5.807765">
      </trkpt>
      <trkpt lat="50.4207" lon="5.807682">
      </trkpt>
      <trkpt lat="50.421008" lon="5.807991">
      </trkpt>
      <trkpt lat="50.421206" lon="5.807907">
      </trkpt>
      <trkpt lat="50.421418" lon="5.807614">
      </trkpt>
      <trkpt lat="50.421548" lon="5.807862">
      </trkpt>
      <trkpt lat="50.421691" lon="5.807358">
      </trkpt>
      <trkpt lat="50.422006" lon="5.807146">
      </trkpt>
      <trkpt lat="50.422764" lon="5.80578">
      </trkpt>
      <trkpt lat="50.423291" lon="5.805837">
      </trkpt>
      <trkpt lat="50.423509" lon="5.80588">
      </trkpt>
      <trkpt lat="50.424111" lon="5.806285">
      </trkpt>
      <trkpt lat="50.425287" lon="5.807229">
      </trkpt>
      <trkpt lat="50.425451" lon="5.807475">
      </trkpt>
      <trkpt lat="50.425792" lon="5.807626">
      </trkpt>
      <trkpt lat="50.42841" lon="5.808672">
      </trkpt>
      <trkpt lat="50.43072" lon="5.809836">
      </trkpt>
      <trkpt lat="50.431629" lon="5.810694">
      </trkpt>
      <trkpt lat="50.43288" lon="5.812365">
      </trkpt>
      <trkpt lat="50.433543" lon="5.813085">
      </trkpt>
      <trkpt lat="50.434363" lon="5.813722">
      </trkpt>
      <trkpt lat="50.435415" lon="5.809259">
      </trkpt>
      <trkpt lat="50.435238" lon="5.805469">
      </trkpt>
      <trkpt lat="50.435162" lon="5.803944">
      </trkpt>
      <trkpt lat="50.43534" lon="5.798">
      </trkpt>
      <trkpt lat="50.433181" lon="5.797133">
      </trkpt>
      <trkpt lat="50.432716" lon="5.792165">
      </trkpt>
      <trkpt lat="50.429189" lon="5.791653">
      </trkpt>
      <trkpt lat="50.428697" lon="5.788947">
      </trkpt>
      <trkpt lat="50.428465" lon="5.787651">
      </trkpt>
      <trkpt lat="50.428233" lon="5.785167">
      </trkpt>
      <trkpt lat="50.428267" lon="5.784204">
      </trkpt>
      <trkpt lat="50.431341" lon="5.784075">
      </trkpt>
      <trkpt lat="50.434278" lon="5.783903">
      </trkpt>
      <trkpt lat="50.434517" lon="5.783716">
      </trkpt>
      <trkpt lat="50.434813" lon="5.783707">
      </trkpt>
      <trkpt lat="50.43516" lon="5.783593">
      </trkpt>
      <trkpt lat="50.435067" lon="5.782587">
      </trkpt>
      <trkpt lat="50.435328" lon="5.781222">
      </trkpt>
      <trkpt lat="50.435438" lon="5.77993">
      </trkpt>
      <trkpt lat="50.435246" lon="5.779561">
      </trkpt>
      <trkpt lat="50.435848" lon="5.776683">
      </trkpt>
      <trkpt lat="50.434963" lon="5.773506">
      </trkpt>
      <trkpt lat="50.428205" lon="5.773752">
      </trkpt>
      <trkpt lat="50.428279" lon="5.772863">
      </trkpt>
      <trkpt lat="50.428327" lon="5.771962">
      </trkpt>
      <trkpt lat="50.428485" lon="5.769581">
      </trkpt>
      <trkpt lat="50.428526" lon="5.768723">
      </trkpt>
      <trkpt lat="50.428663" lon="5.767865">
      </trkpt>
      <trkpt lat="50.428888" lon="5.766029">
      </trkpt>
      <trkpt lat="50.429408" lon="5.763781">
      </trkpt>
      <trkpt lat="50.430173" lon="5.761052">
      </trkpt>
      <trkpt lat="50.430123" lon="5.760555">
      </trkpt>
      <trkpt lat="50.430059" lon="5.76021">
      </trkpt>
      <trkpt lat="50.429903" lon="5.760033">
      </trkpt>
      <trkpt lat="50.42977" lon="5.759764">
      </trkpt>
      <trkpt lat="50.429435" lon="5.758734">
      </trkpt>
      <trkpt lat="50.429326" lon="5.758418">
      </trkpt>
      <trkpt lat="50.429189" lon="5.758187">
      </trkpt>
      <trkpt lat="50.428943" lon="5.757842">
      </trkpt>
      <trkpt lat="50.428819" lon="5.757569">
      </trkpt>
      <trkpt lat="50.4291" lon="5.756619">
      </trkpt>
      <trkpt lat="50.429202" lon="5.755601">
      </trkpt>
      <trkpt lat="50.428711" lon="5.754773">
      </trkpt>
      <trkpt lat="50.428519" lon="5.754118">
      </trkpt>
      <trkpt lat="50.428194" lon="5.754179">
      </trkpt>
      <trkpt lat="50.427895" lon="5.754251">
      </trkpt>
      <trkpt lat="50.427679" lon="5.754453">
      </trkpt>
      <trkpt lat="50.426642" lon="5.755744">
      </trkpt>
      <trkpt lat="50.426454" lon="5.755535">
      </trkpt>
      <trkpt lat="50.426569" lon="5.754508">
      </trkpt>
      <trkpt lat="50.42658" lon="5.753503">
      </trkpt>
      <trkpt lat="50.42652" lon="5.752339">
      </trkpt>
      <trkpt lat="50.426864" lon="5.751035">
      </trkpt>
      <trkpt lat="50.427144" lon="5.750496">
      </trkpt>
      <trkpt lat="50.427327" lon="5.750001">
      </trkpt>
      <trkpt lat="50.427347" lon="5.749506">
      </trkpt>
      <trkpt lat="50.427043" lon="5.747397">
      </trkpt>
      <trkpt lat="50.427473" lon="5.74486">
      </trkpt>
      <trkpt lat="50.426742" lon="5.745611">
      </trkpt>
      <trkpt lat="50.42625" lon="5.74601">
      </trkpt>
      <trkpt lat="50.425833" lon="5.746556">
      </trkpt>
      <trkpt lat="50.425764" lon="5.747033">
      </trkpt>
      <trkpt lat="50.425874" lon="5.747767">
      </trkpt>
      <trkpt lat="50.425737" lon="5.748059">
      </trkpt>
      <trkpt lat="50.425307" lon="5.74802">
      </trkpt>
      <trkpt lat="50.42504" lon="5.748262">
      </trkpt>
      <trkpt lat="50.424569" lon="5.74919">
      </trkpt>
      <trkpt lat="50.42394" lon="5.750092">
      </trkpt>
      <trkpt lat="50.423154" lon="5.750784">
      </trkpt>
      <trkpt lat="50.421971" lon="5.751975">
      </trkpt>
      <trkpt lat="50.421705" lon="5.752386">
      </trkpt>
      <trkpt lat="50.421555" lon="5.752404">
      </trkpt>
      <trkpt lat="50.422395" lon="5.75">
      </trkpt>
      <trkpt lat="50.422805" lon="5.748219">
      </trkpt>
      <trkpt lat="50.422614" lon="5.748037">
      </trkpt>
      <trkpt lat="50.422559" lon="5.747708">
      </trkpt>
      <trkpt lat="50.422717" lon="5.747244">
      </trkpt>
      <trkpt lat="50.421712" lon="5.746665">
      </trkpt>
      <trkpt lat="50.422046" lon="5.745987">
      </trkpt>
      <trkpt lat="50.421971" lon="5.745881">
      </trkpt>
      <trkpt lat="50.42197" lon="5.745632">
      </trkpt>
      <trkpt lat="50.421928" lon="5.745395">
      </trkpt>
      <trkpt lat="50.421851" lon="5.745182">
      </trkpt>
      <trkpt lat="50.42171" lon="5.744977">
      </trkpt>
      <trkpt lat="50.421901" lon="5.744761">
      </trkpt>
      <trkpt lat="50.422126" lon="5.744502">
      </trkpt>
      <trkpt lat="50.42231" lon="5.744515">
      </trkpt>
      <trkpt lat="50.42228" lon="5.744042">
      </trkpt>
      <trkpt lat="50.422343" lon="5.74293">
      </trkpt>
      <trkpt lat="50.422318" lon="5.74007">
      </trkpt>
      <trkpt lat="50.422885" lon="5.737695">
      </trkpt>
      <trkpt lat="50.423525" lon="5.735947">
      </trkpt>
      <trkpt lat="50.424478" lon="5.734167">
      </trkpt>
      <trkpt lat="50.425076" lon="5.733461">
      </trkpt>
      <trkpt lat="50.425182" lon="5.73249">
      </trkpt>
      <trkpt lat="50.424729" lon="5.731724">
      </trkpt>
      <trkpt lat="50.424152" lon="5.731483">
      </trkpt>
      <trkpt lat="50.422616" lon="5.731499">
      </trkpt>
      <trkpt lat="50.421183" lon="5.730772">
      </trkpt>
      <trkpt lat="50.420395" lon="5.727084">
      </trkpt>
      <trkpt lat="50.420351" lon="5.724951">
      </trkpt>
      <trkpt lat="50.419824" lon="5.723419">
      </trkpt>
      <trkpt lat="50.419483" lon="5.725327">
      </trkpt>
      <trkpt lat="50.419347" lon="5.727873">
      </trkpt>
      <trkpt lat="50.419175" lon="5.730039">
      </trkpt>
      <trkpt lat="50.418784" lon="5.728643">
      </trkpt>
      <trkpt lat="50.41833" lon="5.727481">
      </trkpt>
      <trkpt lat="50.417697" lon="5.726095">
      </trkpt>
      <trkpt lat="50.416921" lon="5.725054">
      </trkpt>
      <trkpt lat="50.416409" lon="5.726664">
      </trkpt>
      <trkpt lat="50.415386" lon="5.727299">
      </trkpt>
      <trkpt lat="50.414159" lon="5.727196">
      </trkpt>
      <trkpt lat="50.413858" lon="5.72888">
      </trkpt>
      <trkpt lat="50.413711" lon="5.728843">
      </trkpt>
      <trkpt lat="50.41353" lon="5.728895">
      </trkpt>
      <trkpt lat="50.413362" lon="5.72834">
      </trkpt>
      <trkpt lat="50.413058" lon="5.728162">
      </trkpt>
      <trkpt lat="50.41247" lon="5.72758">
      </trkpt>
      <trkpt lat="50.411746" lon="5.727125">
      </trkpt>
      <trkpt lat="50.410872" lon="5.726431">
      </trkpt>
      <trkpt lat="50.409881" lon="5.728501">
      </trkpt>
      <trkpt lat="50.409054" lon="5.725934">
      </trkpt>
      <trkpt lat="50.408493" lon="5.723029">
      </trkpt>
      <trkpt lat="50.407701" lon="5.720839">
      </trkpt>
      <trkpt lat="50.407866" lon="5.717989">
      </trkpt>
      <trkpt lat="50.408088" lon="5.71556">
      </trkpt>
      <trkpt lat="50.406676" lon="5.715979">
      </trkpt>
      <trkpt lat="50.405057" lon="5.716118">
      </trkpt>
      <trkpt lat="50.402853" lon="5.717733">
      </trkpt>
      <trkpt lat="50.402478" lon="5.719166">
      </trkpt>
      <trkpt lat="50.402143" lon="5.720827">
      </trkpt>
      <trkpt lat="50.40204" lon="5.721374">
      </trkpt>
      <trkpt lat="50.401597" lon="5.721054">
      </trkpt>
      <trkpt lat="50.401357" lon="5.720713">
      </trkpt>
      <trkpt lat="50.40113" lon="5.7202">
      </trkpt>
      <trkpt lat="50.400727" lon="5.719304">
      </trkpt>
      <trkpt lat="50.400516" lon="5.718403">
      </trkpt>
      <trkpt lat="50.400231" lon="5.717749">
      </trkpt>
      <trkpt lat="50.399941" lon="5.717219">
      </trkpt>
      <trkpt lat="50.399681" lon="5.719015">
      </trkpt>
      <trkpt lat="50.397971" lon="5.717116">
      </trkpt>
      <trkpt lat="50.397636" lon="5.71709">
      </trkpt>
      <trkpt lat="50.397554" lon="5.717759">
      </trkpt>
      <trkpt lat="50.397943" lon="5.720469">
      </trkpt>
      <trkpt lat="50.398369" lon="5.721632">
      </trkpt>
      <trkpt lat="50.399325" lon="5.723554">
      </trkpt>
      <trkpt lat="50.399784" lon="5.724118">
      </trkpt>
      <trkpt lat="50.400044" lon="5.724486">
      </trkpt>
      <trkpt lat="50.400016" lon="5.724764">
      </trkpt>
      <trkpt lat="50.400626" lon="5.725214">
      </trkpt>
      <trkpt lat="50.401008" lon="5.725641">
      </trkpt>
      <trkpt lat="50.401254" lon="5.726343">
      </trkpt>
      <trkpt lat="50.401356" lon="5.726744">
      </trkpt>
      <trkpt lat="50.401431" lon="5.72708">
      </trkpt>
      <trkpt lat="50.402095" lon="5.728285">
      </trkpt>
      <trkpt lat="50.402471" lon="5.728821">
      </trkpt>
      <trkpt lat="50.403127" lon="5.730902">
      </trkpt>
      <trkpt lat="50.40337" lon="5.731718">
      </trkpt>
      <trkpt lat="50.4039" lon="5.732808">
      </trkpt>
      <trkpt lat="50.404509" lon="5.734195">
      </trkpt>
      <trkpt lat="50.404495" lon="5.734979">
      </trkpt>
      <trkpt lat="50.404414" lon="5.73572">
      </trkpt>
      <trkpt lat="50.404243" lon="5.736761">
      </trkpt>
      <trkpt lat="50.404092" lon="5.737951">
      </trkpt>
      <trkpt lat="50.404065" lon="5.738923">
      </trkpt>
      <trkpt lat="50.403716" lon="5.739841">
      </trkpt>
      <trkpt lat="50.403361" lon="5.740778">
      </trkpt>
      <trkpt lat="50.40308" lon="5.741793">
      </trkpt>
      <trkpt lat="50.402889" lon="5.743359">
      </trkpt>
      <trkpt lat="50.403839" lon="5.745257">
      </trkpt>
      <trkpt lat="50.404372" lon="5.746401">
      </trkpt>
      <trkpt lat="50.404961" lon="5.747822">
      </trkpt>
      <trkpt lat="50.405289" lon="5.747564">
      </trkpt>
      <trkpt lat="50.405173" lon="5.746932">
      </trkpt>
      <trkpt lat="50.405331" lon="5.746082">
      </trkpt>
      <trkpt lat="50.405433" lon="5.745273">
      </trkpt>
      <trkpt lat="50.405836" lon="5.745595">
      </trkpt>
      <trkpt lat="50.406445" lon="5.745949">
      </trkpt>
      <trkpt lat="50.406992" lon="5.746131">
      </trkpt>
      <trkpt lat="50.407669" lon="5.745537">
      </trkpt>
      <trkpt lat="50.408564" lon="5.745638">
      </trkpt>
      <trkpt lat="50.409508" lon="5.745805">
      </trkpt>
      <trkpt lat="50.410226" lon="5.746192">
      </trkpt>
      <trkpt lat="50.410896" lon="5.746513">
      </trkpt>
      <trkpt lat="50.411333" lon="5.746621">
      </trkpt>
      <trkpt lat="50.411682" lon="5.74692">
      </trkpt>
      <trkpt lat="50.412339" lon="5.747103">
      </trkpt>
      <trkpt lat="50.412482" lon="5.747666">
      </trkpt>
      <trkpt lat="50.412694" lon="5.748283">
      </trkpt>
      <trkpt lat="50.413248" lon="5.747949">
      </trkpt>
      <trkpt lat="50.413576" lon="5.747356">
      </trkpt>
      <trkpt lat="50.413887" lon="5.747264">
      </trkpt>
      <trkpt lat="50.414136" lon="5.747388">
      </trkpt>
      <trkpt lat="50.414711" lon="5.747737">
      </trkpt>
      <trkpt lat="50.415182" lon="5.747883">
      </trkpt>
      <trkpt lat="50.415066" lon="5.748281">
      </trkpt>
      <trkpt lat="50.414796" lon="5.748379">
      </trkpt>
      <trkpt lat="50.414642" lon="5.748567">
      </trkpt>
      <trkpt lat="50.415216" lon="5.749129">
      </trkpt>
      <trkpt lat="50.415763" lon="5.749738">
      </trkpt>
      <trkpt lat="50.416304" lon="5.750225">
      </trkpt>
      <trkpt lat="50.416932" lon="5.750762">
      </trkpt>
      <trkpt lat="50.417808" lon="5.750907">
      </trkpt>
      <trkpt lat="50.418355" lon="5.751706">
      </trkpt>
      <trkpt lat="50.41882" lon="5.752511">
      </trkpt>
      <trkpt lat="50.418211" lon="5.753445">
      </trkpt>
      <trkpt lat="50.417684" lon="5.754261">
      </trkpt>
      <trkpt lat="50.417165" lon="5.754088">
      </trkpt>
      <trkpt lat="50.4164" lon="5.754277">
      </trkpt>
      <trkpt lat="50.415811" lon="5.754372">
      </trkpt>
      <trkpt lat="50.415347" lon="5.754356">
      </trkpt>
      <trkpt lat="50.414841" lon="5.754413">
      </trkpt>
      <trkpt lat="50.41452" lon="5.754752">
      </trkpt>
      <trkpt lat="50.414212" lon="5.755413">
      </trkpt>
      <trkpt lat="50.413952" lon="5.756019">
      </trkpt>
      <trkpt lat="50.413439" lon="5.756683">
      </trkpt>
      <trkpt lat="50.413056" lon="5.757135">
      </trkpt>
      <trkpt lat="50.412701" lon="5.757519">
      </trkpt>
      <trkpt lat="50.412421" lon="5.757745">
      </trkpt>
      <trkpt lat="50.411799" lon="5.7577">
      </trkpt>
      <trkpt lat="50.411457" lon="5.757855">
      </trkpt>
      <trkpt lat="50.412284" lon="5.758645">
      </trkpt>
      <trkpt lat="50.412695" lon="5.75905">
      </trkpt>
      <trkpt lat="50.412941" lon="5.759501">
      </trkpt>
      <trkpt lat="50.413214" lon="5.759978">
      </trkpt>
      <trkpt lat="50.413474" lon="5.760666">
      </trkpt>
      <trkpt lat="50.4137" lon="5.761641">
      </trkpt>
      <trkpt lat="50.414028" lon="5.762962">
      </trkpt>
      <trkpt lat="50.414233" lon="5.763869">
      </trkpt>
      <trkpt lat="50.414397" lon="5.764538">
      </trkpt>
      <trkpt lat="50.414486" lon="5.765515">
      </trkpt>
      <trkpt lat="50.414492" lon="5.766372">
      </trkpt>
      <trkpt lat="50.414513" lon="5.766824">
      </trkpt>
      <trkpt lat="50.414471" lon="5.767111">
      </trkpt>
      <trkpt lat="50.414396" lon="5.767428">
      </trkpt>
      <trkpt lat="50.414417" lon="5.767735">
      </trkpt>
      <trkpt lat="50.414437" lon="5.768089">
      </trkpt>
      <trkpt lat="50.414438" lon="5.768462">
      </trkpt>
      <trkpt lat="50.414424" lon="5.768824">
      </trkpt>
      <trkpt lat="50.414376" lon="5.769146">
      </trkpt>
      <trkpt lat="50.414294" lon="5.769537">
      </trkpt>
      <trkpt lat="50.414171" lon="5.770003">
      </trkpt>
      <trkpt lat="50.414116" lon="5.770453">
      </trkpt>
      <trkpt lat="50.414082" lon="5.770878">
      </trkpt>
      <trkpt lat="50.414027" lon="5.771242">
      </trkpt>
      <trkpt lat="50.413934" lon="5.771187">
      </trkpt>
      <trkpt lat="50.413761" lon="5.771026">
      </trkpt>
      <trkpt lat="50.41361" lon="5.770694">
      </trkpt>
      <trkpt lat="50.413521" lon="5.770469">
      </trkpt>
      <trkpt lat="50.413552" lon="5.770767">
      </trkpt>
      <trkpt lat="50.413631" lon="5.771108">
      </trkpt>
      <trkpt lat="50.413736" lon="5.77152">
      </trkpt>
      <trkpt lat="50.413924" lon="5.771948">
      </trkpt>
      <trkpt lat="50.414033" lon="5.772331">
      </trkpt>
      <trkpt lat="50.414344" lon="5.773261">
      </trkpt>
      <trkpt lat="50.414445" lon="5.773735">
      </trkpt>
      <trkpt lat="50.414437" lon="5.774204">
      </trkpt>
      <trkpt lat="50.414191" lon="5.775072">
      </trkpt>
      <trkpt lat="50.413891" lon="5.775372">
      </trkpt>
      <trkpt lat="50.413494" lon="5.775599">
      </trkpt>
      <trkpt lat="50.413283" lon="5.775807">
      </trkpt>
      <trkpt lat="50.41346" lon="5.776855">
      </trkpt>
      <trkpt lat="50.413529" lon="5.777242">
      </trkpt>
      <trkpt lat="50.41372" lon="5.777647">
      </trkpt>
      <trkpt lat="50.412982" lon="5.778485">
      </trkpt>
      <trkpt lat="50.412483" lon="5.778961">
      </trkpt>
      <trkpt lat="50.412148" lon="5.779387">
      </trkpt>
      <trkpt lat="50.411984" lon="5.779854">
      </trkpt>
      <trkpt lat="50.411963" lon="5.780246">
      </trkpt>
      <trkpt lat="50.412148" lon="5.780879">
      </trkpt>
      <trkpt lat="50.412134" lon="5.781318">
      </trkpt>
      <trkpt lat="50.412072" lon="5.781823">
      </trkpt>
      <trkpt lat="50.41186" lon="5.782601">
      </trkpt>
      <trkpt lat="50.411649" lon="5.783141">
      </trkpt>
      <trkpt lat="50.41169" lon="5.783711">
      </trkpt>
      <trkpt lat="50.41171" lon="5.784132">
      </trkpt>
      <trkpt lat="50.411731" lon="5.784527">
      </trkpt>
      <trkpt lat="50.411902" lon="5.785256">
      </trkpt>
      <trkpt lat="50.412025" lon="5.786007">
      </trkpt>
      <trkpt lat="50.412113" lon="5.786743">
      </trkpt>
      <trkpt lat="50.412237" lon="5.78723">
      </trkpt>
      <trkpt lat="50.413043" lon="5.789132">
      </trkpt>
      <trkpt lat="50.413337" lon="5.78931">
      </trkpt>
      <trkpt lat="50.413522" lon="5.789612">
      </trkpt>
      <trkpt lat="50.413481" lon="5.78987">
      </trkpt>
      <trkpt lat="50.413255" lon="5.790073">
      </trkpt>
      <trkpt lat="50.413105" lon="5.790216">
      </trkpt>
      <trkpt lat="50.412825" lon="5.791103">
      </trkpt>
      <trkpt lat="50.412852" lon="5.791897">
      </trkpt>
      <trkpt lat="50.412879" lon="5.792486">
      </trkpt>
      <trkpt lat="50.412688" lon="5.793656">
      </trkpt>
      <trkpt lat="50.412476" lon="5.794429">
      </trkpt>
      <trkpt lat="50.412284" lon="5.794938">
      </trkpt>
      <trkpt lat="50.4121" lon="5.795209">
      </trkpt>
      <trkpt lat="50.411943" lon="5.795501">
      </trkpt>
      <trkpt lat="50.411635" lon="5.796514">
      </trkpt>
      <trkpt lat="50.411498" lon="5.797055">
      </trkpt>
      <trkpt lat="50.4113" lon="5.797511">
      </trkpt>
      <trkpt lat="50.411102" lon="5.797809">
      </trkpt>
      <trkpt lat="50.410753" lon="5.798162">
      </trkpt>
      <trkpt lat="50.410548" lon="5.798485">
      </trkpt>
      <trkpt lat="50.410138" lon="5.798766">
      </trkpt>
      <trkpt lat="50.409973" lon="5.798989">
      </trkpt>
      <trkpt lat="50.409864" lon="5.799257">
      </trkpt>
      <trkpt lat="50.409645" lon="5.799486">
      </trkpt>
      <trkpt lat="50.409563" lon="5.799837">
      </trkpt>
      <trkpt lat="50.409816" lon="5.799668">
      </trkpt>
      <trkpt lat="50.410103" lon="5.799539">
      </trkpt>
      <trkpt lat="50.410302" lon="5.799708">
      </trkpt>
      <trkpt lat="50.410418" lon="5.800105">
      </trkpt>
      <trkpt lat="50.4105" lon="5.800502">
      </trkpt>
      <trkpt lat="50.410363" lon="5.800684">
      </trkpt>
      <trkpt lat="50.410206" lon="5.801038">
      </trkpt>
      <trkpt lat="50.410008" lon="5.801756">
      </trkpt>
      <trkpt lat="50.409686" lon="5.803022">
      </trkpt>
      <trkpt lat="50.409707" lon="5.803315">
      </trkpt>
      <trkpt lat="50.409782" lon="5.803656">
      </trkpt>
      <trkpt lat="50.409775" lon="5.804399">
      </trkpt>
      <trkpt lat="50.409611" lon="5.80446">
      </trkpt>
      <trkpt lat="50.409297" lon="5.804697">
      </trkpt>
      <trkpt lat="50.408886" lon="5.804933">
      </trkpt>
      <trkpt lat="50.408462" lon="5.804936">
      </trkpt>
      <trkpt lat="50.408298" lon="5.804879">
      </trkpt>
      <trkpt lat="50.408175" lon="5.805104">
      </trkpt>
      <trkpt lat="50.407997" lon="5.80518">
      </trkpt>
      <trkpt lat="50.407861" lon="5.80563">
      </trkpt>
      <trkpt lat="50.407915" lon="5.80592">
      </trkpt>
      <trkpt lat="50.407888" lon="5.806244">
      </trkpt>
      <trkpt lat="50.407826" lon="5.806609">
      </trkpt>
      <trkpt lat="50.407778" lon="5.806815">
      </trkpt>
      <trkpt lat="50.408041" lon="5.807085">
      </trkpt>
      <trkpt lat="50.408106" lon="5.807419">
      </trkpt>
      <trkpt lat="50.408181" lon="5.807648">
      </trkpt>
      <trkpt lat="50.408229" lon="5.807872">
      </trkpt>
      <trkpt lat="50.407984" lon="5.807997">
      </trkpt>
    </trkseg>
  </trk>
</gpx>
